{
  "type": "FeatureCollection",
  "features": [
    {
      "type": "Feature",
      "geometry": {
        "type": "Point",
        "coordinates": [
          12.069671666671802,
          57.643921428894664
        ]
      },
      "properties": {
        "td_url": "",
        "parking": "",
        "country": "Sweden",
        "wheelchair": "",
        "col37": "",
        "col36": "",
        "city": "Mölnlycke",
        "col35": "",
        "accessibility": "",
        "cabin": "",
        "description": "Grillplats i naturområdet Hårssjön-Rambo mosse. Grillplatsen sköts av Länsstyrelsen Västra Götaland. ",
        "snowmobile_trail": "",
        "wind_shelter": "",
        "trashbin": "",
        "playground": "",
        "id": "",
        "email": "",
        "table": "",
        "service_interval": "",
        "campground": "",
        "grate": "",
        "postcode": "",
        "restrictions": "",
        "boat_required": "",
        "water": "",
        "seating": "",
        "toilet": "",
        "visit_url": "https://www.harryda.se/byggaboochmiljo/natur/naturvard/lokalanaturvardsprojekt/genomfordaprojekt/harssjonrambomosse.4.58ac52a713a5c801848800018802.html",
        "﻿source": "2120001264",
        "beach": "",
        "shoreline": "",
        "name": "Naturreservatet Hårssjön-Rambo mosse",
        "wood_storage": "",
        "drinking_water": "",
        "updated": "",
        "wikidata": ""
      }
    },
    {
      "type": "Feature",
      "geometry": {
        "type": "Point",
        "coordinates": [
          12.085285000883562,
          57.66925712236772
        ]
      },
      "properties": {
        "td_url": "",
        "parking": "",
        "country": "Sweden",
        "wheelchair": "",
        "col37": "",
        "col36": "",
        "city": "Mölnlycke",
        "col35": "",
        "accessibility": "",
        "cabin": "",
        "description": "Grillplats i Rådasjöns naturreservat. Grillplatsen sköts av Mölndals stad. ",
        "snowmobile_trail": "",
        "wind_shelter": "",
        "trashbin": "",
        "playground": "",
        "id": "",
        "email": "",
        "table": "",
        "service_interval": "",
        "campground": "",
        "grate": "",
        "postcode": "",
        "restrictions": "",
        "boat_required": "",
        "water": "",
        "seating": "",
        "toilet": "",
        "visit_url": "https://www.harryda.se/byggaboochmiljo/natur/naturreservat/radasjon.4.58ac52a713a5c801848800019000.html",
        "﻿source": "2120001264",
        "beach": "",
        "shoreline": "",
        "name": "Rådasjöns naturreservat",
        "wood_storage": "",
        "drinking_water": "",
        "updated": "",
        "wikidata": ""
      }
    },
    {
      "type": "Feature",
      "geometry": {
        "type": "Point",
        "coordinates": [
          12.086326303983757,
          57.65967765926878
        ]
      },
      "properties": {
        "td_url": "",
        "parking": "",
        "country": "Sweden",
        "wheelchair": "",
        "col37": "",
        "col36": "",
        "city": "Mölnlycke",
        "col35": "",
        "accessibility": "",
        "cabin": "",
        "description": "Grillplats i Rådasjöns naturreservat. Grillplatsen sköts av Mölndals stad. ",
        "snowmobile_trail": "",
        "wind_shelter": "",
        "trashbin": "",
        "playground": "",
        "id": "",
        "email": "",
        "table": "",
        "service_interval": "",
        "campground": "",
        "grate": "",
        "postcode": "",
        "restrictions": "",
        "boat_required": "",
        "water": "",
        "seating": "",
        "toilet": "",
        "visit_url": "https://www.harryda.se/byggaboochmiljo/natur/naturreservat/radasjon.4.58ac52a713a5c801848800019000.html",
        "﻿source": "2120001264",
        "beach": "",
        "shoreline": "",
        "name": "Rådasjöns naturreservat",
        "wood_storage": "",
        "drinking_water": "",
        "updated": "",
        "wikidata": ""
      }
    },
    {
      "type": "Feature",
      "geometry": {
        "type": "Point",
        "coordinates": [
          12.101684764527763,
          57.65496238749646
        ]
      },
      "properties": {
        "td_url": "",
        "parking": "",
        "country": "Sweden",
        "wheelchair": "",
        "col37": "",
        "col36": "",
        "city": "Mölnlycke",
        "col35": "",
        "accessibility": "",
        "cabin": "",
        "description": "Grillplats i Rådasjöns naturreservat. Grillplatsen sköts av Härryda kommun. ",
        "snowmobile_trail": "",
        "wind_shelter": "",
        "trashbin": "",
        "playground": "",
        "id": "",
        "email": "",
        "table": "",
        "service_interval": "",
        "campground": "",
        "grate": "",
        "postcode": "",
        "restrictions": "",
        "boat_required": "",
        "water": "",
        "seating": "",
        "toilet": "",
        "visit_url": "https://www.harryda.se/byggaboochmiljo/natur/naturreservat/radasjon.4.58ac52a713a5c801848800019000.html",
        "﻿source": "2120001264",
        "beach": "",
        "shoreline": "",
        "name": "Rådasjöns naturreservat",
        "wood_storage": "",
        "drinking_water": "",
        "updated": "",
        "wikidata": ""
      }
    },
    {
      "type": "Feature",
      "geometry": {
        "type": "Point",
        "coordinates": [
          12.09930887780094,
          57.66370146537648
        ]
      },
      "properties": {
        "td_url": "",
        "parking": "",
        "country": "Sweden",
        "wheelchair": "",
        "col37": "",
        "col36": "",
        "city": "Mölnlycke",
        "col35": "",
        "accessibility": "",
        "cabin": "",
        "description": "Grillplats i Sagoparken, Säteriet i Mölnlycke. Grillplatsen sköts av Förbo AB. ",
        "snowmobile_trail": "",
        "wind_shelter": "",
        "trashbin": "",
        "playground": "",
        "id": "",
        "email": "",
        "table": "",
        "service_interval": "",
        "campground": "",
        "grate": "",
        "postcode": "",
        "restrictions": "",
        "boat_required": "",
        "water": "",
        "seating": "",
        "toilet": "",
        "visit_url": "https://www.xn--frbo-5qa.se/Vara-bostader/Aktivitetsparker/Sagoparken-pa-Sateriet-i-Molnlycke",
        "﻿source": "2120001264",
        "beach": "",
        "shoreline": "",
        "name": "Sagoparken Säteriet, Mölnlycke",
        "wood_storage": "",
        "drinking_water": "",
        "updated": "",
        "wikidata": ""
      }
    },
    {
      "type": "Feature",
      "geometry": {
        "type": "Point",
        "coordinates": [
          12.11438463917581,
          57.67539500309727
        ]
      },
      "properties": {
        "td_url": "",
        "parking": "",
        "country": "Sweden",
        "wheelchair": "",
        "col37": "",
        "col36": "",
        "city": "Mölnlycke",
        "col35": "",
        "accessibility": "",
        "cabin": "",
        "description": "Grillplats i Bråtaskogens naturreservat. Grillplatsen sköts av Västkuststiftelsen. ",
        "snowmobile_trail": "",
        "wind_shelter": "",
        "trashbin": "",
        "playground": "",
        "id": "",
        "email": "",
        "table": "",
        "service_interval": "",
        "campground": "",
        "grate": "",
        "postcode": "",
        "restrictions": "",
        "boat_required": "",
        "water": "",
        "seating": "",
        "toilet": "",
        "visit_url": "https://www.harryda.se/byggaboochmiljo/natur/naturreservat/brataskogensnaturreservat.4.5482c6b117220add0caeb5f8.html",
        "﻿source": "2120001264",
        "beach": "",
        "shoreline": "",
        "name": "Bråtaskogens naturreservat",
        "wood_storage": "",
        "drinking_water": "",
        "updated": "",
        "wikidata": ""
      }
    },
    {
      "type": "Feature",
      "geometry": {
        "type": "Point",
        "coordinates": [
          12.130003059019579,
          57.665565562967515
        ]
      },
      "properties": {
        "td_url": "",
        "parking": "",
        "country": "Sweden",
        "wheelchair": "",
        "col37": "",
        "col36": "",
        "city": "Mölnlycke",
        "col35": "",
        "accessibility": "",
        "cabin": "",
        "description": "Grillplats i Wendelsbergs friluftsområde. Grillplatsen sköts av Härryda kommun. ",
        "snowmobile_trail": "",
        "wind_shelter": "",
        "trashbin": "",
        "playground": "",
        "id": "",
        "email": "",
        "table": "",
        "service_interval": "",
        "campground": "",
        "grate": "",
        "postcode": "",
        "restrictions": "",
        "boat_required": "",
        "water": "",
        "seating": "",
        "toilet": "",
        "visit_url": "https://www.harryda.se/byggaboochmiljo/natur/naturomraden/wendelsbergsparken.4.58ac52a713a5c801848800019406.html",
        "﻿source": "2120001264",
        "beach": "",
        "shoreline": "",
        "name": "Wendelsbergs friluftsområde",
        "wood_storage": "",
        "drinking_water": "",
        "updated": "",
        "wikidata": ""
      }
    },
    {
      "type": "Feature",
      "geometry": {
        "type": "Point",
        "coordinates": [
          12.135048987487652,
          57.647498835150564
        ]
      },
      "properties": {
        "td_url": "",
        "parking": "",
        "country": "Sweden",
        "wheelchair": "",
        "col37": "",
        "col36": "",
        "city": "Mölnlycke",
        "col35": "",
        "accessibility": "",
        "cabin": "",
        "description": "Grillplats i Finnsjöns friluftsområde. Grillplatsen sköts av Härryda kommun. ",
        "snowmobile_trail": "",
        "wind_shelter": "",
        "trashbin": "",
        "playground": "",
        "id": "",
        "email": "",
        "table": "",
        "service_interval": "",
        "campground": "",
        "grate": "",
        "postcode": "",
        "restrictions": "",
        "boat_required": "",
        "water": "",
        "seating": "",
        "toilet": "",
        "visit_url": "",
        "﻿source": "2120001264",
        "beach": "",
        "shoreline": "",
        "name": "Finnsjöns friluftsområde",
        "wood_storage": "",
        "drinking_water": "",
        "updated": "",
        "wikidata": ""
      }
    },
    {
      "type": "Feature",
      "geometry": {
        "type": "Point",
        "coordinates": [
          12.136671042434974,
          57.64051255427382
        ]
      },
      "properties": {
        "td_url": "",
        "parking": "",
        "country": "Sweden",
        "wheelchair": "",
        "col37": "",
        "col36": "",
        "city": "Mölnlycke",
        "col35": "",
        "accessibility": "",
        "cabin": "",
        "description": "Grillplats i Finnsjöns friluftsområde. Grillplatsen sköts av Härryda kommun. ",
        "snowmobile_trail": "",
        "wind_shelter": "",
        "trashbin": "",
        "playground": "",
        "id": "",
        "email": "",
        "table": "",
        "service_interval": "",
        "campground": "",
        "grate": "",
        "postcode": "",
        "restrictions": "",
        "boat_required": "",
        "water": "",
        "seating": "",
        "toilet": "",
        "visit_url": "",
        "﻿source": "2120001264",
        "beach": "",
        "shoreline": "",
        "name": "Finnsjöns friluftsområde",
        "wood_storage": "",
        "drinking_water": "",
        "updated": "",
        "wikidata": ""
      }
    },
    {
      "type": "Feature",
      "geometry": {
        "type": "Point",
        "coordinates": [
          12.137187091585076,
          57.64105744651266
        ]
      },
      "properties": {
        "td_url": "",
        "parking": "",
        "country": "Sweden",
        "wheelchair": "",
        "col37": "",
        "col36": "",
        "city": "Mölnlycke",
        "col35": "",
        "accessibility": "",
        "cabin": "",
        "description": "Grillplats i Finnsjöns friluftsområde. Grillplatsen sköts av Härryda kommun. ",
        "snowmobile_trail": "",
        "wind_shelter": "",
        "trashbin": "",
        "playground": "",
        "id": "",
        "email": "",
        "table": "",
        "service_interval": "",
        "campground": "",
        "grate": "",
        "postcode": "",
        "restrictions": "",
        "boat_required": "",
        "water": "",
        "seating": "",
        "toilet": "",
        "visit_url": "",
        "﻿source": "2120001264",
        "beach": "",
        "shoreline": "",
        "name": "Finnsjöns naturbad",
        "wood_storage": "",
        "drinking_water": "",
        "updated": "",
        "wikidata": ""
      }
    },
    {
      "type": "Feature",
      "geometry": {
        "type": "Point",
        "coordinates": [
          12.19996894313861,
          57.69732946817762
        ]
      },
      "properties": {
        "td_url": "",
        "parking": "",
        "country": "Sweden",
        "wheelchair": "",
        "col37": "",
        "col36": "",
        "city": "Landvetter",
        "col35": "",
        "accessibility": "",
        "cabin": "",
        "description": "Grillplats vid Agntjärn i Gallhålans naturreservat.  Grillplatsen sköts av Härryda kommun. ",
        "snowmobile_trail": "",
        "wind_shelter": "",
        "trashbin": "",
        "playground": "",
        "id": "",
        "email": "",
        "table": "",
        "service_interval": "",
        "campground": "",
        "grate": "",
        "postcode": "",
        "restrictions": "",
        "boat_required": "",
        "water": "",
        "seating": "",
        "toilet": "",
        "visit_url": "https://www.harryda.se/byggaboochmiljo/natur/naturreservat/gallhalan.4.58ac52a713a5c801848800018969.html",
        "﻿source": "2120001264",
        "beach": "",
        "shoreline": "",
        "name": "Gallhålans naturreservat",
        "wood_storage": "",
        "drinking_water": "",
        "updated": "",
        "wikidata": ""
      }
    },
    {
      "type": "Feature",
      "geometry": {
        "type": "Point",
        "coordinates": [
          12.19309891249467,
          57.69245930492198
        ]
      },
      "properties": {
        "td_url": "",
        "parking": "",
        "country": "Sweden",
        "wheelchair": "",
        "col37": "",
        "col36": "",
        "city": "Landvetter",
        "col35": "",
        "accessibility": "",
        "cabin": "",
        "description": "Grillplats vid ängen i Gallhålans naturreservat.  Grillplatsen sköts av Härryda kommun. ",
        "snowmobile_trail": "",
        "wind_shelter": "",
        "trashbin": "",
        "playground": "",
        "id": "",
        "email": "",
        "table": "",
        "service_interval": "",
        "campground": "",
        "grate": "",
        "postcode": "",
        "restrictions": "",
        "boat_required": "",
        "water": "",
        "seating": "",
        "toilet": "",
        "visit_url": "https://www.harryda.se/byggaboochmiljo/natur/naturreservat/gallhalan.4.58ac52a713a5c801848800018969.html",
        "﻿source": "2120001264",
        "beach": "",
        "shoreline": "",
        "name": "Gallhålans naturreservat",
        "wood_storage": "",
        "drinking_water": "",
        "updated": "",
        "wikidata": ""
      }
    },
    {
      "type": "Feature",
      "geometry": {
        "type": "Point",
        "coordinates": [
          12.198707996122419,
          57.69555682342427
        ]
      },
      "properties": {
        "td_url": "",
        "parking": "",
        "country": "Sweden",
        "wheelchair": "",
        "col37": "",
        "col36": "",
        "city": "Landvetter",
        "col35": "",
        "accessibility": "",
        "cabin": "",
        "description": "Grillplats vid Önneröds by i Gallhålans naturreservat.  Grillplatsen sköts av Härryda kommun. ",
        "snowmobile_trail": "",
        "wind_shelter": "",
        "trashbin": "",
        "playground": "",
        "id": "",
        "email": "",
        "table": "",
        "service_interval": "",
        "campground": "",
        "grate": "",
        "postcode": "",
        "restrictions": "",
        "boat_required": "",
        "water": "",
        "seating": "",
        "toilet": "",
        "visit_url": "https://www.harryda.se/byggaboochmiljo/natur/naturreservat/gallhalan.4.58ac52a713a5c801848800018969.html",
        "﻿source": "2120001264",
        "beach": "",
        "shoreline": "",
        "name": "Gallhålans naturreservat",
        "wood_storage": "",
        "drinking_water": "",
        "updated": "",
        "wikidata": ""
      }
    },
    {
      "type": "Feature",
      "geometry": {
        "type": "Point",
        "coordinates": [
          12.48120779635494,
          57.6887794761359
        ]
      },
      "properties": {
        "td_url": "",
        "parking": "",
        "country": "Sweden",
        "wheelchair": "",
        "col37": "",
        "col36": "",
        "city": "Hindås",
        "col35": "",
        "accessibility": "",
        "cabin": "",
        "description": "Grillplats i Klippans naturreservat.  Grillplatsen sköts av Västkuststiftelsen. ",
        "snowmobile_trail": "",
        "wind_shelter": "",
        "trashbin": "",
        "playground": "",
        "id": "",
        "email": "",
        "table": "",
        "service_interval": "",
        "campground": "",
        "grate": "",
        "postcode": "",
        "restrictions": "",
        "boat_required": "",
        "water": "",
        "seating": "",
        "toilet": "",
        "visit_url": "https://www.harryda.se/byggaboochmiljo/natur/naturreservat/klippan.4.58ac52a713a5c801848800019235.html",
        "﻿source": "2120001264",
        "beach": "",
        "shoreline": "",
        "name": "Klippans Naturreservat",
        "wood_storage": "",
        "drinking_water": "",
        "updated": "",
        "wikidata": ""
      }
    },
    {
      "type": "Feature",
      "geometry": {
        "type": "Point",
        "coordinates": [
          12.506070454689224,
          57.66522574931998
        ]
      },
      "properties": {
        "td_url": "",
        "parking": "",
        "country": "Sweden",
        "wheelchair": "",
        "col37": "",
        "col36": "",
        "city": "Rävlanda",
        "col35": "",
        "accessibility": "",
        "cabin": "",
        "description": "Badplats i Rävlanda. Bryggor som ligger i året runt, gräsmatta, grillplats och hopptorn. Cirka 300 meter till parkering. Vi har för närvarande problem med att läsa av vattentemperaturen på den här badplatsen.",
        "snowmobile_trail": "",
        "wind_shelter": "",
        "trashbin": "",
        "playground": "",
        "id": "",
        "email": "",
        "table": "",
        "service_interval": "",
        "campground": "",
        "grate": "",
        "postcode": "",
        "restrictions": "",
        "boat_required": "",
        "water": "",
        "seating": "",
        "toilet": "",
        "visit_url": "",
        "﻿source": "2120001264",
        "beach": "",
        "shoreline": "",
        "name": "Rammsjöns badplats",
        "wood_storage": "",
        "drinking_water": "",
        "updated": "",
        "wikidata": ""
      }
    },
    {
      "type": "Feature",
      "geometry": {
        "type": "Point",
        "coordinates": [
          12.500454782120167,
          57.64889966008036
        ]
      },
      "properties": {
        "td_url": "",
        "parking": "",
        "country": "Sweden",
        "wheelchair": "",
        "col37": "",
        "col36": "",
        "city": "Rävlanda",
        "col35": "",
        "accessibility": "",
        "cabin": "",
        "description": "Grillplats i Rävlanda hed. Grillplatsen sköts av Härryda kommun. En grillplats med tak.",
        "snowmobile_trail": "",
        "wind_shelter": "",
        "trashbin": "",
        "playground": "",
        "id": "",
        "email": "",
        "table": "",
        "service_interval": "",
        "campground": "",
        "grate": "",
        "postcode": "",
        "restrictions": "",
        "boat_required": "",
        "water": "",
        "seating": "",
        "toilet": "",
        "visit_url": "",
        "﻿source": "2120001264",
        "beach": "",
        "shoreline": "",
        "name": "Rävlanda Hed",
        "wood_storage": "",
        "drinking_water": "",
        "updated": "",
        "wikidata": ""
      }
    },
    {
      "type": "Feature",
      "geometry": {
        "type": "Point",
        "coordinates": [
          12.505381242892001,
          57.64946450295711
        ]
      },
      "properties": {
        "td_url": "",
        "parking": "",
        "country": "Sweden",
        "wheelchair": "",
        "col37": "",
        "col36": "",
        "city": "Rävlanda",
        "col35": "",
        "accessibility": "",
        "cabin": "",
        "description": "Grillplats i Rävlanda hed. Grillplatsen sköts av Härryda kommun. ",
        "snowmobile_trail": "",
        "wind_shelter": "",
        "trashbin": "",
        "playground": "",
        "id": "",
        "email": "",
        "table": "",
        "service_interval": "",
        "campground": "",
        "grate": "",
        "postcode": "",
        "restrictions": "",
        "boat_required": "",
        "water": "",
        "seating": "",
        "toilet": "",
        "visit_url": "",
        "﻿source": "2120001264",
        "beach": "",
        "shoreline": "",
        "name": "Rävlanda Hed",
        "wood_storage": "",
        "drinking_water": "",
        "updated": "",
        "wikidata": ""
      }
    },
    {
      "type": "Feature",
      "geometry": {
        "type": "Point",
        "coordinates": [
          12.135166899226261,
          57.66853969926796
        ]
      },
      "properties": {
        "td_url": "",
        "parking": "",
        "country": "Sweden",
        "wheelchair": "",
        "col37": "",
        "col36": "",
        "city": "Mölnlycke",
        "col35": "",
        "accessibility": "",
        "cabin": "",
        "description": "Grillplats i Wendelsbergs friluftsområde. Grillplatsen sköts av Härryda kommun. ",
        "snowmobile_trail": "",
        "wind_shelter": "",
        "trashbin": "",
        "playground": "",
        "id": "",
        "email": "",
        "table": "",
        "service_interval": "",
        "campground": "",
        "grate": "",
        "postcode": "",
        "restrictions": "",
        "boat_required": "",
        "water": "",
        "seating": "",
        "toilet": "",
        "visit_url": "",
        "﻿source": "2120001264",
        "beach": "",
        "shoreline": "",
        "name": "Wendelsbergs friluftsområde",
        "wood_storage": "",
        "drinking_water": "",
        "updated": "",
        "wikidata": ""
      }
    },
    {
      "type": "Feature",
      "geometry": {
        "type": "Point",
        "coordinates": [
          12.454926369448463,
          57.707664051201114
        ]
      },
      "properties": {
        "td_url": "",
        "parking": "",
        "country": "Sweden",
        "wheelchair": "",
        "col37": "",
        "col36": "",
        "city": "Hindås",
        "col35": "",
        "accessibility": "",
        "cabin": "",
        "description": "Grillplats vid västra nedsjöns badplats. Grillplatsen sköts av Härryda kommun.",
        "snowmobile_trail": "",
        "wind_shelter": "",
        "trashbin": "",
        "playground": "",
        "id": "",
        "email": "",
        "table": "",
        "service_interval": "",
        "campground": "",
        "grate": "",
        "postcode": "",
        "restrictions": "",
        "boat_required": "",
        "water": "",
        "seating": "",
        "toilet": "",
        "visit_url": "",
        "﻿source": "2120001264",
        "beach": "",
        "shoreline": "",
        "name": "Västra nedsjöns grillplats",
        "wood_storage": "",
        "drinking_water": "",
        "updated": "",
        "wikidata": ""
      }
    },
    {
      "type": "Feature",
      "geometry": {
        "type": "Point",
        "coordinates": [
          12.128671272283874,
          57.6622921419526
        ]
      },
      "properties": {
        "td_url": "",
        "parking": "",
        "country": "Sweden",
        "wheelchair": "",
        "col37": "",
        "col36": "",
        "city": "Mölnlycke",
        "col35": "",
        "accessibility": "",
        "cabin": "",
        "description": "Grillplats i Wendelsbergsparken. I närheten finns en \"inte nudda marken-bana\"",
        "snowmobile_trail": "",
        "wind_shelter": "",
        "trashbin": "",
        "playground": "",
        "id": "",
        "email": "",
        "table": "",
        "service_interval": "",
        "campground": "",
        "grate": "",
        "postcode": "",
        "restrictions": "",
        "boat_required": "",
        "water": "",
        "seating": "",
        "toilet": "",
        "visit_url": "",
        "﻿source": "2120001264",
        "beach": "",
        "shoreline": "",
        "name": "Grillplats Wendelsberg",
        "wood_storage": "",
        "drinking_water": "",
        "updated": "",
        "wikidata": ""
      }
    }
  ]
}