{"type":"FeatureCollection","features":[{"type":"Feature","id":"vindskydd.5358","geometry":{"type":"Point","coordinates":[172991,6349064.99999999]},"geometry_name":"geom","properties":{"namn":"DRANSTUGAN","beskrivning":"Här hittar du ett vindskydd, som rymmer 4-5 vuxna personer. Här finns även eldstad och torr toalett. Här finns en vattenkran som är öppen året runt, aktiveras med en tryckknapp.\n\n","nara_parkering":"Ja","nara_toalett":"Ja","vindskydd":"Ja","eldplats":"Ja","rastplats":"Ja","toalett":"Ja","dricksvatten":"Ja","raststuga":"Nej","bild_filnamn":"dranstugan","lank":"https://www.rvast.se/","x_epsg3007":172991,"y_epsg3007":6349065}},{"type":"Feature","id":"vindskydd.5359","geometry":{"type":"Point","coordinates":[182518,6343367.99999999]},"geometry_name":"geom","properties":{"namn":"GÄLLARPESJÖN","beskrivning":"Här hittar du ett vindskydd, som rymmer 4-5 vuxna personer och här finns eldstad och ved. Toalett finns söder om vindskyddet vid bilparkeringen. Badplats i närheten och fiskemöjligheter, kolla upp om fiskekort krävs.\n\nDricksvatten finns att hämta vid närliggande Nösslinge Kyrka, på utsidan av en servicebyggnad tillhörande kyrkan.","nara_parkering":"Ja","nara_toalett":"Ja","vindskydd":"Ja","eldplats":"Ja","rastplats":"Ja","toalett":"Ja","dricksvatten":"Nej","raststuga":"Nej","bild_filnamn":"gallarpesjon","lank":null,"x_epsg3007":182518,"y_epsg3007":6343368}},{"type":"Feature","id":"vindskydd.5360","geometry":{"type":"Point","coordinates":[182164,6327017.99999998]},"geometry_name":"geom","properties":{"namn":"BYASJÖN","beskrivning":"Här finns ett vindskyddet som rymmer 4-5 vuxna. Det ligger vackert beläget i Långanskogens Naturreservat vid Byasjöns strand med utsikt över sjön. Här finns en eldstad och toalett.\n\nSjön bjuder på fiskemöjligheter, för detta krävs fiskekort.\n\nVindskyddet byggdes 2020 av Varbergs Kommun i friluftsprojektet Outwest med finansiering från Lokalt Ledd Utveckling Halland och Europeiska Jordbruksfonden för landsbygdsutveckling.","nara_parkering":"Nej","nara_toalett":"Ja","vindskydd":"Ja","eldplats":"Ja","rastplats":"Ja","toalett":"Ja","dricksvatten":"Nej","raststuga":"Nej","bild_filnamn":"byasjon","lank":"https://www.hallandsleden.se/","x_epsg3007":182164,"y_epsg3007":6327018}},{"type":"Feature","id":"vindskydd.5361","geometry":{"type":"Point","coordinates":[184054,6333990.99999999]},"geometry_name":"geom","properties":{"namn":"ÅKULLA","beskrivning":"Ett fint vindskydd med lägerplats och övernattningsmöjlighet i nära anslutning till Åkulla Friluftsgård.\n\nVed finns att köpa på friluftsgården. Här finns även tillgång till dricksvatten, toalett, dusch mm.","nara_parkering":"Ja","nara_toalett":"Ja","vindskydd":"Ja","eldplats":"Ja","rastplats":"Ja","toalett":"Nej","dricksvatten":"Nej","raststuga":"Nej","bild_filnamn":"akulla","lank":null,"x_epsg3007":184054,"y_epsg3007":6333991}},{"type":"Feature","id":"vindskydd.5362","geometry":{"type":"Point","coordinates":[184112,6334207.99999999]},"geometry_name":"geom","properties":{"namn":"YASJÖN","beskrivning":"Ca 150 meter ut i Yasjön finns en ö och ut till den är det möjligt att åka med linbaneflotte. Flotten har plats för 9-12 personer och man drar sig ut till ön via en lina. På ön finns en lägerplats med vindskydd. Kom ihåg att köpa med ved från Åkulla Friluftsgård då detta inte finns att tillgå på ön.\nUnder fåglarnas häckningsperiod som är 1 mars – 30 juni är det vara förbjudet att beträda ön. Linbaneflotten är i drift från 1 juli till mitten av oktober,övrig tid hänvisas till vindskyddet i Åkulla","nara_parkering":"Nej","nara_toalett":"Nej","vindskydd":"Ja","eldplats":"Ja","rastplats":"Ja","toalett":"Nej","dricksvatten":"Nej","raststuga":"Nej","bild_filnamn":"yasjon","lank":null,"x_epsg3007":184112,"y_epsg3007":6334208}},{"type":"Feature","id":"vindskydd.5363","geometry":{"type":"Point","coordinates":[186206,6358197]},"geometry_name":"geom","properties":{"namn":"AGNBÄCK","beskrivning":"I Agnbäck finns tre vindskydd passande för övernattning. Ett ligger nära Birgerstugan, de andra två lite mer avskilt. Vindskydden, och även Birgerstugan går att boka för övernattning.\n\nHär finns också flertalet grillplatser med vedförråd. Besök Kungsätersbygdens hemsida för mer information och bokning.","nara_parkering":"Ja","nara_toalett":"Ja","vindskydd":"Ja","eldplats":"Ja","rastplats":"Nej","toalett":"Ja","dricksvatten":"Nej","raststuga":"Nej","bild_filnamn":"agnback","lank":"http://kungsatersbygden.se/","x_epsg3007":186206,"y_epsg3007":6358197}},{"type":"Feature","id":"vindskydd.5364","geometry":{"type":"Point","coordinates":[189527,6354838]},"geometry_name":"geom","properties":{"namn":"I BÄCK, GUNNARSJÖ","beskrivning":"Värm dig vid en brasa, grilla en bit mat eller svalka dina fötter i sjön efter en tur på Kungsjölederna. Vid vindskyddet, vackert beläget vid Stora Sävsjön, kan du fylla på med energi både till kropp och själ!\n\nDetta vindskydd är en del av Kungsjölederna som byggts och underhålls av Kungsäter-Gunnarsjö Bygdelag.","nara_parkering":"Ja","nara_toalett":"Ja","vindskydd":"Ja","eldplats":"Ja","rastplats":"Ja","toalett":"Ja","dricksvatten":"Nej","raststuga":"Nej","bild_filnamn":"back_gunnarsjo","lank":"http://kungsatersbygden.se/","x_epsg3007":189527,"y_epsg3007":6354838}},{"type":"Feature","id":"vindskydd.5365","geometry":{"type":"Point","coordinates":[186180,6358041]},"geometry_name":"geom","properties":{"namn":"AGNBÄCK, BIRGERSTUGAN OCH VINDSKYDD","beskrivning":"Alldeles vid Birgerstugan i Agnbäck finns ett vindskydd. Vindskyddet och även Birgerstugan går att boka för övernattning. Här finns också flertalet grillplatser med vedförråd. Det går också fint att bada från bryggan som ligger här.\n\nBesök Kungsätersbygdens hemsida för mer information och bokning.","nara_parkering":"Ja","nara_toalett":"Ja","vindskydd":"Ja","eldplats":"Nej","rastplats":"Ja","toalett":"Nej","dricksvatten":"Nej","raststuga":"Ja","bild_filnamn":"agnback_birgerstugan","lank":"http://kungsatersbygden.se/","x_epsg3007":186180,"y_epsg3007":6358041}},{"type":"Feature","id":"vindskydd.5366","geometry":{"type":"Point","coordinates":[186418,6331310.99999998]},"geometry_name":"geom","properties":{"namn":"BJÖRKASJÖ","beskrivning":"Ett jättefint vindskydd att rasta vid och övernatta i med fantastisk utsikt över Björkasjö.\n\nVindskyddet har byggts och sköts av Åkulla Bokskogars Intresseförening. I anslutning till vindskyddet finns också en toalett samt ett vedförråd.","nara_parkering":"Nej","nara_toalett":"Ja","vindskydd":"Ja","eldplats":"Ja","rastplats":"Ja","toalett":"Ja","dricksvatten":"Nej","raststuga":"Nej","bild_filnamn":"bjorkasjo","lank":"http://akullabokskogar.nu/overnatta-och-grilla-vid-bjorkasjo/","x_epsg3007":186418,"y_epsg3007":6331311}},{"type":"Feature","id":"vindskydd.5367","geometry":{"type":"Point","coordinates":[175626,6325481.99999998]},"geometry_name":"geom","properties":{"namn":"PÅ HÖJDEN, HÖRÅSEN","beskrivning":"På Höråsen finns ett vackert beläget vindskydd med fantastisk utsikt. Du hittar hit från motionsspåret genom att följa skylten märkt \"Utsikt\".\n\nObservera att vindskyddet inte har någon tillhörande grillplats, för detta hänvisas till det andra vindskyddet på Höråsen.","nara_parkering":"Nej","nara_toalett":"Nej","vindskydd":"Ja","eldplats":"Nej","rastplats":"Nej","toalett":"Nej","dricksvatten":"Nej","raststuga":"Nej","bild_filnamn":"pa_hojden_horasen","lank":"https://www.varberg.se/upplevagora/idrottmotionochfriluftsliv/elljussparochmotionsspar.4.cd2d5fa14102cb73ad69b.html","x_epsg3007":175626,"y_epsg3007":6325482}},{"type":"Feature","id":"vindskydd.5368","geometry":{"type":"Point","coordinates":[175283,6325348.99999998]},"geometry_name":"geom","properties":{"namn":"HÖRÅSEN","beskrivning":"Längs Höråsens motionsspår finns ett vindskydd med tillhörande grillplats. Ta med dig egen ved eller grillkol.","nara_parkering":"Nej","nara_toalett":"Nej","vindskydd":"Ja","eldplats":"Ja","rastplats":"Nej","toalett":"Nej","dricksvatten":"Nej","raststuga":"Nej","bild_filnamn":"horasen","lank":"https://www.varberg.se/upplevagora/idrottmotionochfriluftsliv/elljussparochmotionsspar.4.cd2d5fa14102cb73ad69b.html","x_epsg3007":175283,"y_epsg3007":6325349}}],"totalFeatures":11,"numberMatched":11,"numberReturned":11,"timeStamp":"2026-07-20T10:39:35.273Z","crs":{"type":"name","properties":{"name":"urn:ogc:def:crs:EPSG::3007"}}}