{
	"type" : "FeatureCollection",
	"name" : "vindskydd",
	"features" : [
		{
			"type" : "Feature",
			"geometry" : {
				"type" : "Point",
				"coordinates" : [ 17.6232616884, 59.0567962891 ]
			},
			"properties" : {
				"source" : "2120000159",
				"name" : "Vindskydd vid Kustleden - Södertäljes kust",
				"latitude" : 59.05679628911801,
				"longitude" : 17.623261688379426,
				"updated" : "2023-03-21",
				"wikidata" : null,
				"email" : "miljokontoret@sodertalje.se",
				"description" : "Vindskydd med grillplats och bänkar på Nibbles hagmarker. Det går kor i hagen och det är el i stängslet.",
				"postcode" : null,
				"city" : "Järna",
				"country" : "Sverige",
				"wood_storage" : false,
				"grate" : true,
				"water" : false,
				"drinking_water" : false,
				"shoreline" : false,
				"toilet" : false,
				"seating" : true,
				"table" : false,
				"trashbin" : false,
				"beach" : false,
				"parking" : false,
				"accessibility" : "Vindskyddet ligger längs en vandringsled. Underlaget är bitvis mjukt och ojämnt.",
				"td_url" : "https://www.naturkartan.se/sv/stockholms-lan/vindskydd-vid-kustleden-sodertaljes-kust",
				"wheelchair" : false,
				"service_interval" : "IRREG",
				"fireplace" : true,
				"id" : "0181_vindskydd_0001"
			}
		},
		{
			"type" : "Feature",
			"geometry" : {
				"type" : "Point",
				"coordinates" : [ 17.5613185885, 59.1826798269 ]
			},
			"properties" : {
				"source" : "2120000159",
				"name" : "Vindskydd vid Måsnaren",
				"latitude" : 59.18267982694184,
				"longitude" : 17.561318588547486,
				"updated" : "2023-03-21",
				"wikidata" : null,
				"email" : "miljokontoret@sodertalje.se",
				"description" : "Vindskyddet ligger vid Måsnarens strand längs vandringsleden Måsnarenleden. Det finns plats för flera personer.",
				"postcode" : null,
				"city" : "Södertälje",
				"country" : "Sverige",
				"wood_storage" : false,
				"grate" : true,
				"water" : true,
				"drinking_water" : false,
				"shoreline" : true,
				"toilet" : false,
				"seating" : true,
				"table" : false,
				"trashbin" : false,
				"beach" : true,
				"parking" : false,
				"accessibility" : "Vindskyddet ligger längst en vandringsled. Från parkeringen är det en smal skogsstig som delvis är ojämn.",
				"td_url" : "https://www.naturkartan.se/sv/stockholms-lan/vindskydd-vid-masnaren",
				"wheelchair" : false,
				"service_interval" : "QUARTERLY",
				"fireplace" : true,
				"id" : "0181_vindskydd_0002"
			}
		},
		{
			"type" : "Feature",
			"geometry" : {
				"type" : "Point",
				"coordinates" : [ 17.5677062017, 59.2294815955 ]
			},
			"properties" : {
				"source" : "2120000159",
				"name" : "Vindskydd Hasseludden vid Naturskolan, Lina naturreservat",
				"latitude" : 59.2294815955431,
				"longitude" : 17.567706201724935,
				"updated" : "2023-10-30",
				"wikidata" : null,
				"email" : "miljokontoret@sodertalje.se",
				"description" : "Stort vindskydd som används av Naturskolan i deras undervisning, övrig tid är det öppet för allmänheten",
				"postcode" : "15157",
				"city" : "Södertälje",
				"country" : "Sverige",
				"wood_storage" : true,
				"grate" : true,
				"water" : false,
				"drinking_water" : false,
				"shoreline" : false,
				"toilet" : false,
				"seating" : true,
				"table" : false,
				"trashbin" : false,
				"beach" : false,
				"parking" : false,
				"accessibility" : "Stig mellan grusväg och vindskydd är ej tillgänglighetsanpassad ",
				"td_url" : null,
				"wheelchair" : false,
				"service_interval" : "Weekly",
				"fireplace" : true,
				"id" : "0181_vindskydd_0003"
			}
		},
		{
			"type" : "Feature",
			"geometry" : {
				"type" : "Point",
				"coordinates" : [ 17.5641938169, 59.2309533284 ]
			},
			"properties" : {
				"source" : "2120000159",
				"name" : "Vindskydd bakom Naturskolan, Lina naturreservat",
				"latitude" : 59.23095332841715,
				"longitude" : 17.56419381692433,
				"updated" : "2023-10-30",
				"wikidata" : null,
				"email" : "miljokontoret@sodertalje.se",
				"description" : "Vindskydd bakom naturskolan som används i deras undervisning, övrig tid är det öppet för allmänheten",
				"postcode" : "15157",
				"city" : "Södertäle",
				"country" : "Sverige",
				"wood_storage" : false,
				"grate" : false,
				"water" : false,
				"drinking_water" : false,
				"shoreline" : false,
				"toilet" : false,
				"seating" : true,
				"table" : false,
				"trashbin" : false,
				"beach" : false,
				"parking" : true,
				"accessibility" : "Stig mellan parkering och vindskydd är ej tillgänglighetsanpassat",
				"td_url" : null,
				"wheelchair" : false,
				"service_interval" : "Weekly",
				"fireplace" : false,
				"id" : "0181_vindskydd_0004"
			}
		},
		{
			"type" : "Feature",
			"geometry" : {
				"type" : "Point",
				"coordinates" : [ 17.5694436216, 59.2235811415 ]
			},
			"properties" : {
				"source" : "2120000159",
				"name" : "Vindskydd vid Mora torp, Lina naturreservat",
				"latitude" : 59.22358114148267,
				"longitude" : 17.569443621616575,
				"updated" : "2023-10-30",
				"wikidata" : null,
				"email" : "miljokontoret@sodertalje.se",
				"description" : "Vindskydd vid Mora torp i Lina naturreservat",
				"postcode" : "15157",
				"city" : "Södertälje",
				"country" : "Sverige",
				"wood_storage" : true,
				"grate" : true,
				"water" : false,
				"drinking_water" : false,
				"shoreline" : false,
				"toilet" : true,
				"seating" : true,
				"table" : false,
				"trashbin" : false,
				"beach" : false,
				"parking" : true,
				"accessibility" : "Stig mellan parkering och vindskydd ej tillgänglighetsanpassat, passerar en färist och en sjä'lvstängande grind",
				"td_url" : null,
				"wheelchair" : false,
				"service_interval" : "Weekly",
				"fireplace" : true,
				"id" : "0181_vindskydd_0005"
			}
		}
	]
}