{"type": "FeatureCollection",
 "bbox": [ 17.81034678, 59.11048047, 18.23706611, 59.31702172],
 "features": [
  {"bbox":[18.03673,59.172326,18.051952,59.177719],"geometry":{"coordinates":[[[18.040139,59.176094,0.0],[18.040164,59.176094,0.0],[18.042067,59.175409,0.0],[18.04927,59.177719,0.0],[18.050518,59.177655,0.0],[18.051952,59.176526,0.0],[18.04024,59.172326,0.0],[18.03673,59.174165,0.0],[18.040139,59.176094,0.0]]],"type":"Polygon"},"id":"bdt.1","properties":{"andrad_av":null,"andrad_datum":null,"area":206351.69,"idnr":1,"kod":8,"namn":"Ekedal","old_idnr":1,"skapad_av":null,"skapad_datum":null},"type":"Feature"}
 ,{"bbox":[17.963213,59.184136,18.004348,59.196503],"geometry":{"coordinates":[[[18.00114,59.194694,0.0],[18.002499,59.1943,0.0],[18.00347,59.193586,0.0],[18.004348,59.192294,0.0],[18.003409,59.192052,0.0],[17.998693,59.190582,0.0],[17.996557,59.190691,0.0],[17.994124,59.190054,0.0],[17.991989,59.19002,0.0],[17.990464,59.190237,0.0],[17.989212,59.190917,0.0],[17.988082,59.190347,0.0],[17.986291,59.18924,0.0],[17.984447,59.188901,0.0],[17.983029,59.189627,0.0],[17.983208,59.188658,0.0],[17.98197,59.187961,0.0],[17.979375,59.187081,0.0],[17.976956,59.18717,0.0],[17.97613,59.186685,0.0],[17.976368,59.18614,0.0],[17.974679,59.185358,0.0],[17.973187,59.185529,0.0],[17.973371,59.186004,0.0],[17.974308,59.187186,0.0],[17.974355,59.188834,0.0],[17.975415,59.189592,0.0],[17.974646,59.19047,0.0],[17.97553,59.191015,0.0],[17.974348,59.191651,0.0],[17.972813,59.19168,0.0],[17.971279,59.191618,0.0],[17.970636,59.191377,0.0],[17.970295,59.190873,0.0],[17.970928,59.190134,0.0],[17.971324,59.189187,0.0],[17.971242,59.187806,0.0],[17.96982,59.185167,0.0],[17.968465,59.184136,0.0],[17.967526,59.184767,0.0],[17.967255,59.185044,0.0],[17.966929,59.185694,0.0],[17.967497,59.185804,0.0],[17.966846,59.187321,0.0],[17.966093,59.188223,0.0],[17.964791,59.189585,0.0],[17.966265,59.190252,0.0],[17.966616,59.191464,0.0],[17.963213,59.191888,0.0],[17.964093,59.192905,0.0],[17.967891,59.193374,0.0],[17.972169,59.194145,0.0],[17.973665,59.194833,0.0],[17.975111,59.194243,0.0],[17.976769,59.194752,0.0],[17.981127,59.195716,0.0],[17.9816,59.195138,0.0],[17.990034,59.196503,0.0],[17.997302,59.19554,0.0],[17.997302,59.195237,0.0],[18.00114,59.194694,0.0]]],"type":"Polygon"},"id":"bdt.2","properties":{"andrad_av":null,"andrad_datum":null,"area":1453748.81,"idnr":2,"kod":5,"namn":"Gladö Kvarn","old_idnr":2,"skapad_av":null,"skapad_datum":null},"type":"Feature"}
 ,{"bbox":[17.878836,59.230674,17.953452,59.257209],"geometry":{"coordinates":[[[[17.902387,59.242129,0.0],[17.915009,59.244001,0.0],[17.914181,59.246037,0.0],[17.913942,59.247354,0.0],[17.915463,59.247296,0.0],[17.913139,59.251375,0.0],[17.910082,59.252598,0.0],[17.908634,59.253158,0.0],[17.906136,59.253223,0.0],[17.904424,59.254412,0.0],[17.904028,59.254726,0.0],[17.911216,59.254753,0.0],[17.911262,59.254012,0.0],[17.910517,59.253945,0.0],[17.911263,59.253676,0.0],[17.911352,59.253204,0.0],[17.911922,59.253003,0.0],[17.914770999999998,59.252668,0.0],[17.921756,59.252815,0.0],[17.92398,59.252577,0.0],[17.926436,59.25264,0.0],[17.927019,59.253179,0.0],[17.943381,59.257209,0.0],[17.953452,59.254102,0.0],[17.94726,59.251641,0.0],[17.946233,59.24853,0.0],[17.94955,59.246324,0.0],[17.947899,59.238391,0.0],[17.949498,59.23528,0.0],[17.94838,59.230674,0.0],[17.939612,59.230786,0.0],[17.936342,59.231019,0.0],[17.933764,59.231739,0.0],[17.930349,59.232842,0.0],[17.929317,59.233053,0.0],[17.921478,59.234542,0.0],[17.918191,59.235641,0.0],[17.918776,59.236233,0.0],[17.919626,59.235977,0.0],[17.920691,59.236536,0.0],[17.919774,59.237093,0.0],[17.921666,59.237764,0.0],[17.922535,59.238055,0.0],[17.923973,59.23721,0.0],[17.924541,59.237388,0.0],[17.923863,59.237893,0.0],[17.924821,59.238136,0.0],[17.923839,59.238759,0.0],[17.924339,59.239016,0.0],[17.923683,59.239562,0.0],[17.923314,59.239462,0.0],[17.922549,59.240164,0.0],[17.923489,59.24034,0.0],[17.926411,59.240994,0.0],[17.927259,59.241891,0.0],[17.927643,59.241953,0.0],[17.928179,59.242095,0.0],[17.92841,59.242189,0.0],[17.92899,59.242291,0.0],[17.929384,59.242344,0.0],[17.929292,59.242973,0.0],[17.928709,59.24325,0.0],[17.928454,59.24323,0.0],[17.927583,59.24315,0.0],[17.926947,59.243222,0.0],[17.926528,59.242843,0.0],[17.925341,59.242347,0.0],[17.926009,59.241929,0.0],[17.924988,59.24152,0.0],[17.924286,59.241955,0.0],[17.92312,59.241651,0.0],[17.921734,59.241295,0.0],[17.920939,59.241097,0.0],[17.920826,59.24082,0.0],[17.919478,59.240473,0.0],[17.91839,59.240204,0.0],[17.918741,59.239613,0.0],[17.917479,59.239366,0.0],[17.917368,59.23989,0.0],[17.916846,59.239767,0.0],[17.916913,59.239377,0.0],[17.915324,59.239174,0.0],[17.915105,59.239564,0.0],[17.912907,59.239384,0.0],[17.91328,59.23848,0.0],[17.91254,59.238491,0.0],[17.912324,59.2382,0.0],[17.911716,59.237642,0.0],[17.904387,59.239555,0.0],[17.898491,59.240341,0.0],[17.879589,59.243456,0.0],[17.878836,59.243854,0.0],[17.879046,59.24458,0.0],[17.879629,59.244699,0.0],[17.88032,59.244627,0.0],[17.897005,59.242722,0.0],[17.902387,59.242129,0.0]]]],"type":"MultiPolygon"},"id":"bdt.3","properties":{"andrad_av":"hud_emfr","andrad_datum":"2024-08-09T13:47:17.357","area":5169452.93,"idnr":3,"kod":3,"namn":"Glömsta","old_idnr":3,"skapad_av":null,"skapad_datum":null},"type":"Feature"}
 ,{"bbox":[18.056773,59.169649,18.066937,59.174573],"geometry":{"coordinates":[[[18.062058,59.174573,0.0],[18.066937,59.173326,0.0],[18.066169,59.172326,0.0],[18.061746,59.169918,0.0],[18.061426,59.169649,0.0],[18.056773,59.172076,0.0],[18.057513,59.172796,0.0],[18.062058,59.174573,0.0]]],"type":"Polygon"},"id":"bdt.4","properties":{"andrad_av":null,"andrad_datum":null,"area":170351.49,"idnr":4,"kod":9,"namn":"Granby","old_idnr":4,"skapad_av":null,"skapad_datum":null},"type":"Feature"}
 ,{"bbox":[18.10233,59.183747,18.120312,59.192789],"geometry":{"coordinates":[[[18.103759,59.185742,0.0],[18.10233,59.186755,0.0],[18.116163,59.192789,0.0],[18.120312,59.190377,0.0],[18.11791,59.188335,0.0],[18.11781,59.18765,0.0],[18.116869,59.186725,0.0],[18.113397,59.186103,0.0],[18.110884,59.184761,0.0],[18.109028,59.183747,0.0],[18.106316,59.185146,0.0],[18.103759,59.185742,0.0]]],"type":"Polygon"},"id":"bdt.5","properties":{"andrad_av":null,"andrad_datum":null,"area":474244.08,"idnr":5,"kod":11,"namn":"Gräsvreten","old_idnr":5,"skapad_av":null,"skapad_datum":null},"type":"Feature"}
 ,{"bbox":[18.032787,59.220674,18.090955,59.247376],"geometry":{"coordinates":[[[[18.042431,59.242727,0.0],[18.042952,59.242009,0.0],[18.044959,59.242934,0.0],[18.044995,59.243556,0.0],[18.044884,59.244179,0.0],[18.043815,59.245514,0.0],[18.037965,59.245676,0.0],[18.036544,59.246145,0.0],[18.036919,59.247228,0.0],[18.037647,59.247376,0.0],[18.038621,59.24691,0.0],[18.0412,59.246867,0.0],[18.050003,59.244896,0.0],[18.052229,59.246721,0.0],[18.063132,59.240623,0.0],[18.062249,59.240614,0.0],[18.062121,59.239729,0.0],[18.061272,59.238746,0.0],[18.061217,59.238151,0.0],[18.062966,59.237793,0.0],[18.063592,59.238085,0.0],[18.064697,59.238293,0.0],[18.06536,59.238623,0.0],[18.065218,59.239401,0.0],[18.067026,59.238344,0.0],[18.070623,59.235837,0.0],[18.069778,59.23474,0.0],[18.070126,59.233717,0.0],[18.070366,59.233706,0.0],[18.071401,59.233676,0.0],[18.072179,59.232977,0.0],[18.073152,59.232345,0.0],[18.073995,59.231614,0.0],[18.074174,59.231162,0.0],[18.07461,59.231363,0.0],[18.076016,59.23216,0.0],[18.07955,59.231141,0.0],[18.080743,59.230449,0.0],[18.082041,59.22985,0.0],[18.083229,59.229877,0.0],[18.083512,59.230179,0.0],[18.083793,59.230615,0.0],[18.085123,59.230067,0.0],[18.086273,59.231047,0.0],[18.08976,59.230802,0.0],[18.090955,59.228776,0.0],[18.090241,59.226949,0.0],[18.089248,59.226962,0.0],[18.088892,59.227589,0.0],[18.08795,59.227276,0.0],[18.085153,59.227322,0.0],[18.082628,59.225946,0.0],[18.081778,59.225926,0.0],[18.081457,59.226181,0.0],[18.082272,59.226285,0.0],[18.080741,59.227556,0.0],[18.080008,59.227801,0.0],[18.078333,59.22817,0.0],[18.077843,59.227797,0.0],[18.07187,59.228728,0.0],[18.06962,59.228367,0.0],[18.066632,59.223228,0.0],[18.060192,59.221211,0.0],[18.057345,59.220674,0.0],[18.052661,59.221215,0.0],[18.048284,59.222159,0.0],[18.044133,59.226668,0.0],[18.041284,59.226472,0.0],[18.04006,59.226592,0.0],[18.039333,59.226698,0.0],[18.038633,59.227198,0.0],[18.035135,59.22965,0.0],[18.033541,59.233214,0.0],[18.032787,59.235237,0.0],[18.03438,59.235693,0.0],[18.035966,59.235936,0.0],[18.033824,59.237299,0.0],[18.033914,59.238149,0.0],[18.040845,59.241031,0.0],[18.040539,59.241422,0.0],[18.040998,59.241723,0.0],[18.040374,59.242273,0.0],[18.042431,59.242727,0.0]],[[18.066643,59.232267,0.0],[18.066064,59.233875,0.0],[18.064522,59.235539,0.0],[18.063003,59.235906,0.0],[18.058284,59.237823,0.0],[18.056215,59.239197,0.0],[18.043122,59.23388,0.0],[18.043482,59.234012,0.0],[18.051582,59.231517,0.0],[18.059549,59.229494,0.0],[18.067877,59.230379,0.0],[18.066643,59.232267,0.0]]]],"type":"MultiPolygon"},"id":"bdt.6","properties":{"andrad_av":"hud_emfr","andrad_datum":"2024-08-09T13:29:06.717","area":3841473.78,"idnr":6,"kod":4,"namn":"Högmora, Mellansjö","old_idnr":6,"skapad_av":null,"skapad_datum":null},"type":"Feature"}
 ,{"bbox":[17.927055,59.261054,17.934935,59.266827],"geometry":{"coordinates":[[[17.927855,59.265515,0.0],[17.929374,59.266355,0.0],[17.931066,59.266827,0.0],[17.931872,59.266284,0.0],[17.934935,59.261054,0.0],[17.930513,59.261137,0.0],[17.928989,59.26193,0.0],[17.928925,59.263473,0.0],[17.927055,59.264559,0.0],[17.927826,59.265515,0.0],[17.927855,59.265515,0.0]]],"type":"Polygon"},"id":"bdt.7","properties":{"andrad_av":null,"andrad_datum":null,"area":164347.11,"idnr":7,"kod":2,"namn":"Kolartorp","old_idnr":7,"skapad_av":null,"skapad_datum":null},"type":"Feature"}
 ,{"bbox":[18.066561,59.178666,18.076519,59.186456],"geometry":{"coordinates":[[[18.069284,59.178683,0.0],[18.066833,59.183786,0.0],[18.067433,59.183786,0.0],[18.067841,59.184149,0.0],[18.066561,59.185436,0.0],[18.067406,59.186093,0.0],[18.068714,59.18633,0.0],[18.070158,59.186456,0.0],[18.070703,59.186288,0.0],[18.071218,59.186051,0.0],[18.071902,59.185715,0.0],[18.073373,59.186204,0.0],[18.074244,59.184205,0.0],[18.07487,59.182611,0.0],[18.075196,59.181478,0.0],[18.076519,59.180171,0.0],[18.076454,59.179257,0.0],[18.074939,59.179177,0.0],[18.073193,59.178989,0.0],[18.072302,59.178844,0.0],[18.071085,59.178666,0.0],[18.069284,59.178683,0.0]]],"type":"Polygon"},"id":"bdt.8","properties":{"andrad_av":null,"andrad_datum":null,"area":334319.78,"idnr":8,"kod":10,"namn":"Lissma Kvarntorp","old_idnr":8,"skapad_av":null,"skapad_datum":null},"type":"Feature"}
 ,{"bbox":[18.12018,59.209521,18.146681,59.220856],"geometry":{"coordinates":[[[18.128436,59.22049,0.0],[18.129723,59.220011,0.0],[18.130493,59.220146,0.0],[18.133015,59.219117,0.0],[18.135388,59.217948,0.0],[18.145291,59.212854,0.0],[18.146681,59.212372,0.0],[18.145887,59.211396,0.0],[18.144782,59.211513,0.0],[18.141934,59.212363,0.0],[18.139786,59.212721,0.0],[18.136193,59.21443,0.0],[18.136523,59.214653,0.0],[18.132425,59.216732,0.0],[18.131582,59.217119,0.0],[18.131271,59.216937,0.0],[18.131048,59.216573,0.0],[18.131357,59.216004,0.0],[18.131623,59.215594,0.0],[18.132689,59.215776,0.0],[18.134109,59.215274,0.0],[18.133886,59.214864,0.0],[18.129445,59.214662,0.0],[18.128867,59.213636,0.0],[18.129332,59.213278,0.0],[18.129419,59.212964,0.0],[18.128747,59.211458,0.0],[18.127583,59.211548,0.0],[18.127706,59.212326,0.0],[18.127556,59.212831,0.0],[18.12584,59.212922,0.0],[18.125694,59.212579,0.0],[18.126304,59.212026,0.0],[18.12476,59.211356,0.0],[18.124818,59.211087,0.0],[18.125399,59.210803,0.0],[18.125049,59.209938,0.0],[18.124088,59.209521,0.0],[18.123068,59.210131,0.0],[18.122307,59.210355,0.0],[18.120373,59.211683,0.0],[18.12034,59.212709,0.0],[18.12018,59.213078,0.0],[18.120681,59.213591,0.0],[18.122251,59.214119,0.0],[18.123273,59.214483,0.0],[18.124078,59.215017,0.0],[18.124608,59.215916,0.0],[18.127444,59.217775,0.0],[18.125106,59.220856,0.0],[18.126305,59.220833,0.0],[18.126615,59.220537,0.0],[18.12737,59.220423,0.0],[18.128436,59.22049,0.0]]],"type":"Polygon"},"id":"bdt.9","properties":{"andrad_av":null,"andrad_datum":null,"area":630326.62,"idnr":9,"kod":12,"namn":"Länna","old_idnr":9,"skapad_av":null,"skapad_datum":null},"type":"Feature"}
 ,{"bbox":[18.045701,59.187741,18.076441,59.207195],"geometry":{"coordinates":[[[18.070834,59.205473,0.0],[18.070791,59.205473,0.0],[18.072508,59.203476,0.0],[18.074964,59.200586,0.0],[18.07642,59.197563,0.0],[18.076441,59.196782,0.0],[18.076158,59.196436,0.0],[18.073452,59.195469,0.0],[18.071091,59.194808,0.0],[18.068046,59.192979,0.0],[18.066698,59.192622,0.0],[18.065915,59.192455,0.0],[18.064502,59.192622,0.0],[18.062168,59.191987,0.0],[18.061499,59.192183,0.0],[18.059697,59.191105,0.0],[18.058436,59.190793,0.0],[18.056431,59.189878,0.0],[18.053737,59.187741,0.0],[18.047903,59.188235,0.0],[18.045701,59.19128,0.0],[18.046343,59.193766,0.0],[18.04876,59.19376,0.0],[18.049346,59.195177,0.0],[18.049542,59.195835,0.0],[18.048672,59.196861,0.0],[18.049309,59.198879,0.0],[18.050281,59.199382,0.0],[18.052346,59.201178,0.0],[18.053265,59.202634,0.0],[18.055021,59.203588,0.0],[18.056587,59.203599,0.0],[18.059241,59.204124,0.0],[18.058349,59.205418,0.0],[18.059002,59.205819,0.0],[18.058535,59.206606,0.0],[18.058918,59.207195,0.0],[18.065518,59.205919,0.0],[18.070834,59.205473,0.0]]],"type":"Polygon"},"id":"bdt.12","properties":{"andrad_av":"hud_emfr","andrad_datum":"2024-08-09T13:21:47.593","area":2192088.83,"idnr":12,"kod":7,"namn":"Vidja","old_idnr":12,"skapad_av":null,"skapad_datum":null},"type":"Feature"}
 ,{"bbox":[17.995553,59.147326,18.067191,59.180191],"geometry":{"coordinates":[[[[18.032407,59.16722,0.0],[18.031941,59.167698,0.0],[18.027626,59.166245,0.0],[18.032422,59.161869,0.0],[18.027872,59.159766,0.0],[18.028025,59.15904,0.0],[18.028526,59.157512,0.0],[18.026679,59.157679,0.0],[18.021825,59.158373,0.0],[18.019338,59.156796,0.0],[18.016249,59.155674,0.0],[18.017583,59.155129,0.0],[18.015535,59.153518,0.0],[18.019218,59.151134,0.0],[18.011444,59.147326,0.0],[18.005316,59.150152,0.0],[17.998321,59.153384,0.0],[17.995553,59.154702,0.0],[18.000586,59.158003,0.0],[18.005204,59.158778,0.0],[18.009696,59.161064,0.0],[18.010882,59.162195,0.0],[18.009491,59.162571,0.0],[18.007969,59.163775,0.0],[18.008332,59.164564,0.0],[18.011486,59.165249,0.0],[18.01258,59.16586,0.0],[18.020682,59.167575,0.0],[18.021585,59.168186,0.0],[18.024365,59.169247,0.0],[18.025038,59.170262,0.0],[18.025147,59.17024,0.0],[18.025808,59.170146,0.0],[18.025936,59.170407,0.0],[18.02316,59.171361,0.0],[18.026869,59.175434,0.0],[18.030829,59.179305,0.0],[18.032185,59.179294,0.0],[18.034612,59.178979,0.0],[18.037474,59.17679,0.0],[18.036139,59.175971,0.0],[18.036335,59.17468,0.0],[18.037296,59.174456,0.0],[18.03673,59.174165,0.0],[18.04024,59.172326,0.0],[18.051881,59.176515,0.0],[18.057613,59.178623,0.0],[18.064307,59.180191,0.0],[18.067191,59.17891,0.0],[18.060757,59.175771,0.0],[18.053845,59.173978,0.0],[18.044045,59.169336,0.0],[18.04802,59.167225,0.0],[18.051823,59.166505,0.0],[18.051078,59.165607,0.0],[18.049897,59.16489,0.0],[18.039533,59.161414,0.0],[18.037523,59.161796,0.0],[18.035385,59.165388,0.0],[18.034481,59.167871,0.0],[18.032407,59.16722,0.0]]]],"type":"MultiPolygon"},"id":"bdt.14","properties":{"andrad_av":"hud_emfr","andrad_datum":"2024-08-09T13:32:24.953","area":4231484.18,"idnr":14,"kod":6,"namn":"Ådran","old_idnr":14,"skapad_av":null,"skapad_datum":null},"type":"Feature"}
 ,{"bbox":[17.876712,59.225913,17.888659,59.231895],"geometry":{"coordinates":[[[[17.876761,59.230011],[17.877126,59.230146],[17.877472,59.230293],[17.877799,59.230452],[17.878107,59.230624],[17.878396,59.230808],[17.878627,59.230978],[17.878799,59.231134],[17.878912,59.231275],[17.878967,59.231403],[17.879072,59.231517],[17.879229,59.231618],[17.879436,59.231705],[17.879695,59.23178],[17.880227,59.231835],[17.881034,59.231871],[17.882116,59.231888],[17.883471,59.231886],[17.885374,59.231895],[17.885945,59.23166],[17.886582,59.231401],[17.887301,59.23108],[17.887857,59.230835],[17.888252,59.230666],[17.888485,59.230574],[17.888555,59.230558],[17.888608,59.230538],[17.888643,59.230514],[17.888659,59.230486],[17.888658,59.230453],[17.888652,59.230423],[17.888643,59.230397],[17.888629,59.230375],[17.888612,59.230355],[17.88859,59.230331],[17.888564,59.230303],[17.888532,59.23027],[17.888496,59.230233],[17.888454,59.230183],[17.888406,59.230121],[17.888352,59.230046],[17.888292,59.229958],[17.888243,59.229869],[17.888205,59.229777],[17.888179,59.229684],[17.888164,59.229589],[17.888148,59.229512],[17.888131,59.229455],[17.888113,59.229416],[17.888094,59.229397],[17.888072,59.229379],[17.888047,59.229363],[17.888019,59.229349],[17.887988,59.229336],[17.887935,59.229323],[17.88786,59.229307],[17.887763,59.22929],[17.887644,59.229271],[17.887543,59.229258],[17.887461,59.22925],[17.887397,59.229247],[17.887351,59.22925],[17.887312,59.229253],[17.88728,59.229257],[17.887254,59.229262],[17.887235,59.229268],[17.887205,59.229278],[17.887164,59.229291],[17.887111,59.229308],[17.887047,59.229329],[17.886983,59.229348],[17.88692,59.229364],[17.886857,59.229378],[17.886794,59.22939],[17.886733,59.229397],[17.886676,59.229401],[17.886621,59.229401],[17.886568,59.229397],[17.886524,59.229392],[17.886489,59.229385],[17.886463,59.229378],[17.886446,59.229369],[17.886429,59.22936],[17.886414,59.229351],[17.886398,59.229342],[17.886384,59.229333],[17.886367,59.229313],[17.886347,59.229281],[17.886326,59.229238],[17.886302,59.229184],[17.886318,59.229142],[17.886375,59.229111],[17.886472,59.229092],[17.886609,59.229085],[17.886758,59.229082],[17.88692,59.229084],[17.887095,59.22909],[17.887282,59.229099],[17.887381,59.229096],[17.887392,59.22908],[17.887316,59.22905],[17.887151,59.229008],[17.886998,59.228965],[17.886857,59.22892],[17.886727,59.228876],[17.886609,59.22883],[17.886495,59.228781],[17.886385,59.22873],[17.886278,59.228676],[17.886174,59.228619],[17.886082,59.22856],[17.886001,59.228499],[17.88593,59.228437],[17.885871,59.228373],[17.885818,59.228311],[17.885769,59.228252],[17.885727,59.228195],[17.88569,59.228141],[17.885666,59.228079],[17.885654,59.228011],[17.885655,59.227936],[17.885668,59.227855],[17.885701,59.227751],[17.885755,59.227626],[17.885829,59.227479],[17.885924,59.22731],[17.886006,59.227175],[17.886077,59.227072],[17.886136,59.227003],[17.886182,59.226967],[17.886224,59.22693],[17.88626,59.226893],[17.886291,59.226856],[17.886317,59.226819],[17.886337,59.226788],[17.88635,59.226764],[17.886356,59.226746],[17.886356,59.226736],[17.886352,59.226723],[17.886342,59.226709],[17.886328,59.226693],[17.886309,59.226676],[17.886279,59.226658],[17.886237,59.226642],[17.886184,59.226626],[17.886119,59.22661],[17.886067,59.226591],[17.886028,59.226567],[17.886002,59.22654],[17.885988,59.226509],[17.885978,59.226479],[17.885971,59.226452],[17.885967,59.226426],[17.885966,59.226403],[17.885971,59.226372],[17.885983,59.226333],[17.886001,59.226286],[17.886025,59.226231],[17.885986,59.226182],[17.885883,59.226139],[17.885715,59.226102],[17.885484,59.226071],[17.885296,59.226042],[17.885151,59.226015],[17.885049,59.22599],[17.884989,59.225968],[17.884932,59.225949],[17.884875,59.225934],[17.88482,59.225923],[17.884767,59.225916],[17.884711,59.225913],[17.884653,59.225914],[17.884592,59.22592],[17.884529,59.225929],[17.884439,59.225935],[17.884322,59.225938],[17.884177,59.225936],[17.884006,59.225931],[17.883775,59.225951],[17.883485,59.225996],[17.883135,59.226066],[17.882726,59.226161],[17.882398,59.226242],[17.88215,59.226309],[17.881983,59.226363],[17.881897,59.226404],[17.881814,59.226451],[17.881736,59.226506],[17.881661,59.226567],[17.88159,59.226636],[17.881509,59.226704],[17.881417,59.226772],[17.881315,59.22684],[17.881203,59.226907],[17.881077,59.226966],[17.880938,59.227016],[17.880786,59.227057],[17.88062,59.22709],[17.880461,59.227118],[17.880309,59.227142],[17.880165,59.227162],[17.880027,59.227177],[17.879698,59.227352],[17.879178,59.227685],[17.878467,59.228179],[17.877566,59.228831],[17.876981,59.229354],[17.876712,59.229747],[17.876761,59.230011]]]],"type":"MultiPolygon"},"id":"bdt.15","properties":{"andrad_av":"hud_emfr","andrad_datum":"2024-08-09T13:26:36.270","area":293935.65,"idnr":15,"kod":null,"namn":null,"old_idnr":null,"skapad_av":"hud_emfr","skapad_datum":"2024-08-09T11:03:27.303"},"type":"Feature"}
 ,{"bbox":[17.883449,59.233496,17.897052,59.237876],"geometry":{"coordinates":[[[[17.884883,59.237876],[17.892661,59.237221],[17.892662,59.236828],[17.893275,59.236851],[17.89332,59.236739],[17.897022,59.236517],[17.897052,59.23379],[17.895694,59.233767],[17.894622,59.233497],[17.894052,59.233496],[17.892562,59.233966],[17.887985,59.233962],[17.885135,59.234723],[17.883449,59.234744],[17.88351,59.236091],[17.884883,59.237876]]]],"type":"MultiPolygon"},"id":"bdt.16","properties":{"andrad_av":"hud_emfr","andrad_datum":"2024-08-09T13:26:36.323","area":271846.78,"idnr":16,"kod":null,"namn":null,"old_idnr":null,"skapad_av":"hud_emfr","skapad_datum":"2024-08-09T11:04:43.317"},"type":"Feature"}
 ,{"bbox":[17.905921,59.232435,17.908978,59.234438],"geometry":{"coordinates":[[[[17.907683,59.234438],[17.907224,59.234073],[17.905921,59.234044],[17.906142,59.233169],[17.906362,59.232658],[17.90645,59.232552],[17.907184,59.232569],[17.908093,59.232435],[17.908355,59.2328],[17.908978,59.233165],[17.907683,59.234438]]]],"type":"MultiPolygon"},"id":"bdt.17","properties":{"andrad_av":"hud_emfr","andrad_datum":"2024-08-09T13:26:36.377","area":24162.14,"idnr":17,"kod":null,"namn":null,"old_idnr":null,"skapad_av":"hud_emfr","skapad_datum":"2024-08-09T11:05:30.427"},"type":"Feature"}
 ,{"bbox":[17.938148,59.225613,17.942288,59.227787],"geometry":{"coordinates":[[[[17.939272,59.227783],[17.939584,59.227787],[17.939895,59.227772],[17.940204,59.227738],[17.940512,59.227684000000004],[17.940819,59.227611],[17.941112,59.227548],[17.941391,59.227494],[17.941657,59.22745],[17.941909,59.227415],[17.942098,59.227308],[17.942224,59.22713],[17.942287,59.226881],[17.942288,59.226559],[17.942273,59.226308],[17.942241,59.226125],[17.942194,59.226012],[17.942132,59.225969],[17.94203,59.225918],[17.941891,59.225859],[17.941713,59.225794],[17.941497,59.225721],[17.941283,59.225666],[17.941071,59.22563],[17.940861,59.225613],[17.940653,59.225614],[17.940446,59.225624],[17.940239,59.22564],[17.940033,59.225665],[17.939828,59.225697],[17.939602,59.22574],[17.939357,59.225793],[17.939092,59.225856],[17.938808,59.225931],[17.938596,59.226023],[17.938458,59.226134],[17.938392,59.226263],[17.9384,59.22641],[17.93839,59.226521],[17.938361,59.226594],[17.938314,59.226631],[17.938248,59.226631],[17.938199,59.226692],[17.938166,59.226815],[17.938149,59.226999],[17.938148,59.227245],[17.938189,59.227439],[17.938271,59.227582],[17.938394,59.227674],[17.938558,59.227715],[17.938759,59.227747],[17.938997,59.227769],[17.939272,59.227783]]]],"type":"MultiPolygon"},"id":"bdt.18","properties":{"andrad_av":"hud_emfr","andrad_datum":"2024-08-09T13:26:36.427","area":47123.29,"idnr":18,"kod":null,"namn":null,"old_idnr":null,"skapad_av":"hud_emfr","skapad_datum":"2024-08-09T11:06:36.923"},"type":"Feature"}
 ,{"bbox":[17.923089,59.216433,17.934816,59.226035],"geometry":{"coordinates":[[[[17.927771,59.216433],[17.933177,59.216526],[17.934816,59.217828],[17.931288,59.219633],[17.929996,59.220037],[17.934173,59.222485],[17.92955,59.223785],[17.930894,59.22516],[17.93108,59.225222],[17.930892,59.226035],[17.928375,59.225916],[17.926821,59.225635],[17.925913,59.225303],[17.92472,59.225241],[17.924139,59.225465],[17.923089,59.225201],[17.928382,59.22251],[17.927771,59.216433]]]],"type":"MultiPolygon"},"id":"bdt.19","properties":{"andrad_av":"hud_emfr","andrad_datum":"2024-08-09T13:26:36.487","area":289655.36,"idnr":19,"kod":null,"namn":null,"old_idnr":null,"skapad_av":"hud_emfr","skapad_datum":"2024-08-09T11:09:21.737"},"type":"Feature"}
 ,{"bbox":[18.063987,59.149996,18.091049,59.158688],"geometry":{"coordinates":[[[[18.091049,59.151476],[18.090973,59.151801],[18.090409,59.152231],[18.089357,59.152765],[18.087815,59.153403],[18.085785,59.154145],[18.083807,59.154852],[18.08188,59.155524],[18.080005,59.15616],[18.078182,59.156762],[18.076621,59.157273000000004],[18.075322,59.157695],[18.074284,59.158027],[18.073509,59.158268],[18.072657,59.158455],[18.071729,59.158588],[18.070724,59.158665],[18.069642,59.158688],[18.068722,59.158637],[18.067962,59.158511],[18.067363,59.158311],[18.066926,59.158036],[18.066414,59.157673],[18.065829,59.157222],[18.06517,59.156682],[18.064436,59.156054],[18.064042,59.155514],[18.063987,59.155062],[18.06427,59.154699],[18.064892,59.154423],[18.065504,59.154216],[18.066104,59.154075],[18.066694,59.154002],[18.067273,59.153996],[18.068171,59.153921],[18.069389,59.153777],[18.070926,59.153565],[18.072783,59.153283],[18.074912,59.152862],[18.077314,59.152303],[18.079989,59.151604],[18.082936,59.150766],[18.085385,59.15023],[18.087334,59.149996],[18.088784,59.150063],[18.089736,59.150433],[18.09043,59.150792],[18.090868,59.151139],[18.091049,59.151476]]]],"type":"MultiPolygon"},"id":"bdt.20","properties":{"andrad_av":"hud_emfr","andrad_datum":"2024-08-09T13:03:43.637","area":706973.41,"idnr":20,"kod":null,"namn":null,"old_idnr":null,"skapad_av":"hud_emfr","skapad_datum":"2024-08-09T13:03:10.797"},"type":"Feature"}
 ,{"bbox":[17.95264,59.213824,17.959194,59.216362],"geometry":{"coordinates":[[[[17.952936,59.213824],[17.959194,59.215004],[17.958827,59.215529],[17.958832,59.215579],[17.958876,59.215627],[17.958958,59.215756],[17.958914,59.215843],[17.958772,59.215874],[17.958591,59.215888],[17.9584,59.215899],[17.958235,59.215961],[17.958159,59.216059],[17.958252,59.216205],[17.958273,59.216255],[17.957803,59.216342],[17.957567,59.216362],[17.957518,59.216328],[17.956714,59.215823],[17.954455,59.21555],[17.954033,59.215519],[17.953247,59.214584],[17.95299,59.214455],[17.952694,59.214301],[17.95264,59.214057],[17.952936,59.213824]]]],"type":"MultiPolygon"},"id":"bdt.21","properties":{"andrad_av":"hud_emfr","andrad_datum":"2024-08-09T13:14:52.700","area":50282.21,"idnr":21,"kod":null,"namn":null,"old_idnr":null,"skapad_av":"hud_emfr","skapad_datum":"2024-08-09T13:14:52.700"},"type":"Feature"}
 ,{"bbox":[17.991152,59.211439,17.996536,59.214357],"geometry":{"coordinates":[[[[17.993362,59.214177],[17.995813,59.214357],[17.996382,59.213515],[17.996536,59.212662],[17.995726,59.212023],[17.99577,59.211765],[17.995201,59.211619],[17.993647,59.211439],[17.993319,59.21145],[17.991152,59.212572],[17.993362,59.214177]]]],"type":"MultiPolygon"},"id":"bdt.22","properties":{"andrad_av":"hud_emfr","andrad_datum":"2024-08-09T13:14:52.760","area":67759.1,"idnr":22,"kod":null,"namn":null,"old_idnr":null,"skapad_av":"hud_emfr","skapad_datum":"2024-08-09T13:14:52.760"},"type":"Feature"}
 ,{"bbox":[18.001744,59.205031,18.021442,59.21614],"geometry":{"coordinates":[[[[18.001744,59.209161],[18.001876,59.208488],[18.004501,59.205682],[18.005705,59.205076],[18.006624,59.205323],[18.006996,59.205648],[18.007193,59.205637],[18.007521,59.205031],[18.011198,59.206153],[18.01459,59.206467],[18.018419,59.207185],[18.021442,59.21174],[18.020657,59.216117],[18.01965,59.21614],[18.015775,59.215512],[18.013389,59.214671],[18.007216,59.212662],[18.005006,59.211304],[18.001744,59.209161]]]],"type":"MultiPolygon"},"id":"bdt.23","properties":{"andrad_av":"hud_emfr","andrad_datum":"2024-08-09T13:14:52.823","area":866148.47,"idnr":23,"kod":null,"namn":null,"old_idnr":null,"skapad_av":"hud_emfr","skapad_datum":"2024-08-09T13:14:52.823"},"type":"Feature"}
 ,{"bbox":[18.009336,59.198241,18.023885,59.203078],"geometry":{"coordinates":[[[[18.010146,59.203078],[18.015616,59.20292],[18.018067,59.202426],[18.021392,59.202112],[18.023885,59.200057],[18.023425,59.199698],[18.020165,59.198857],[18.015877,59.198274],[18.013295,59.198241],[18.011108,59.200037],[18.009336,59.20172],[18.010146,59.203078]]]],"type":"MultiPolygon"},"id":"bdt.24","properties":{"andrad_av":"hud_emfr","andrad_datum":"2024-08-09T13:16:14.677","area":308948.73,"idnr":24,"kod":null,"namn":null,"old_idnr":null,"skapad_av":"hud_emfr","skapad_datum":"2024-08-09T13:16:14.677"},"type":"Feature"}
 ,{"bbox":[18.026627,59.199022,18.056523,59.215066],"geometry":{"coordinates":[[[[18.026627,59.208541],[18.035951,59.210065],[18.042431,59.211993],[18.044533,59.212307],[18.049614,59.215066],[18.054167,59.215042],[18.055521,59.212864],[18.056523,59.210462],[18.055377,59.20521],[18.052925,59.204336],[18.048548,59.20436],[18.048155,59.204719],[18.047236,59.204742],[18.046973,59.204114],[18.045089,59.202543],[18.04443,59.20086],[18.043467,59.200367],[18.037558,59.199156],[18.036202,59.199022],[18.030865,59.200931],[18.026627,59.208541]]]],"type":"MultiPolygon"},"id":"bdt.25","properties":{"andrad_av":"hud_emfr","andrad_datum":"2024-08-09T13:16:14.753","area":1782709.71,"idnr":25,"kod":null,"namn":null,"old_idnr":null,"skapad_av":"hud_emfr","skapad_datum":"2024-08-09T13:16:14.753"},"type":"Feature"}
 ,{"bbox":[18.012934,59.221088,18.037761,59.228452],"geometry":{"coordinates":[[[[18.014862,59.228452],[18.012934,59.227195],[18.017882,59.225578],[18.017531,59.224277],[18.018888,59.223177],[18.019369,59.222144],[18.021865,59.222031],[18.02598,59.221088],[18.035394,59.2214],[18.037761,59.223936],[18.034261,59.227595],[18.03067,59.227641],[18.027386,59.227485],[18.024014,59.227306],[18.01981,59.227217],[18.014862,59.228452]]]],"type":"MultiPolygon"},"id":"bdt.26","properties":{"andrad_av":"hud_emfr","andrad_datum":"2024-08-09T13:17:36.600","area":736696.84,"idnr":26,"kod":null,"namn":null,"old_idnr":null,"skapad_av":"hud_emfr","skapad_datum":"2024-08-09T13:17:36.600"},"type":"Feature"}
 ,{"bbox":[18.016752,59.22978,18.025024,59.234472],"geometry":{"coordinates":[[[[18.0169,59.232884],[18.017097,59.232856],[18.017765,59.232895],[18.020032,59.233709],[18.0215,59.234472],[18.025024,59.231845],[18.024476,59.230656],[18.023293,59.22978],[18.021394,59.230659],[18.020825,59.23094],[18.016785,59.232413],[18.016752,59.232739],[18.0169,59.232884]]]],"type":"MultiPolygon"},"id":"bdt.27","properties":{"andrad_av":"hud_emfr","andrad_datum":"2024-08-09T13:17:36.680","area":119888.32,"idnr":27,"kod":null,"namn":null,"old_idnr":null,"skapad_av":"hud_emfr","skapad_datum":"2024-08-09T13:17:36.680"},"type":"Feature"}
 ,{"bbox":[18.167061,59.226501,18.173492,59.230696],"geometry":{"coordinates":[[[[18.16709,59.229961],[18.170926,59.230663],[18.171846,59.230696],[18.172012,59.229001],[18.173453,59.228079],[18.173492,59.227215],[18.171606,59.226555],[18.170139,59.226501],[18.168523,59.227479],[18.167061,59.228469],[18.16709,59.229961]]]],"type":"MultiPolygon"},"id":"bdt.28","properties":{"andrad_av":"hud_emfr","andrad_datum":"2024-08-09T13:19:45.783","area":116866.8,"idnr":28,"kod":null,"namn":null,"old_idnr":null,"skapad_av":"hud_emfr","skapad_datum":"2024-08-09T13:19:45.783"},"type":"Feature"}
 ,{"bbox":[18.131667,59.206227,18.144253,59.210033],"geometry":{"coordinates":[[[[18.144253,59.209844],[18.143356,59.209924],[18.135894,59.210033],[18.135565,59.209831],[18.134624,59.209843],[18.134665,59.209237],[18.132479,59.209789],[18.131667,59.209296],[18.131794,59.208028],[18.132756,59.207747],[18.135382,59.2078],[18.135928,59.207575],[18.135598,59.207093],[18.137017,59.206227],[18.13971,59.206606],[18.140148,59.206605],[18.141534,59.208489],[18.144209,59.209609],[18.144253,59.209844]]]],"type":"MultiPolygon"},"id":"bdt.29","properties":{"andrad_av":"hud_emfr","andrad_datum":"2024-08-09T13:20:48.513","area":180774.03,"idnr":29,"kod":null,"namn":null,"old_idnr":null,"skapad_av":"hud_emfr","skapad_datum":"2024-08-09T13:20:48.513"},"type":"Feature"}
 ,{"bbox":[18.040205,59.178594,18.057613,59.190112],"geometry":{"coordinates":[[[[18.042311,59.190112],[18.041348,59.189192],[18.040205,59.184793],[18.050475,59.179044],[18.051917,59.178594],[18.057613,59.178623],[18.056863,59.181039],[18.056426,59.181466],[18.056209,59.182139],[18.049872,59.185059],[18.046898,59.185622],[18.046245,59.188001],[18.045591,59.189326],[18.042311,59.190112]]]],"type":"MultiPolygon"},"id":"bdt.32","properties":{"andrad_av":"hud_emfr","andrad_datum":"2024-08-09T13:33:47.333","area":564913.26,"idnr":32,"kod":null,"namn":null,"old_idnr":null,"skapad_av":"hud_emfr","skapad_datum":"2024-08-09T13:33:47.333"},"type":"Feature"}
 ,{"bbox":[18.069007,59.171671,18.11288,59.193488],"geometry":{"coordinates":[[[[18.076454,59.179257],[18.07225,59.177822],[18.07072,59.177822],[18.070151,59.177553],[18.069626,59.177576],[18.069007,59.174367],[18.069925,59.174007],[18.070055,59.173513],[18.071582,59.172076],[18.072806,59.171671],[18.074293,59.172254],[18.0802,59.174091],[18.100143,59.175603],[18.10417,59.176969],[18.103432,59.178766],[18.099771,59.183011],[18.099425,59.184403],[18.103759,59.185742],[18.10233,59.186755],[18.11288,59.191357000000004],[18.11139,59.192159],[18.109901,59.191599],[18.106014,59.193488],[18.104874,59.192793],[18.106229,59.192388],[18.101194,59.190955],[18.095809,59.189411],[18.090249,59.187843],[18.085172,59.1865],[18.077074,59.184014],[18.074496,59.183562],[18.07487,59.182611],[18.075196,59.181478],[18.076519,59.180171],[18.076454,59.179257]]]],"type":"MultiPolygon"},"id":"bdt.33","properties":{"andrad_av":"hud_emfr","andrad_datum":"2024-08-09T13:35:18.400","area":2586771.79,"idnr":33,"kod":null,"namn":null,"old_idnr":null,"skapad_av":"hud_emfr","skapad_datum":"2024-08-09T13:35:18.400"},"type":"Feature"}
 ]
}