{"type": "FeatureCollection",
 "bbox": [ 17.81034678, 59.11048047, 18.23706611, 59.31702172],
 "features": [
  {"geometry":{"coordinates":[17.987654,59.238196,0.0],"type":"Point"},"id":"bestammelser_p.27","properties":{"rk_adat":"2018-02-16T01:06:00.000","rk_asign":null,"rk_atgard":0,"rk_bsign":null,"rk_checkin_mark":0,"rk_dep":"NATNM","rk_dep_idgrp":null,"rk_extid":"0126K-13099","rk_extidfmt":1,"rk_fnr":"177193882","rk_fnr_idgrp":null,"rk_gdat":"2018-02-16T01:06:00.000","rk_gmlid":"id1001-177193882","rk_lagestat":0,"rk_m_typ":"0","rk_mtyp_par1":null,"rk_mtyp_par2":null,"rk_mtyp_par3":null,"rk_objektid":null,"rk_srikt":null,"rk_xyfel":50.0,"td_andrad_av":"nikr","td_andrad_datum":"2022-04-04T17:43:14.587","td_id":27,"td_skapad_av":"nikr","td_skapad_datum":"2022-04-04T17:43:14.587"},"type":"Feature"}
 ,{"geometry":{"coordinates":[17.928957,59.24421,0.0],"type":"Point"},"id":"bestammelser_p.29","properties":{"rk_adat":"2018-02-16T01:06:00.000","rk_asign":null,"rk_atgard":0,"rk_bsign":null,"rk_checkin_mark":0,"rk_dep":"NATNM","rk_dep_idgrp":null,"rk_extid":"0126K-13095","rk_extidfmt":1,"rk_fnr":"177193883","rk_fnr_idgrp":null,"rk_gdat":"2018-02-16T01:06:00.000","rk_gmlid":"id1001-177193883","rk_lagestat":0,"rk_m_typ":"0","rk_mtyp_par1":null,"rk_mtyp_par2":null,"rk_mtyp_par3":null,"rk_objektid":null,"rk_srikt":null,"rk_xyfel":50.0,"td_andrad_av":"nikr","td_andrad_datum":"2022-04-04T17:43:14.727","td_id":29,"td_skapad_av":"nikr","td_skapad_datum":"2022-04-04T17:43:14.727"},"type":"Feature"}
 ,{"geometry":{"coordinates":[17.930221,59.276407,0.0],"type":"Point"},"id":"bestammelser_p.30","properties":{"rk_adat":"2018-02-16T01:06:00.000","rk_asign":null,"rk_atgard":0,"rk_bsign":null,"rk_checkin_mark":0,"rk_dep":"NATNM","rk_dep_idgrp":null,"rk_extid":"0126K-13097","rk_extidfmt":1,"rk_fnr":"177193884","rk_fnr_idgrp":null,"rk_gdat":"2018-02-16T01:06:00.000","rk_gmlid":"id1001-177193884","rk_lagestat":0,"rk_m_typ":"0","rk_mtyp_par1":null,"rk_mtyp_par2":null,"rk_mtyp_par3":null,"rk_objektid":null,"rk_srikt":null,"rk_xyfel":50.0,"td_andrad_av":"nikr","td_andrad_datum":"2022-04-04T17:43:14.800","td_id":30,"td_skapad_av":"nikr","td_skapad_datum":"2022-04-04T17:43:14.800"},"type":"Feature"}
 ,{"geometry":{"coordinates":[17.951952,59.280393,0.0],"type":"Point"},"id":"bestammelser_p.31","properties":{"rk_adat":"2018-02-16T01:06:00.000","rk_asign":null,"rk_atgard":0,"rk_bsign":null,"rk_checkin_mark":0,"rk_dep":"NATNM","rk_dep_idgrp":null,"rk_extid":"0126K-13098","rk_extidfmt":1,"rk_fnr":"177193885","rk_fnr_idgrp":null,"rk_gdat":"2018-02-16T01:06:00.000","rk_gmlid":"id1001-177193885","rk_lagestat":0,"rk_m_typ":"0","rk_mtyp_par1":null,"rk_mtyp_par2":null,"rk_mtyp_par3":null,"rk_objektid":null,"rk_srikt":null,"rk_xyfel":50.0,"td_andrad_av":"nikr","td_andrad_datum":"2022-04-04T17:43:14.877","td_id":31,"td_skapad_av":"nikr","td_skapad_datum":"2022-04-04T17:43:14.877"},"type":"Feature"}
 ,{"geometry":{"coordinates":[17.952191,59.280401,0.0],"type":"Point"},"id":"bestammelser_p.32","properties":{"rk_adat":"2018-02-16T01:06:00.000","rk_asign":null,"rk_atgard":0,"rk_bsign":null,"rk_checkin_mark":0,"rk_dep":"NATNM","rk_dep_idgrp":null,"rk_extid":"0126K-13098","rk_extidfmt":1,"rk_fnr":"177193887","rk_fnr_idgrp":null,"rk_gdat":"2018-02-16T01:06:00.000","rk_gmlid":"id1001-177193887","rk_lagestat":0,"rk_m_typ":"0","rk_mtyp_par1":null,"rk_mtyp_par2":null,"rk_mtyp_par3":null,"rk_objektid":null,"rk_srikt":null,"rk_xyfel":50.0,"td_andrad_av":"nikr","td_andrad_datum":"2022-04-04T17:43:14.950","td_id":32,"td_skapad_av":"nikr","td_skapad_datum":"2022-04-04T17:43:14.950"},"type":"Feature"}
 ,{"geometry":{"coordinates":[17.951816,59.280391,0.0],"type":"Point"},"id":"bestammelser_p.33","properties":{"rk_adat":"2018-02-16T01:06:00.000","rk_asign":null,"rk_atgard":0,"rk_bsign":null,"rk_checkin_mark":0,"rk_dep":"NATNM","rk_dep_idgrp":null,"rk_extid":"0126K-13098","rk_extidfmt":1,"rk_fnr":"177193888","rk_fnr_idgrp":null,"rk_gdat":"2018-02-16T01:06:00.000","rk_gmlid":"id1001-177193888","rk_lagestat":0,"rk_m_typ":"0","rk_mtyp_par1":null,"rk_mtyp_par2":null,"rk_mtyp_par3":null,"rk_objektid":null,"rk_srikt":null,"rk_xyfel":50.0,"td_andrad_av":"nikr","td_andrad_datum":"2022-04-04T17:43:15.043","td_id":33,"td_skapad_av":"nikr","td_skapad_datum":"2022-04-04T17:43:15.043"},"type":"Feature"}
 ,{"geometry":{"coordinates":[17.952251,59.279176,0.0],"type":"Point"},"id":"bestammelser_p.34","properties":{"rk_adat":"2018-02-16T01:06:00.000","rk_asign":null,"rk_atgard":0,"rk_bsign":null,"rk_checkin_mark":0,"rk_dep":"NATNM","rk_dep_idgrp":null,"rk_extid":"0126K-13103","rk_extidfmt":1,"rk_fnr":"177193891","rk_fnr_idgrp":null,"rk_gdat":"2018-02-16T01:06:00.000","rk_gmlid":"id1001-177193891","rk_lagestat":0,"rk_m_typ":"0","rk_mtyp_par1":null,"rk_mtyp_par2":null,"rk_mtyp_par3":null,"rk_objektid":null,"rk_srikt":null,"rk_xyfel":50.0,"td_andrad_av":"nikr","td_andrad_datum":"2022-04-04T17:43:15.117","td_id":34,"td_skapad_av":"nikr","td_skapad_datum":"2022-04-04T17:43:15.117"},"type":"Feature"}
 ,{"geometry":{"coordinates":[18.007945,59.156863,0.0],"type":"Point"},"id":"bestammelser_p.35","properties":{"rk_adat":"2018-02-16T01:06:00.000","rk_asign":null,"rk_atgard":0,"rk_bsign":null,"rk_checkin_mark":0,"rk_dep":"NATNM","rk_dep_idgrp":null,"rk_extid":"0126K-13096","rk_extidfmt":1,"rk_fnr":"177193889","rk_fnr_idgrp":null,"rk_gdat":"2018-02-16T01:06:00.000","rk_gmlid":"id1001-177193889","rk_lagestat":0,"rk_m_typ":"0","rk_mtyp_par1":null,"rk_mtyp_par2":null,"rk_mtyp_par3":null,"rk_objektid":null,"rk_srikt":null,"rk_xyfel":50.0,"td_andrad_av":"nikr","td_andrad_datum":"2022-04-04T17:43:15.177","td_id":35,"td_skapad_av":"nikr","td_skapad_datum":"2022-04-04T17:43:15.177"},"type":"Feature"}
 ,{"geometry":{"coordinates":[18.034361,59.235392,0.0],"type":"Point"},"id":"bestammelser_p.36","properties":{"rk_adat":"2018-02-16T01:06:00.000","rk_asign":null,"rk_atgard":0,"rk_bsign":null,"rk_checkin_mark":0,"rk_dep":"NATNM","rk_dep_idgrp":null,"rk_extid":"0126K-13101","rk_extidfmt":1,"rk_fnr":"177193892","rk_fnr_idgrp":null,"rk_gdat":"2018-02-16T01:06:00.000","rk_gmlid":"id1001-177193892","rk_lagestat":0,"rk_m_typ":"0","rk_mtyp_par1":null,"rk_mtyp_par2":null,"rk_mtyp_par3":null,"rk_objektid":null,"rk_srikt":null,"rk_xyfel":50.0,"td_andrad_av":"nikr","td_andrad_datum":"2022-04-04T17:43:15.247","td_id":36,"td_skapad_av":"nikr","td_skapad_datum":"2022-04-04T17:43:15.247"},"type":"Feature"}
 ,{"geometry":{"coordinates":[18.13386,59.227256,0.0],"type":"Point"},"id":"bestammelser_p.37","properties":{"rk_adat":"2018-02-16T01:06:00.000","rk_asign":null,"rk_atgard":0,"rk_bsign":null,"rk_checkin_mark":0,"rk_dep":"NATNM","rk_dep_idgrp":null,"rk_extid":"0126K-13094","rk_extidfmt":1,"rk_fnr":"177193880","rk_fnr_idgrp":null,"rk_gdat":"2018-02-16T01:06:00.000","rk_gmlid":"id1001-177193880","rk_lagestat":0,"rk_m_typ":"0","rk_mtyp_par1":null,"rk_mtyp_par2":null,"rk_mtyp_par3":null,"rk_objektid":null,"rk_srikt":null,"rk_xyfel":50.0,"td_andrad_av":"nikr","td_andrad_datum":"2022-04-04T17:43:15.320","td_id":37,"td_skapad_av":"nikr","td_skapad_datum":"2022-04-04T17:43:15.320"},"type":"Feature"}
 ,{"geometry":{"coordinates":[18.133492,59.226705,0.0],"type":"Point"},"id":"bestammelser_p.38","properties":{"rk_adat":"2018-02-16T01:06:00.000","rk_asign":null,"rk_atgard":0,"rk_bsign":null,"rk_checkin_mark":0,"rk_dep":"NATNM","rk_dep_idgrp":null,"rk_extid":"0126K-13100","rk_extidfmt":1,"rk_fnr":"177193890","rk_fnr_idgrp":null,"rk_gdat":"2018-02-16T01:06:00.000","rk_gmlid":"id1001-177193890","rk_lagestat":0,"rk_m_typ":"0","rk_mtyp_par1":null,"rk_mtyp_par2":null,"rk_mtyp_par3":null,"rk_objektid":null,"rk_srikt":null,"rk_xyfel":50.0,"td_andrad_av":"nikr","td_andrad_datum":"2022-04-04T17:43:15.393","td_id":38,"td_skapad_av":"nikr","td_skapad_datum":"2022-04-04T17:43:15.393"},"type":"Feature"}
 ]
}