{"type": "FeatureCollection",
 "bbox": [ 17.81034678, 59.11048047, 18.23706611, 59.31702172],
 "features": [
  {"geometry":{"coordinates":[17.887132,59.256881,0.0],"type":"Point"},"id":"friluftsliv.1","properties":{"andrad_av":null,"andrad_datum":null,"skapad_av":null,"skapad_datum":null,"typ":"Reservatsentreer"},"type":"Feature"}
 ,{"geometry":{"coordinates":[17.952525,59.265156,0.0],"type":"Point"},"id":"friluftsliv.2","properties":{"andrad_av":null,"andrad_datum":null,"skapad_av":null,"skapad_datum":null,"typ":"Reservatsentreer"},"type":"Feature"}
 ,{"geometry":{"coordinates":[17.950452,59.258826,0.0],"type":"Point"},"id":"friluftsliv.3","properties":{"andrad_av":null,"andrad_datum":null,"skapad_av":null,"skapad_datum":null,"typ":"Reservatsentreer"},"type":"Feature"}
 ,{"geometry":{"coordinates":[17.950084,59.252544,0.0],"type":"Point"},"id":"friluftsliv.4","properties":{"andrad_av":null,"andrad_datum":null,"skapad_av":null,"skapad_datum":null,"typ":"Reservatsentreer"},"type":"Feature"}
 ,{"geometry":{"coordinates":[17.931439,59.251691,0.0],"type":"Point"},"id":"friluftsliv.5","properties":{"andrad_av":null,"andrad_datum":null,"skapad_av":null,"skapad_datum":null,"typ":"Reservatsentreer"},"type":"Feature"}
 ,{"geometry":{"coordinates":[17.90985,59.253897,0.0],"type":"Point"},"id":"friluftsliv.6","properties":{"andrad_av":null,"andrad_datum":null,"skapad_av":null,"skapad_datum":null,"typ":"Reservatsentreer"},"type":"Feature"}
 ,{"geometry":{"coordinates":[17.933302,59.271929,0.0],"type":"Point"},"id":"friluftsliv.7","properties":{"andrad_av":null,"andrad_datum":null,"skapad_av":null,"skapad_datum":null,"typ":"Reservatsentreer"},"type":"Feature"}
 ,{"geometry":{"coordinates":[17.956636,59.258089,0.0],"type":"Point"},"id":"friluftsliv.8","properties":{"andrad_av":null,"andrad_datum":null,"skapad_av":null,"skapad_datum":null,"typ":"Reservatsentreer"},"type":"Feature"}
 ,{"geometry":{"coordinates":[17.879613,59.241636],"type":"Point"},"id":"friluftsliv.9","properties":{"andrad_av":"svc_csmhud$","andrad_datum":"2023-06-19T09:00:57.107","skapad_av":null,"skapad_datum":null,"typ":"Reservatsentreer"},"type":"Feature"}
 ,{"geometry":{"coordinates":[17.882216,59.240006],"type":"Point"},"id":"friluftsliv.10","properties":{"andrad_av":"svc_csmhud$","andrad_datum":"2023-06-19T09:02:01.510","skapad_av":null,"skapad_datum":null,"typ":"Reservatsentreer"},"type":"Feature"}
 ,{"geometry":{"coordinates":[18.16537,59.232503,0.0],"type":"Point"},"id":"friluftsliv.11","properties":{"andrad_av":null,"andrad_datum":null,"skapad_av":null,"skapad_datum":null,"typ":"Reservatsentreer"},"type":"Feature"}
 ,{"geometry":{"coordinates":[17.872131,59.266924,0.0],"type":"Point"},"id":"friluftsliv.12","properties":{"andrad_av":null,"andrad_datum":null,"skapad_av":null,"skapad_datum":null,"typ":"Reservatsentreer"},"type":"Feature"}
 ,{"geometry":{"coordinates":[17.868275,59.26774,0.0],"type":"Point"},"id":"friluftsliv.13","properties":{"andrad_av":null,"andrad_datum":null,"skapad_av":null,"skapad_datum":null,"typ":"Reservatsentreer"},"type":"Feature"}
 ,{"geometry":{"coordinates":[17.875094,59.268821,0.0],"type":"Point"},"id":"friluftsliv.14","properties":{"andrad_av":null,"andrad_datum":null,"skapad_av":null,"skapad_datum":null,"typ":"Reservatsentreer"},"type":"Feature"}
 ,{"geometry":{"coordinates":[17.870435,59.266126,0.0],"type":"Point"},"id":"friluftsliv.15","properties":{"andrad_av":null,"andrad_datum":null,"skapad_av":null,"skapad_datum":null,"typ":"Reservatsentreer"},"type":"Feature"}
 ,{"geometry":{"coordinates":[17.98147,59.195408],"type":"Point"},"id":"friluftsliv.16","properties":{"andrad_av":"svc_csmhud$","andrad_datum":"2023-06-19T08:53:25.743","skapad_av":null,"skapad_datum":null,"typ":"Reservatsentreer"},"type":"Feature"}
 ,{"geometry":{"coordinates":[17.963599,59.191778,0.0],"type":"Point"},"id":"friluftsliv.17","properties":{"andrad_av":null,"andrad_datum":null,"skapad_av":null,"skapad_datum":null,"typ":"Reservatsentreer"},"type":"Feature"}
 ,{"geometry":{"coordinates":[17.945927,59.211513,0.0],"type":"Point"},"id":"friluftsliv.18","properties":{"andrad_av":null,"andrad_datum":null,"skapad_av":null,"skapad_datum":null,"typ":"Reservatsentreer"},"type":"Feature"}
 ,{"geometry":{"coordinates":[18.069693,59.187947,0.0],"type":"Point"},"id":"friluftsliv.19","properties":{"andrad_av":null,"andrad_datum":null,"skapad_av":null,"skapad_datum":null,"typ":"Reservatsentreer"},"type":"Feature"}
 ,{"geometry":{"coordinates":[18.029235,59.164607],"type":"Point"},"id":"friluftsliv.20","properties":{"andrad_av":"svc_csmhud$","andrad_datum":"2023-06-19T09:12:32.430","skapad_av":null,"skapad_datum":null,"typ":"Reservatsentreer"},"type":"Feature"}
 ,{"geometry":{"coordinates":[18.070863,59.163116,0.0],"type":"Point"},"id":"friluftsliv.21","properties":{"andrad_av":null,"andrad_datum":null,"skapad_av":null,"skapad_datum":null,"typ":"Reservatsentreer"},"type":"Feature"}
 ,{"geometry":{"coordinates":[17.99781,59.190298,0.0],"type":"Point"},"id":"friluftsliv.22","properties":{"andrad_av":null,"andrad_datum":null,"skapad_av":null,"skapad_datum":null,"typ":"Reservatsentreer"},"type":"Feature"}
 ,{"geometry":{"coordinates":[18.014141,59.220101,0.0],"type":"Point"},"id":"friluftsliv.23","properties":{"andrad_av":null,"andrad_datum":null,"skapad_av":null,"skapad_datum":null,"typ":"Reservatsentreer"},"type":"Feature"}
 ,{"geometry":{"coordinates":[18.021339,59.223823,0.0],"type":"Point"},"id":"friluftsliv.24","properties":{"andrad_av":null,"andrad_datum":null,"skapad_av":null,"skapad_datum":null,"typ":"Reservatsentreer"},"type":"Feature"}
 ,{"geometry":{"coordinates":[18.028063,59.225744,0.0],"type":"Point"},"id":"friluftsliv.25","properties":{"andrad_av":null,"andrad_datum":null,"skapad_av":null,"skapad_datum":null,"typ":"Reservatsentreer"},"type":"Feature"}
 ,{"geometry":{"coordinates":[18.081094,59.220232,0.0],"type":"Point"},"id":"friluftsliv.28","properties":{"andrad_av":null,"andrad_datum":null,"skapad_av":null,"skapad_datum":null,"typ":"Reservatsentreer"},"type":"Feature"}
 ,{"geometry":{"coordinates":[18.082146,59.21808,0.0],"type":"Point"},"id":"friluftsliv.29","properties":{"andrad_av":null,"andrad_datum":null,"skapad_av":null,"skapad_datum":null,"typ":"Reservatsentreer"},"type":"Feature"}
 ,{"geometry":{"coordinates":[18.079271,59.206258,0.0],"type":"Point"},"id":"friluftsliv.30","properties":{"andrad_av":null,"andrad_datum":null,"skapad_av":null,"skapad_datum":null,"typ":"Reservatsentreer"},"type":"Feature"}
 ,{"geometry":{"coordinates":[18.042913,59.186118,0.0],"type":"Point"},"id":"friluftsliv.31","properties":{"andrad_av":null,"andrad_datum":null,"skapad_av":null,"skapad_datum":null,"typ":"Reservatsentreer"},"type":"Feature"}
 ,{"geometry":{"coordinates":[18.04465,59.209691,0.0],"type":"Point"},"id":"friluftsliv.32","properties":{"andrad_av":null,"andrad_datum":null,"skapad_av":null,"skapad_datum":null,"typ":"Reservatsentreer"},"type":"Feature"}
 ,{"geometry":{"coordinates":[18.039482,59.208844,0.0],"type":"Point"},"id":"friluftsliv.33","properties":{"andrad_av":null,"andrad_datum":null,"skapad_av":null,"skapad_datum":null,"typ":"Reservatsentreer"},"type":"Feature"}
 ,{"geometry":{"coordinates":[17.970534,59.222788,0.0],"type":"Point"},"id":"friluftsliv.34","properties":{"andrad_av":null,"andrad_datum":null,"skapad_av":null,"skapad_datum":null,"typ":"Reservatsentreer"},"type":"Feature"}
 ,{"geometry":{"coordinates":[18.023358,59.191739,0.0],"type":"Point"},"id":"friluftsliv.35","properties":{"andrad_av":null,"andrad_datum":null,"skapad_av":null,"skapad_datum":null,"typ":"Reservatsentreer"},"type":"Feature"}
 ,{"geometry":{"coordinates":[18.073619,59.175595,0.0],"type":"Point"},"id":"friluftsliv.36","properties":{"andrad_av":null,"andrad_datum":null,"skapad_av":null,"skapad_datum":null,"typ":"Reservatsentreer"},"type":"Feature"}
 ,{"geometry":{"coordinates":[18.066566,59.172485,0.0],"type":"Point"},"id":"friluftsliv.37","properties":{"andrad_av":null,"andrad_datum":null,"skapad_av":null,"skapad_datum":null,"typ":"Reservatsentreer"},"type":"Feature"}
 ,{"geometry":{"coordinates":[18.063215,59.173734,0.0],"type":"Point"},"id":"friluftsliv.38","properties":{"andrad_av":null,"andrad_datum":null,"skapad_av":null,"skapad_datum":null,"typ":"Reservatsentreer"},"type":"Feature"}
 ,{"geometry":{"coordinates":[18.075578,59.176458,0.0],"type":"Point"},"id":"friluftsliv.39","properties":{"andrad_av":null,"andrad_datum":null,"skapad_av":null,"skapad_datum":null,"typ":"Reservatsentreer"},"type":"Feature"}
 ,{"geometry":{"coordinates":[18.143593,59.20002],"type":"Point"},"id":"friluftsliv.40","properties":{"andrad_av":"svc_csmhud$","andrad_datum":"2023-06-19T08:54:28.523","skapad_av":null,"skapad_datum":null,"typ":"Reservatsentreer"},"type":"Feature"}
 ,{"geometry":{"coordinates":[18.150946,59.201255],"type":"Point"},"id":"friluftsliv.41","properties":{"andrad_av":"svc_csmhud$","andrad_datum":"2023-06-19T08:53:55.633","skapad_av":null,"skapad_datum":null,"typ":"Reservatsentreer"},"type":"Feature"}
 ,{"geometry":{"coordinates":[18.024033,59.19096,0.0],"type":"Point"},"id":"friluftsliv.42","properties":{"andrad_av":null,"andrad_datum":null,"skapad_av":null,"skapad_datum":null,"typ":"Reservatsentreer"},"type":"Feature"}
 ,{"geometry":{"coordinates":[17.888829,59.245148,0.0],"type":"Point"},"id":"friluftsliv.43","properties":{"andrad_av":null,"andrad_datum":null,"skapad_av":null,"skapad_datum":null,"typ":"Reservatsentreer"},"type":"Feature"}
 ,{"geometry":{"coordinates":[17.932009,59.267692,0.0],"type":"Point"},"id":"friluftsliv.44","properties":{"andrad_av":null,"andrad_datum":null,"skapad_av":null,"skapad_datum":null,"typ":"Reservatsentreer"},"type":"Feature"}
 ,{"geometry":{"coordinates":[17.944794,59.274413,0.0],"type":"Point"},"id":"friluftsliv.45","properties":{"andrad_av":null,"andrad_datum":null,"skapad_av":null,"skapad_datum":null,"typ":"Reservatsentreer"},"type":"Feature"}
 ,{"geometry":{"coordinates":[17.927583,59.270605,0.0],"type":"Point"},"id":"friluftsliv.46","properties":{"andrad_av":null,"andrad_datum":null,"skapad_av":null,"skapad_datum":null,"typ":"Reservatsentreer"},"type":"Feature"}
 ,{"geometry":{"coordinates":[17.938456,59.273277,0.0],"type":"Point"},"id":"friluftsliv.47","properties":{"andrad_av":null,"andrad_datum":null,"skapad_av":null,"skapad_datum":null,"typ":"Reservatsentreer"},"type":"Feature"}
 ,{"geometry":{"coordinates":[17.945942,59.270085,0.0],"type":"Point"},"id":"friluftsliv.48","properties":{"andrad_av":null,"andrad_datum":null,"skapad_av":null,"skapad_datum":null,"typ":"Reservatsentreer"},"type":"Feature"}
 ,{"geometry":{"coordinates":[17.945573,59.271154,0.0],"type":"Point"},"id":"friluftsliv.49","properties":{"andrad_av":null,"andrad_datum":null,"skapad_av":null,"skapad_datum":null,"typ":"Reservatsentreer"},"type":"Feature"}
 ,{"geometry":{"coordinates":[17.947372,59.266812,0.0],"type":"Point"},"id":"friluftsliv.50","properties":{"andrad_av":null,"andrad_datum":null,"skapad_av":null,"skapad_datum":null,"typ":"Reservatsentreer"},"type":"Feature"}
 ,{"geometry":{"coordinates":[17.950717,59.265722,0.0],"type":"Point"},"id":"friluftsliv.51","properties":{"andrad_av":null,"andrad_datum":null,"skapad_av":null,"skapad_datum":null,"typ":"Reservatsentreer"},"type":"Feature"}
 ,{"geometry":{"coordinates":[17.956662,59.263823,0.0],"type":"Point"},"id":"friluftsliv.52","properties":{"andrad_av":null,"andrad_datum":null,"skapad_av":null,"skapad_datum":null,"typ":"Reservatsentreer"},"type":"Feature"}
 ,{"geometry":{"coordinates":[17.957059,59.26295,0.0],"type":"Point"},"id":"friluftsliv.53","properties":{"andrad_av":null,"andrad_datum":null,"skapad_av":null,"skapad_datum":null,"typ":"Reservatsentreer"},"type":"Feature"}
 ,{"geometry":{"coordinates":[17.952722,59.260766,0.0],"type":"Point"},"id":"friluftsliv.54","properties":{"andrad_av":null,"andrad_datum":null,"skapad_av":null,"skapad_datum":null,"typ":"Reservatsentreer"},"type":"Feature"}
 ,{"geometry":{"coordinates":[17.946828,59.251387,0.0],"type":"Point"},"id":"friluftsliv.55","properties":{"andrad_av":null,"andrad_datum":null,"skapad_av":null,"skapad_datum":null,"typ":"Reservatsentreer"},"type":"Feature"}
 ,{"geometry":{"coordinates":[17.956444,59.255508,0.0],"type":"Point"},"id":"friluftsliv.56","properties":{"andrad_av":null,"andrad_datum":null,"skapad_av":null,"skapad_datum":null,"typ":"Reservatsentreer"},"type":"Feature"}
 ,{"geometry":{"coordinates":[17.957825,59.256148,0.0],"type":"Point"},"id":"friluftsliv.57","properties":{"andrad_av":null,"andrad_datum":null,"skapad_av":null,"skapad_datum":null,"typ":"Reservatsentreer"},"type":"Feature"}
 ,{"geometry":{"coordinates":[17.910509,59.261983,0.0],"type":"Point"},"id":"friluftsliv.58","properties":{"andrad_av":null,"andrad_datum":null,"skapad_av":null,"skapad_datum":null,"typ":"Reservatsentreer"},"type":"Feature"}
 ,{"geometry":{"coordinates":[17.911264,59.242956,0.0],"type":"Point"},"id":"friluftsliv.59","properties":{"andrad_av":null,"andrad_datum":null,"skapad_av":null,"skapad_datum":null,"typ":"Reservatsentreer"},"type":"Feature"}
 ,{"geometry":{"coordinates":[17.913861,59.250196,0.0],"type":"Point"},"id":"friluftsliv.60","properties":{"andrad_av":null,"andrad_datum":null,"skapad_av":null,"skapad_datum":null,"typ":"Reservatsentreer"},"type":"Feature"}
 ,{"geometry":{"coordinates":[18.056892,59.15043,0.0],"type":"Point"},"id":"friluftsliv.61","properties":{"andrad_av":null,"andrad_datum":null,"skapad_av":null,"skapad_datum":null,"typ":"Reservatsentreer"},"type":"Feature"}
 ,{"geometry":{"coordinates":[18.061689,59.176764,0.0],"type":"Point"},"id":"friluftsliv.62","properties":{"andrad_av":null,"andrad_datum":null,"skapad_av":null,"skapad_datum":null,"typ":"Reservatsentreer"},"type":"Feature"}
 ,{"geometry":{"coordinates":[18.007438,59.198653],"type":"Point"},"id":"friluftsliv.63","properties":{"andrad_av":"svc_csmhud$","andrad_datum":"2023-06-19T08:52:16.100","skapad_av":null,"skapad_datum":null,"typ":"Reservatsentreer"},"type":"Feature"}
 ,{"geometry":{"coordinates":[17.967262,59.184983,0.0],"type":"Point"},"id":"friluftsliv.64","properties":{"andrad_av":null,"andrad_datum":null,"skapad_av":null,"skapad_datum":null,"typ":"Reservatsentreer"},"type":"Feature"}
 ,{"geometry":{"coordinates":[17.951087,59.213219,0.0],"type":"Point"},"id":"friluftsliv.65","properties":{"andrad_av":null,"andrad_datum":null,"skapad_av":null,"skapad_datum":null,"typ":"Reservatsentreer"},"type":"Feature"}
 ,{"geometry":{"coordinates":[18.001292,59.218462,0.0],"type":"Point"},"id":"friluftsliv.66","properties":{"andrad_av":null,"andrad_datum":null,"skapad_av":null,"skapad_datum":null,"typ":"Reservatsentreer"},"type":"Feature"}
 ,{"geometry":{"coordinates":[17.872745,59.269942,0.0],"type":"Point"},"id":"friluftsliv.67","properties":{"andrad_av":null,"andrad_datum":null,"skapad_av":null,"skapad_datum":null,"typ":"Reservatsentreer"},"type":"Feature"}
 ,{"geometry":{"coordinates":[18.036976,59.210672,0.0],"type":"Point"},"id":"friluftsliv.68","properties":{"andrad_av":null,"andrad_datum":null,"skapad_av":null,"skapad_datum":null,"typ":"Bänkar/picknickbord"},"type":"Feature"}
 ,{"geometry":{"coordinates":[18.035813,59.210321,0.0],"type":"Point"},"id":"friluftsliv.69","properties":{"andrad_av":null,"andrad_datum":null,"skapad_av":null,"skapad_datum":null,"typ":"Bänkar/picknickbord"},"type":"Feature"}
 ,{"geometry":{"coordinates":[18.025087,59.192965],"type":"Point"},"id":"friluftsliv.70","properties":{"andrad_av":"marwal02-0-004","andrad_datum":"2026-06-05T10:21:18.907","skapad_av":null,"skapad_datum":null,"typ":"Bänkar/picknickbord"},"type":"Feature"}
 ,{"geometry":{"coordinates":[18.025148,59.193264],"type":"Point"},"id":"friluftsliv.71","properties":{"andrad_av":"marwal02-0-004","andrad_datum":"2026-06-05T10:23:12.263","skapad_av":null,"skapad_datum":null,"typ":"Bänkar/picknickbord"},"type":"Feature"}
 ,{"geometry":{"coordinates":[18.025031,59.194013],"type":"Point"},"id":"friluftsliv.72","properties":{"andrad_av":"marwal02-0-004","andrad_datum":"2026-01-22T14:04:03.730","skapad_av":null,"skapad_datum":null,"typ":"Bänkar/picknickbord"},"type":"Feature"}
 ,{"geometry":{"coordinates":[18.023175,59.19455,0.0],"type":"Point"},"id":"friluftsliv.73","properties":{"andrad_av":null,"andrad_datum":null,"skapad_av":null,"skapad_datum":null,"typ":"Bänkar/picknickbord"},"type":"Feature"}
 ,{"geometry":{"coordinates":[18.03973,59.199904,0.0],"type":"Point"},"id":"friluftsliv.74","properties":{"andrad_av":null,"andrad_datum":null,"skapad_av":null,"skapad_datum":null,"typ":"Bänkar/picknickbord"},"type":"Feature"}
 ,{"geometry":{"coordinates":[18.032594,59.202531,0.0],"type":"Point"},"id":"friluftsliv.75","properties":{"andrad_av":null,"andrad_datum":null,"skapad_av":null,"skapad_datum":null,"typ":"Bänkar/picknickbord"},"type":"Feature"}
 ,{"geometry":{"coordinates":[18.03953,59.204554,0.0],"type":"Point"},"id":"friluftsliv.76","properties":{"andrad_av":null,"andrad_datum":null,"skapad_av":null,"skapad_datum":null,"typ":"Bänkar/picknickbord"},"type":"Feature"}
 ,{"geometry":{"coordinates":[18.042682,59.204214,0.0],"type":"Point"},"id":"friluftsliv.77","properties":{"andrad_av":null,"andrad_datum":null,"skapad_av":null,"skapad_datum":null,"typ":"Bänkar/picknickbord"},"type":"Feature"}
 ,{"geometry":{"coordinates":[18.163442,59.209444,0.0],"type":"Point"},"id":"friluftsliv.78","properties":{"andrad_av":null,"andrad_datum":null,"skapad_av":null,"skapad_datum":null,"typ":"Bänkar/picknickbord"},"type":"Feature"}
 ,{"geometry":{"coordinates":[18.175486,59.212666,0.0],"type":"Point"},"id":"friluftsliv.79","properties":{"andrad_av":null,"andrad_datum":null,"skapad_av":null,"skapad_datum":null,"typ":"Bänkar/picknickbord"},"type":"Feature"}
 ,{"geometry":{"coordinates":[18.074466,59.219935,0.0],"type":"Point"},"id":"friluftsliv.80","properties":{"andrad_av":null,"andrad_datum":null,"skapad_av":null,"skapad_datum":null,"typ":"Bänkar/picknickbord"},"type":"Feature"}
 ,{"geometry":{"coordinates":[18.074419,59.219823,0.0],"type":"Point"},"id":"friluftsliv.81","properties":{"andrad_av":null,"andrad_datum":null,"skapad_av":null,"skapad_datum":null,"typ":"Bänkar/picknickbord"},"type":"Feature"}
 ,{"geometry":{"coordinates":[18.042965,59.186001,0.0],"type":"Point"},"id":"friluftsliv.82","properties":{"andrad_av":null,"andrad_datum":null,"skapad_av":null,"skapad_datum":null,"typ":"Bänkar/picknickbord"},"type":"Feature"}
 ,{"geometry":{"coordinates":[18.043041,59.185999,0.0],"type":"Point"},"id":"friluftsliv.83","properties":{"andrad_av":null,"andrad_datum":null,"skapad_av":null,"skapad_datum":null,"typ":"Bänkar/picknickbord"},"type":"Feature"}
 ,{"geometry":{"coordinates":[18.022268,59.194882],"type":"Point"},"id":"friluftsliv.84","properties":{"andrad_av":"marwal02-0-004","andrad_datum":"2026-01-22T13:49:41.043","skapad_av":null,"skapad_datum":null,"typ":"Bänkar/picknickbord"},"type":"Feature"}
 ,{"geometry":{"coordinates":[17.966331,59.207781,0.0],"type":"Point"},"id":"friluftsliv.85","properties":{"andrad_av":null,"andrad_datum":null,"skapad_av":null,"skapad_datum":null,"typ":"Bänkar/picknickbord"},"type":"Feature"}
 ,{"geometry":{"coordinates":[18.047841,59.16557,0.0],"type":"Point"},"id":"friluftsliv.86","properties":{"andrad_av":null,"andrad_datum":null,"skapad_av":null,"skapad_datum":null,"typ":"Bänkar/picknickbord"},"type":"Feature"}
 ,{"geometry":{"coordinates":[18.023342,59.153431,0.0],"type":"Point"},"id":"friluftsliv.87","properties":{"andrad_av":null,"andrad_datum":null,"skapad_av":null,"skapad_datum":null,"typ":"Bänkar/picknickbord"},"type":"Feature"}
 ,{"geometry":{"coordinates":[17.911708,59.25429],"type":"Point"},"id":"friluftsliv.88","properties":{"andrad_av":"marwal02-0-004","andrad_datum":"2026-01-23T08:44:30.733","skapad_av":null,"skapad_datum":null,"typ":"Bänkar/picknickbord"},"type":"Feature"}
 ,{"geometry":{"coordinates":[17.9436,59.267886,0.0],"type":"Point"},"id":"friluftsliv.89","properties":{"andrad_av":null,"andrad_datum":null,"skapad_av":null,"skapad_datum":null,"typ":"Bänkar/picknickbord"},"type":"Feature"}
 ,{"geometry":{"coordinates":[17.925453,59.251842,0.0],"type":"Point"},"id":"friluftsliv.90","properties":{"andrad_av":null,"andrad_datum":null,"skapad_av":null,"skapad_datum":null,"typ":"Bänkar/picknickbord"},"type":"Feature"}
 ,{"geometry":{"coordinates":[18.168116,59.210592,0.0],"type":"Point"},"id":"friluftsliv.91","properties":{"andrad_av":null,"andrad_datum":null,"skapad_av":null,"skapad_datum":null,"typ":"Bänkar/picknickbord"},"type":"Feature"}
 ,{"geometry":{"coordinates":[18.169601,59.210882,0.0],"type":"Point"},"id":"friluftsliv.92","properties":{"andrad_av":null,"andrad_datum":null,"skapad_av":null,"skapad_datum":null,"typ":"Bänkar/picknickbord"},"type":"Feature"}
 ,{"geometry":{"coordinates":[17.944231,59.226924],"type":"Point"},"id":"friluftsliv.93","properties":{"andrad_av":"svc_csmhud$","andrad_datum":"2023-06-19T09:08:34.050","skapad_av":null,"skapad_datum":null,"typ":"Bänkar/picknickbord"},"type":"Feature"}
 ,{"geometry":{"coordinates":[18.073956,59.218367,0.0],"type":"Point"},"id":"friluftsliv.94","properties":{"andrad_av":null,"andrad_datum":null,"skapad_av":null,"skapad_datum":null,"typ":"Bänkar/picknickbord"},"type":"Feature"}
 ,{"geometry":{"coordinates":[18.074001,59.218252,0.0],"type":"Point"},"id":"friluftsliv.95","properties":{"andrad_av":null,"andrad_datum":null,"skapad_av":null,"skapad_datum":null,"typ":"Bänkar/picknickbord"},"type":"Feature"}
 ,{"geometry":{"coordinates":[18.070135,59.217163,0.0],"type":"Point"},"id":"friluftsliv.96","properties":{"andrad_av":null,"andrad_datum":null,"skapad_av":null,"skapad_datum":null,"typ":"Bänkar/picknickbord"},"type":"Feature"}
 ,{"geometry":{"coordinates":[18.072407,59.216717,0.0],"type":"Point"},"id":"friluftsliv.97","properties":{"andrad_av":null,"andrad_datum":null,"skapad_av":null,"skapad_datum":null,"typ":"Bänkar/picknickbord"},"type":"Feature"}
 ,{"geometry":{"coordinates":[18.07266,59.216822,0.0],"type":"Point"},"id":"friluftsliv.98","properties":{"andrad_av":null,"andrad_datum":null,"skapad_av":null,"skapad_datum":null,"typ":"Bänkar/picknickbord"},"type":"Feature"}
 ,{"geometry":{"coordinates":[18.074159,59.216621,0.0],"type":"Point"},"id":"friluftsliv.99","properties":{"andrad_av":null,"andrad_datum":null,"skapad_av":null,"skapad_datum":null,"typ":"Bänkar/picknickbord"},"type":"Feature"}
 ,{"geometry":{"coordinates":[18.0769,59.219057,0.0],"type":"Point"},"id":"friluftsliv.100","properties":{"andrad_av":null,"andrad_datum":null,"skapad_av":null,"skapad_datum":null,"typ":"Bänkar/picknickbord"},"type":"Feature"}
 ,{"geometry":{"coordinates":[18.077017,59.219057,0.0],"type":"Point"},"id":"friluftsliv.101","properties":{"andrad_av":null,"andrad_datum":null,"skapad_av":null,"skapad_datum":null,"typ":"Bänkar/picknickbord"},"type":"Feature"}
 ,{"geometry":{"coordinates":[18.06993,59.224049,0.0],"type":"Point"},"id":"friluftsliv.102","properties":{"andrad_av":null,"andrad_datum":null,"skapad_av":null,"skapad_datum":null,"typ":"Bänkar/picknickbord"},"type":"Feature"}
 ,{"geometry":{"coordinates":[18.154755,59.201939,0.0],"type":"Point"},"id":"friluftsliv.103","properties":{"andrad_av":null,"andrad_datum":null,"skapad_av":null,"skapad_datum":null,"typ":"Bänkar/picknickbord"},"type":"Feature"}
 ,{"geometry":{"coordinates":[18.146335,59.23748,0.0],"type":"Point"},"id":"friluftsliv.104","properties":{"andrad_av":null,"andrad_datum":null,"skapad_av":null,"skapad_datum":null,"typ":"Bänkar/picknickbord"},"type":"Feature"}
 ,{"geometry":{"coordinates":[17.978162,59.221501,0.0],"type":"Point"},"id":"friluftsliv.105","properties":{"andrad_av":null,"andrad_datum":null,"skapad_av":null,"skapad_datum":null,"typ":"Bänkar/picknickbord"},"type":"Feature"}
 ,{"geometry":{"coordinates":[18.024468,59.193943],"type":"Point"},"id":"friluftsliv.108","properties":{"andrad_av":"marwal02-0-004","andrad_datum":"2026-01-22T14:06:38.647","skapad_av":null,"skapad_datum":null,"typ":"Bänkar/picknickbord"},"type":"Feature"}
 ,{"geometry":{"coordinates":[18.02325,59.194511,0.0],"type":"Point"},"id":"friluftsliv.109","properties":{"andrad_av":null,"andrad_datum":null,"skapad_av":null,"skapad_datum":null,"typ":"Bänkar/picknickbord"},"type":"Feature"}
 ,{"geometry":{"coordinates":[18.020722,59.19435,0.0],"type":"Point"},"id":"friluftsliv.110","properties":{"andrad_av":null,"andrad_datum":null,"skapad_av":null,"skapad_datum":null,"typ":"Bänkar/picknickbord"},"type":"Feature"}
 ,{"geometry":{"coordinates":[18.024625,59.191782,0.0],"type":"Point"},"id":"friluftsliv.111","properties":{"andrad_av":null,"andrad_datum":null,"skapad_av":null,"skapad_datum":null,"typ":"Bänkar/picknickbord"},"type":"Feature"}
 ,{"geometry":{"coordinates":[18.023576,59.19196,0.0],"type":"Point"},"id":"friluftsliv.112","properties":{"andrad_av":null,"andrad_datum":null,"skapad_av":null,"skapad_datum":null,"typ":"Bänkar/picknickbord"},"type":"Feature"}
 ,{"geometry":{"coordinates":[18.070024,59.187927,0.0],"type":"Point"},"id":"friluftsliv.113","properties":{"andrad_av":null,"andrad_datum":null,"skapad_av":null,"skapad_datum":null,"typ":"Bänkar/picknickbord"},"type":"Feature"}
 ,{"geometry":{"coordinates":[17.966407,59.207789,0.0],"type":"Point"},"id":"friluftsliv.114","properties":{"andrad_av":null,"andrad_datum":null,"skapad_av":null,"skapad_datum":null,"typ":"Bänkar/picknickbord"},"type":"Feature"}
 ,{"geometry":{"coordinates":[17.981561,59.203664,0.0],"type":"Point"},"id":"friluftsliv.115","properties":{"andrad_av":null,"andrad_datum":null,"skapad_av":null,"skapad_datum":null,"typ":"Bänkar/picknickbord"},"type":"Feature"}
 ,{"geometry":{"coordinates":[17.981692,59.203722,0.0],"type":"Point"},"id":"friluftsliv.116","properties":{"andrad_av":null,"andrad_datum":null,"skapad_av":null,"skapad_datum":null,"typ":"Bänkar/picknickbord"},"type":"Feature"}
 ,{"geometry":{"coordinates":[18.02273,59.153962,0.0],"type":"Point"},"id":"friluftsliv.117","properties":{"andrad_av":null,"andrad_datum":null,"skapad_av":null,"skapad_datum":null,"typ":"Bänkar/picknickbord"},"type":"Feature"}
 ,{"geometry":{"coordinates":[18.022785,59.15393],"type":"Point"},"id":"friluftsliv.118","properties":{"andrad_av":"marwal02-0-004","andrad_datum":"2026-01-23T09:17:03.553","skapad_av":null,"skapad_datum":null,"typ":"Bänkar/picknickbord"},"type":"Feature"}
 ,{"geometry":{"coordinates":[18.022367,59.15409],"type":"Point"},"id":"friluftsliv.119","properties":{"andrad_av":"marwal02-0-004","andrad_datum":"2026-01-23T09:17:44.203","skapad_av":null,"skapad_datum":null,"typ":"Bänkar/picknickbord"},"type":"Feature"}
 ,{"geometry":{"coordinates":[18.022498,59.154131],"type":"Point"},"id":"friluftsliv.120","properties":{"andrad_av":"marwal02-0-004","andrad_datum":"2026-01-23T09:18:10.017","skapad_av":null,"skapad_datum":null,"typ":"Bänkar/picknickbord"},"type":"Feature"}
 ,{"geometry":{"coordinates":[18.039631,59.204559,0.0],"type":"Point"},"id":"friluftsliv.121","properties":{"andrad_av":null,"andrad_datum":null,"skapad_av":null,"skapad_datum":null,"typ":"Bänkar/picknickbord"},"type":"Feature"}
 ,{"geometry":{"coordinates":[17.978041,59.221511,0.0],"type":"Point"},"id":"friluftsliv.122","properties":{"andrad_av":null,"andrad_datum":null,"skapad_av":null,"skapad_datum":null,"typ":"Bänkar/picknickbord"},"type":"Feature"}
 ,{"geometry":{"coordinates":[17.936363,59.243394,0.0],"type":"Point"},"id":"friluftsliv.123","properties":{"andrad_av":null,"andrad_datum":null,"skapad_av":null,"skapad_datum":null,"typ":"Bänkar/picknickbord"},"type":"Feature"}
 ,{"geometry":{"coordinates":[17.936304,59.243399,0.0],"type":"Point"},"id":"friluftsliv.124","properties":{"andrad_av":null,"andrad_datum":null,"skapad_av":null,"skapad_datum":null,"typ":"Bänkar/picknickbord"},"type":"Feature"}
 ,{"geometry":{"coordinates":[17.93843,59.259639],"type":"Point"},"id":"friluftsliv.125","properties":{"andrad_av":"marwal02-0-004","andrad_datum":"2026-01-23T14:09:55.057","skapad_av":null,"skapad_datum":null,"typ":"Bänkar/picknickbord"},"type":"Feature"}
 ,{"geometry":{"coordinates":[18.070342,59.172901,0.0],"type":"Point"},"id":"friluftsliv.126","properties":{"andrad_av":null,"andrad_datum":null,"skapad_av":null,"skapad_datum":null,"typ":"Bänkar/picknickbord"},"type":"Feature"}
 ,{"geometry":{"coordinates":[18.02929,59.208169,0.0],"type":"Point"},"id":"friluftsliv.127","properties":{"andrad_av":null,"andrad_datum":null,"skapad_av":null,"skapad_datum":null,"typ":"Bänkar/picknickbord"},"type":"Feature"}
 ,{"geometry":{"coordinates":[18.039465,59.208635],"type":"Point"},"id":"friluftsliv.128","properties":{"andrad_av":"svc_csmhud$","andrad_datum":"2023-06-19T09:11:22.570","skapad_av":null,"skapad_datum":null,"typ":"Bänkar/picknickbord"},"type":"Feature"}
 ,{"geometry":{"coordinates":[18.032176,59.201083,0.0],"type":"Point"},"id":"friluftsliv.129","properties":{"andrad_av":null,"andrad_datum":null,"skapad_av":null,"skapad_datum":null,"typ":"Bänkar/picknickbord"},"type":"Feature"}
 ,{"geometry":{"coordinates":[18.022812,59.153818],"type":"Point"},"id":"friluftsliv.130","properties":{"andrad_av":"svc_csmhud$","andrad_datum":"2023-06-19T09:14:13.440","skapad_av":null,"skapad_datum":null,"typ":"Bänkar/picknickbord"},"type":"Feature"}
 ,{"geometry":{"coordinates":[17.946902,59.257134,0.0],"type":"Point"},"id":"friluftsliv.131","properties":{"andrad_av":null,"andrad_datum":null,"skapad_av":null,"skapad_datum":null,"typ":"Bänkar/picknickbord"},"type":"Feature"}
 ,{"geometry":{"coordinates":[17.924721,59.253213],"type":"Point"},"id":"friluftsliv.132","properties":{"andrad_av":"marwal02-0-004","andrad_datum":"2026-01-23T09:01:47.330","skapad_av":null,"skapad_datum":null,"typ":"Bänkar/picknickbord"},"type":"Feature"}
 ,{"geometry":{"coordinates":[18.025147,59.193241],"type":"Point"},"id":"friluftsliv.134","properties":{"andrad_av":"marwal02-0-004","andrad_datum":"2026-06-05T10:23:25.773","skapad_av":null,"skapad_datum":null,"typ":"Bänkar/picknickbord"},"type":"Feature"}
 ,{"geometry":{"coordinates":[18.025082,59.192947],"type":"Point"},"id":"friluftsliv.135","properties":{"andrad_av":"marwal02-0-004","andrad_datum":"2026-06-05T10:21:06.640","skapad_av":null,"skapad_datum":null,"typ":"Bänkar/picknickbord"},"type":"Feature"}
 ,{"geometry":{"coordinates":[18.072581,59.176658,0.0],"type":"Point"},"id":"friluftsliv.136","properties":{"andrad_av":null,"andrad_datum":null,"skapad_av":null,"skapad_datum":null,"typ":"Bänkar/picknickbord"},"type":"Feature"}
 ,{"geometry":{"coordinates":[18.062869,59.174168,0.0],"type":"Point"},"id":"friluftsliv.137","properties":{"andrad_av":null,"andrad_datum":null,"skapad_av":null,"skapad_datum":null,"typ":"Bänkar/picknickbord"},"type":"Feature"}
 ,{"geometry":{"coordinates":[17.959041,59.2143,0.0],"type":"Point"},"id":"friluftsliv.138","properties":{"andrad_av":null,"andrad_datum":null,"skapad_av":null,"skapad_datum":null,"typ":"Bänkar/picknickbord"},"type":"Feature"}
 ,{"geometry":{"coordinates":[18.022692,59.153916,0.0],"type":"Point"},"id":"friluftsliv.139","properties":{"andrad_av":null,"andrad_datum":null,"skapad_av":null,"skapad_datum":null,"typ":"Bänkar/picknickbord"},"type":"Feature"}
 ,{"geometry":{"coordinates":[18.022431,59.154138],"type":"Point"},"id":"friluftsliv.140","properties":{"andrad_av":"marwal02-0-004","andrad_datum":"2026-01-23T09:17:56.730","skapad_av":null,"skapad_datum":null,"typ":"Bänkar/picknickbord"},"type":"Feature"}
 ,{"geometry":{"coordinates":[18.037104,59.151866,0.0],"type":"Point"},"id":"friluftsliv.141","properties":{"andrad_av":null,"andrad_datum":null,"skapad_av":null,"skapad_datum":null,"typ":"Bänkar/picknickbord"},"type":"Feature"}
 ,{"geometry":{"coordinates":[18.047751,59.166204,0.0],"type":"Point"},"id":"friluftsliv.142","properties":{"andrad_av":null,"andrad_datum":null,"skapad_av":null,"skapad_datum":null,"typ":"Bänkar/picknickbord"},"type":"Feature"}
 ,{"geometry":{"coordinates":[18.034093,59.151277],"type":"Point"},"id":"friluftsliv.143","properties":{"andrad_av":"marwal02-0-004","andrad_datum":"2026-01-23T09:48:32.820","skapad_av":null,"skapad_datum":null,"typ":"Bänkar/picknickbord"},"type":"Feature"}
 ,{"geometry":{"coordinates":[17.911784,59.254223],"type":"Point"},"id":"friluftsliv.144","properties":{"andrad_av":"marwal02-0-004","andrad_datum":"2026-01-23T08:43:00.177","skapad_av":null,"skapad_datum":null,"typ":"Livräddningsutrustning"},"type":"Feature"}
 ,{"geometry":{"coordinates":[17.924221,59.25302],"type":"Point"},"id":"friluftsliv.145","properties":{"andrad_av":"marwal02-0-004","andrad_datum":"2026-01-23T09:03:12.810","skapad_av":null,"skapad_datum":null,"typ":"Livräddningsutrustning"},"type":"Feature"}
 ,{"geometry":{"coordinates":[17.925425,59.251851,0.0],"type":"Point"},"id":"friluftsliv.146","properties":{"andrad_av":null,"andrad_datum":null,"skapad_av":null,"skapad_datum":null,"typ":"Livräddningsutrustning"},"type":"Feature"}
 ,{"geometry":{"coordinates":[17.92329,59.252024,0.0],"type":"Point"},"id":"friluftsliv.147","properties":{"andrad_av":null,"andrad_datum":null,"skapad_av":null,"skapad_datum":null,"typ":"Livräddningsutrustning"},"type":"Feature"}
 ,{"geometry":{"coordinates":[17.921094,59.251997,0.0],"type":"Point"},"id":"friluftsliv.148","properties":{"andrad_av":null,"andrad_datum":null,"skapad_av":null,"skapad_datum":null,"typ":"Livräddningsutrustning"},"type":"Feature"}
 ,{"geometry":{"coordinates":[18.026203,59.193377,0.0],"type":"Point"},"id":"friluftsliv.149","properties":{"andrad_av":null,"andrad_datum":null,"skapad_av":null,"skapad_datum":null,"typ":"Livräddningsutrustning"},"type":"Feature"}
 ,{"geometry":{"coordinates":[18.025671,59.193545,0.0],"type":"Point"},"id":"friluftsliv.150","properties":{"andrad_av":null,"andrad_datum":null,"skapad_av":null,"skapad_datum":null,"typ":"Livräddningsutrustning"},"type":"Feature"}
 ,{"geometry":{"coordinates":[18.021925,59.195264,0.0],"type":"Point"},"id":"friluftsliv.151","properties":{"andrad_av":null,"andrad_datum":null,"skapad_av":null,"skapad_datum":null,"typ":"Livräddningsutrustning"},"type":"Feature"}
 ,{"geometry":{"coordinates":[18.02123,59.195983,0.0],"type":"Point"},"id":"friluftsliv.152","properties":{"andrad_av":null,"andrad_datum":null,"skapad_av":null,"skapad_datum":null,"typ":"Livräddningsutrustning"},"type":"Feature"}
 ,{"geometry":{"coordinates":[17.970129,59.216581,0.0],"type":"Point"},"id":"friluftsliv.153","properties":{"andrad_av":null,"andrad_datum":null,"skapad_av":null,"skapad_datum":null,"typ":"Livräddningsutrustning"},"type":"Feature"}
 ,{"geometry":{"coordinates":[17.971833,59.216737,0.0],"type":"Point"},"id":"friluftsliv.154","properties":{"andrad_av":null,"andrad_datum":null,"skapad_av":null,"skapad_datum":null,"typ":"Livräddningsutrustning"},"type":"Feature"}
 ,{"geometry":{"coordinates":[17.959074,59.214339,0.0],"type":"Point"},"id":"friluftsliv.155","properties":{"andrad_av":null,"andrad_datum":null,"skapad_av":null,"skapad_datum":null,"typ":"Livräddningsutrustning"},"type":"Feature"}
 ,{"geometry":{"coordinates":[18.02075,59.193598,0.0],"type":"Point"},"id":"friluftsliv.156","properties":{"andrad_av":null,"andrad_datum":null,"skapad_av":null,"skapad_datum":null,"typ":"Cykelställ"},"type":"Feature"}
 ,{"geometry":{"coordinates":[18.024025,59.191177,0.0],"type":"Point"},"id":"friluftsliv.157","properties":{"andrad_av":null,"andrad_datum":null,"skapad_av":null,"skapad_datum":null,"typ":"Cykelställ"},"type":"Feature"}
 ,{"geometry":{"coordinates":[18.022006,59.15457],"type":"Point"},"id":"friluftsliv.158","properties":{"andrad_av":"marwal02-0-004","andrad_datum":"2026-01-23T09:11:13.720","skapad_av":null,"skapad_datum":null,"typ":"Cykelställ "},"type":"Feature"}
 ,{"geometry":{"coordinates":[18.15835,59.228519],"type":"Point"},"id":"friluftsliv.159","properties":{"andrad_av":"svc_csmhud$","andrad_datum":"2023-06-19T09:15:41.127","skapad_av":null,"skapad_datum":null,"typ":"Cykelställ"},"type":"Feature"}
 ,{"geometry":{"coordinates":[18.036617,59.15037],"type":"Point"},"id":"friluftsliv.160","properties":{"andrad_av":"marwal02-0-004","andrad_datum":"2026-01-23T09:56:08.973","skapad_av":null,"skapad_datum":null,"typ":"Dass"},"type":"Feature"}
 ,{"geometry":{"coordinates":[18.023284,59.153965],"type":"Point"},"id":"friluftsliv.161","properties":{"andrad_av":"marwal02-0-004","andrad_datum":"2026-01-23T09:16:45.640","skapad_av":null,"skapad_datum":null,"typ":"Dass"},"type":"Feature"}
 ,{"geometry":{"coordinates":[18.076729,59.220782],"type":"Point"},"id":"friluftsliv.164","properties":{"andrad_av":"marwal02-0-004","andrad_datum":"2025-11-10T09:22:00.790","skapad_av":null,"skapad_datum":null,"typ":"Fågeltorn"},"type":"Feature"}
 ,{"geometry":{"coordinates":[18.072535,59.176705],"type":"Point"},"id":"friluftsliv.165","properties":{"andrad_av":"marwal02-0-004","andrad_datum":"2025-11-10T09:22:22.590","skapad_av":null,"skapad_datum":null,"typ":"Fågeltorn"},"type":"Feature"}
 ,{"geometry":{"coordinates":[18.081348,59.175686,0.0],"type":"Point"},"id":"friluftsliv.166","properties":{"andrad_av":null,"andrad_datum":null,"skapad_av":null,"skapad_datum":null,"typ":"Friluftskällor"},"type":"Feature"}
 ,{"geometry":{"coordinates":[18.055985,59.21431,0.0],"type":"Point"},"id":"friluftsliv.167","properties":{"andrad_av":null,"andrad_datum":null,"skapad_av":null,"skapad_datum":null,"typ":"Friluftskällor"},"type":"Feature"}
 ,{"geometry":{"coordinates":[17.98404,59.22829,0.0],"type":"Point"},"id":"friluftsliv.168","properties":{"andrad_av":null,"andrad_datum":null,"skapad_av":null,"skapad_datum":null,"typ":"Friluftskällor"},"type":"Feature"}
 ,{"geometry":{"coordinates":[18.069647,59.18801,0.0],"type":"Point"},"id":"friluftsliv.169","properties":{"andrad_av":null,"andrad_datum":null,"skapad_av":null,"skapad_datum":null,"typ":"Friluftskällor"},"type":"Feature"}
 ,{"geometry":{"coordinates":[17.966413,59.207411,0.0],"type":"Point"},"id":"friluftsliv.170","properties":{"andrad_av":null,"andrad_datum":null,"skapad_av":null,"skapad_datum":null,"typ":"Friluftskällor"},"type":"Feature"}
 ,{"geometry":{"coordinates":[18.04783,59.166102,0.0],"type":"Point"},"id":"friluftsliv.171","properties":{"andrad_av":null,"andrad_datum":null,"skapad_av":null,"skapad_datum":null,"typ":"Friluftskällor"},"type":"Feature"}
 ,{"geometry":{"coordinates":[18.02231,59.153959],"type":"Point"},"id":"friluftsliv.172","properties":{"andrad_av":"marwal02-0-004","andrad_datum":"2026-01-23T09:17:15.410","skapad_av":null,"skapad_datum":null,"typ":"Friluftskällor"},"type":"Feature"}
 ,{"geometry":{"coordinates":[18.024857,59.154659,0.0],"type":"Point"},"id":"friluftsliv.173","properties":{"andrad_av":null,"andrad_datum":null,"skapad_av":null,"skapad_datum":null,"typ":"Friluftskällor"},"type":"Feature"}
 ,{"geometry":{"coordinates":[18.035443,59.143871],"type":"Point"},"id":"friluftsliv.174","properties":{"andrad_av":"svc_csmhud$","andrad_datum":"2024-05-29T13:01:37.540","skapad_av":null,"skapad_datum":null,"typ":"Grillplats"},"type":"Feature"}
 ,{"geometry":{"coordinates":[18.035264,59.150302],"type":"Point"},"id":"friluftsliv.175","properties":{"andrad_av":"marwal02-0-004","andrad_datum":"2026-01-23T13:52:34.120","skapad_av":null,"skapad_datum":null,"typ":"Grillplats"},"type":"Feature"}
 ,{"geometry":{"coordinates":[18.037209,59.151962],"type":"Point"},"id":"friluftsliv.176","properties":{"andrad_av":"marwal02-0-004","andrad_datum":"2026-01-23T13:50:50.057","skapad_av":null,"skapad_datum":null,"typ":"Grillplats"},"type":"Feature"}
 ,{"geometry":{"coordinates":[18.034228,59.151545],"type":"Point"},"id":"friluftsliv.177","properties":{"andrad_av":"marwal02-0-004","andrad_datum":"2026-01-23T13:51:09.593","skapad_av":null,"skapad_datum":null,"typ":"Grillplats"},"type":"Feature"}
 ,{"geometry":{"coordinates":[18.022759,59.153888],"type":"Point"},"id":"friluftsliv.178","properties":{"andrad_av":"marwal02-0-004","andrad_datum":"2026-01-23T09:17:28.457","skapad_av":null,"skapad_datum":null,"typ":"Grillplats"},"type":"Feature"}
 ,{"geometry":{"coordinates":[18.032169,59.201152,0.0],"type":"Point"},"id":"friluftsliv.179","properties":{"andrad_av":null,"andrad_datum":null,"skapad_av":null,"skapad_datum":null,"typ":"Grillplats"},"type":"Feature"}
 ,{"geometry":{"coordinates":[18.022217,59.196732],"type":"Point"},"id":"friluftsliv.180","properties":{"andrad_av":"marwal02-0-004","andrad_datum":"2026-01-22T10:56:41.763","skapad_av":null,"skapad_datum":null,"typ":"Grillplats"},"type":"Feature"}
 ,{"geometry":{"coordinates":[18.072308,59.189335],"type":"Point"},"id":"friluftsliv.181","properties":{"andrad_av":"marwal02-0-004","andrad_datum":"2026-01-23T08:36:39.043","skapad_av":null,"skapad_datum":null,"typ":"Grillplats"},"type":"Feature"}
 ,{"geometry":{"coordinates":[18.022188,59.194877],"type":"Point"},"id":"friluftsliv.182","properties":{"andrad_av":"marwal02-0-004","andrad_datum":"2026-01-22T13:50:49.447","skapad_av":null,"skapad_datum":null,"typ":"Grillplats"},"type":"Feature"}
 ,{"geometry":{"coordinates":[18.024973,59.194001],"type":"Point"},"id":"friluftsliv.183","properties":{"andrad_av":"marwal02-0-004","andrad_datum":"2026-01-22T14:07:03.630","skapad_av":null,"skapad_datum":null,"typ":"Grillplats"},"type":"Feature"}
 ,{"geometry":{"coordinates":[17.966378,59.207766],"type":"Point"},"id":"friluftsliv.184","properties":{"andrad_av":"svc_csmhud$","andrad_datum":"2024-05-29T12:55:31.620","skapad_av":null,"skapad_datum":null,"typ":"Grillplats"},"type":"Feature"}
 ,{"geometry":{"coordinates":[18.047796,59.165594],"type":"Point"},"id":"friluftsliv.185","properties":{"andrad_av":"svc_csmhud$","andrad_datum":"2024-05-29T12:58:12.033","skapad_av":null,"skapad_datum":null,"typ":"Grillplats"},"type":"Feature"}
 ,{"geometry":{"coordinates":[18.023291,59.153404],"type":"Point"},"id":"friluftsliv.186","properties":{"andrad_av":"svc_csmhud$","andrad_datum":"2024-05-29T12:59:04.370","skapad_av":null,"skapad_datum":null,"typ":"Grillplats"},"type":"Feature"}
 ,{"geometry":{"coordinates":[17.911649,59.254286],"type":"Point"},"id":"friluftsliv.187","properties":{"andrad_av":"marwal02-0-004","andrad_datum":"2026-01-23T08:44:11.837","skapad_av":null,"skapad_datum":null,"typ":"Grillplats"},"type":"Feature"}
 ,{"geometry":{"coordinates":[17.924713,59.253201],"type":"Point"},"id":"friluftsliv.188","properties":{"andrad_av":"marwal02-0-004","andrad_datum":"2026-01-23T09:02:10.893","skapad_av":null,"skapad_datum":null,"typ":"Grillplats"},"type":"Feature"}
 ,{"geometry":{"coordinates":[17.944231,59.22694],"type":"Point"},"id":"friluftsliv.190","properties":{"andrad_av":"svc_csmhud$","andrad_datum":"2023-06-19T09:08:03.447","skapad_av":null,"skapad_datum":null,"typ":"Grillplats"},"type":"Feature"}
 ,{"geometry":{"coordinates":[17.936237,59.268615],"type":"Point"},"id":"friluftsliv.193","properties":{"andrad_av":"svc_csmhud$","andrad_datum":"2024-05-29T12:55:59.513","skapad_av":null,"skapad_datum":null,"typ":"Grillplats"},"type":"Feature"}
 ,{"geometry":{"coordinates":[18.036596,59.150055],"type":"Point"},"id":"friluftsliv.196","properties":{"andrad_av":"marwal02-0-004","andrad_datum":"2026-01-23T13:53:59.947","skapad_av":null,"skapad_datum":null,"typ":"Grillplats"},"type":"Feature"}
 ,{"geometry":{"coordinates":[18.047801,59.166244],"type":"Point"},"id":"friluftsliv.197","properties":{"andrad_av":"svc_csmhud$","andrad_datum":"2024-05-29T13:00:52.957","skapad_av":null,"skapad_datum":null,"typ":"Grillplats"},"type":"Feature"}
 ,{"geometry":{"coordinates":[17.943709,59.267732,0.0],"type":"Point"},"id":"friluftsliv.200","properties":{"andrad_av":null,"andrad_datum":null,"skapad_av":null,"skapad_datum":null,"typ":"Reservatsentreer"},"type":"Feature"}
 ,{"geometry":{"coordinates":[17.947918,59.255078,0.0],"type":"Point"},"id":"friluftsliv.201","properties":{"andrad_av":null,"andrad_datum":null,"skapad_av":null,"skapad_datum":null,"typ":"Reservatsentreer"},"type":"Feature"}
 ,{"geometry":{"coordinates":[17.93112,59.264242,0.0],"type":"Point"},"id":"friluftsliv.202","properties":{"andrad_av":null,"andrad_datum":null,"skapad_av":null,"skapad_datum":null,"typ":"Reservatsentreer"},"type":"Feature"}
 ,{"geometry":{"coordinates":[17.925022,59.251452,0.0],"type":"Point"},"id":"friluftsliv.203","properties":{"andrad_av":null,"andrad_datum":null,"skapad_av":null,"skapad_datum":null,"typ":"Reservatsentreer"},"type":"Feature"}
 ,{"geometry":{"coordinates":[18.15857,59.228433,0.0],"type":"Point"},"id":"friluftsliv.204","properties":{"andrad_av":null,"andrad_datum":null,"skapad_av":null,"skapad_datum":null,"typ":"Reservatsentreer"},"type":"Feature"}
 ,{"geometry":{"coordinates":[17.873364,59.266784,0.0],"type":"Point"},"id":"friluftsliv.205","properties":{"andrad_av":null,"andrad_datum":null,"skapad_av":null,"skapad_datum":null,"typ":"Reservatsentreer"},"type":"Feature"}
 ,{"geometry":{"coordinates":[17.959326,59.214632,0.0],"type":"Point"},"id":"friluftsliv.206","properties":{"andrad_av":null,"andrad_datum":null,"skapad_av":null,"skapad_datum":null,"typ":"Reservatsentreer"},"type":"Feature"}
 ,{"geometry":{"coordinates":[17.977404,59.223173,0.0],"type":"Point"},"id":"friluftsliv.207","properties":{"andrad_av":null,"andrad_datum":null,"skapad_av":null,"skapad_datum":null,"typ":"Reservatsentreer"},"type":"Feature"}
 ,{"geometry":{"coordinates":[17.990577,59.196549,0.0],"type":"Point"},"id":"friluftsliv.208","properties":{"andrad_av":null,"andrad_datum":null,"skapad_av":null,"skapad_datum":null,"typ":"Reservatsentreer"},"type":"Feature"}
 ,{"geometry":{"coordinates":[18.078962,59.204199,0.0],"type":"Point"},"id":"friluftsliv.209","properties":{"andrad_av":null,"andrad_datum":null,"skapad_av":null,"skapad_datum":null,"typ":"Reservatsentreer"},"type":"Feature"}
 ,{"geometry":{"coordinates":[18.0218,59.154423,0.0],"type":"Point"},"id":"friluftsliv.210","properties":{"andrad_av":null,"andrad_datum":null,"skapad_av":null,"skapad_datum":null,"typ":"Reservatsentreer"},"type":"Feature"}
 ,{"geometry":{"coordinates":[18.047384,59.165432,0.0],"type":"Point"},"id":"friluftsliv.211","properties":{"andrad_av":null,"andrad_datum":null,"skapad_av":null,"skapad_datum":null,"typ":"Reservatsentreer"},"type":"Feature"}
 ,{"geometry":{"coordinates":[18.016099,59.201249,0.0],"type":"Point"},"id":"friluftsliv.212","properties":{"andrad_av":null,"andrad_datum":null,"skapad_av":null,"skapad_datum":null,"typ":"Reservatsentreer"},"type":"Feature"}
 ,{"geometry":{"coordinates":[17.993256,59.186542,0.0],"type":"Point"},"id":"friluftsliv.213","properties":{"andrad_av":null,"andrad_datum":null,"skapad_av":null,"skapad_datum":null,"typ":"Reservatsentreer"},"type":"Feature"}
 ,{"geometry":{"coordinates":[18.020958,59.193514,0.0],"type":"Point"},"id":"friluftsliv.214","properties":{"andrad_av":null,"andrad_datum":null,"skapad_av":null,"skapad_datum":null,"typ":"Reservatsentreer"},"type":"Feature"}
 ,{"geometry":{"coordinates":[18.072677,59.174355,0.0],"type":"Point"},"id":"friluftsliv.215","properties":{"andrad_av":null,"andrad_datum":null,"skapad_av":null,"skapad_datum":null,"typ":"Reservatsentreer"},"type":"Feature"}
 ,{"geometry":{"coordinates":[18.036116,59.18352,0.0],"type":"Point"},"id":"friluftsliv.216","properties":{"andrad_av":null,"andrad_datum":null,"skapad_av":null,"skapad_datum":null,"typ":"Reservatsentreer"},"type":"Feature"}
 ,{"geometry":{"coordinates":[18.157909,59.234015,0.0],"type":"Point"},"id":"friluftsliv.217","properties":{"andrad_av":null,"andrad_datum":null,"skapad_av":null,"skapad_datum":null,"typ":"Reservatsentreer"},"type":"Feature"}
 ,{"geometry":{"coordinates":[17.884084,59.24368],"type":"Point"},"id":"friluftsliv.218","properties":{"andrad_av":"svc_csmhud$","andrad_datum":"2023-06-19T09:01:40.247","skapad_av":null,"skapad_datum":null,"typ":"Reservatsentreer"},"type":"Feature"}
 ,{"geometry":{"coordinates":[18.08103,59.220336,0.0],"type":"Point"},"id":"friluftsliv.219","properties":{"andrad_av":null,"andrad_datum":null,"skapad_av":null,"skapad_datum":null,"typ":"Reservatsentreer"},"type":"Feature"}
 ,{"geometry":{"coordinates":[17.990538,59.196534,0.0],"type":"Point"},"id":"friluftsliv.220","properties":{"andrad_av":null,"andrad_datum":null,"skapad_av":null,"skapad_datum":null,"typ":"Reservatsentreer"},"type":"Feature"}
 ,{"geometry":{"coordinates":[18.097023,59.186433],"type":"Point"},"id":"friluftsliv.221","properties":{"andrad_av":"svc_csmhud$","andrad_datum":"2023-06-19T09:04:44.270","skapad_av":null,"skapad_datum":null,"typ":"Reservatsentreer"},"type":"Feature"}
 ,{"geometry":{"coordinates":[18.044845,59.209478,0.0],"type":"Point"},"id":"friluftsliv.222","properties":{"andrad_av":null,"andrad_datum":null,"skapad_av":null,"skapad_datum":null,"typ":"Reservatsentreer"},"type":"Feature"}
 ,{"geometry":{"coordinates":[18.02095,59.193543],"type":"Point"},"id":"friluftsliv.223","properties":{"andrad_av":null,"andrad_datum":null,"skapad_av":null,"skapad_datum":null,"typ":"Soptunnor"},"type":"Feature"}
 ,{"geometry":{"coordinates":[18.024065,59.191149],"type":"Point"},"id":"friluftsliv.224","properties":{"andrad_av":"marwal02-0-004","andrad_datum":"2026-01-22T14:14:39.850","skapad_av":null,"skapad_datum":null,"typ":"Soptunnor"},"type":"Feature"}
 ,{"geometry":{"coordinates":[18.023439,59.191737],"type":"Point"},"id":"friluftsliv.225","properties":{"andrad_av":"marwal02-0-004","andrad_datum":"2026-01-22T14:13:45.157","skapad_av":null,"skapad_datum":null,"typ":"Soptunnor"},"type":"Feature"}
 ,{"geometry":{"coordinates":[18.024028,59.191155],"type":"Point"},"id":"friluftsliv.226","properties":{"andrad_av":"marwal02-0-004","andrad_datum":"2026-01-22T14:14:28.480","skapad_av":null,"skapad_datum":null,"typ":"Soptunnor"},"type":"Feature"}
 ,{"geometry":{"coordinates":[18.020881,59.193548],"type":"Point"},"id":"friluftsliv.227","properties":{"andrad_av":"marwal02-0-004","andrad_datum":"2026-01-22T13:52:55.920","skapad_av":null,"skapad_datum":null,"typ":"Soptunnor"},"type":"Feature"}
 ,{"geometry":{"coordinates":[18.035623,59.183576],"type":"Point"},"id":"friluftsliv.228","properties":{"andrad_av":null,"andrad_datum":null,"skapad_av":null,"skapad_datum":null,"typ":"Soptunnor"},"type":"Feature"}
 ,{"geometry":{"coordinates":[18.032185,59.201162],"type":"Point"},"id":"friluftsliv.229","properties":{"andrad_av":null,"andrad_datum":null,"skapad_av":null,"skapad_datum":null,"typ":"Soptunnor"},"type":"Feature"}
 ,{"geometry":{"coordinates":[17.977427,59.223159],"type":"Point"},"id":"friluftsliv.230","properties":{"andrad_av":"svc_csmhud$","andrad_datum":"2023-06-19T08:57:55.023","skapad_av":null,"skapad_datum":null,"typ":"Soptunnor"},"type":"Feature"}
 ,{"geometry":{"coordinates":[18.021888,59.154627],"type":"Point"},"id":"friluftsliv.231","properties":{"andrad_av":"marwal02-0-004","andrad_datum":"2026-05-06T14:37:24.760","skapad_av":null,"skapad_datum":null,"typ":"Soptunnor"},"type":"Feature"}
 ,{"geometry":{"coordinates":[18.047733,59.1656],"type":"Point"},"id":"friluftsliv.235","properties":{"andrad_av":"marwal02-0-004","andrad_datum":"2024-09-10T14:59:35.653","skapad_av":null,"skapad_datum":null,"typ":"Soptunnor"},"type":"Feature"}
 ,{"geometry":{"coordinates":[17.92363,59.25111],"type":"Point"},"id":"friluftsliv.239","properties":{"andrad_av":null,"andrad_datum":null,"skapad_av":null,"skapad_datum":null,"typ":"Soptunnor"},"type":"Feature"}
 ,{"geometry":{"coordinates":[17.90989,59.253841],"type":"Point"},"id":"friluftsliv.241","properties":{"andrad_av":"marwal02-0-004","andrad_datum":"2024-09-10T15:00:02.310","skapad_av":null,"skapad_datum":null,"typ":"Soptunnor"},"type":"Feature"}
 ,{"geometry":{"coordinates":[17.947878,59.255055],"type":"Point"},"id":"friluftsliv.242","properties":{"andrad_av":"marwal02-0-004","andrad_datum":"2026-01-23T13:34:57.837","skapad_av":null,"skapad_datum":null,"typ":"Soptunnor"},"type":"Feature"}
 ,{"geometry":{"coordinates":[17.931102,59.264234],"type":"Point"},"id":"friluftsliv.244","properties":{"andrad_av":"marwal02-0-004","andrad_datum":"2026-01-23T13:34:22.277","skapad_av":null,"skapad_datum":null,"typ":"Soptunnor"},"type":"Feature"}
 ,{"geometry":{"coordinates":[17.943751,59.267766],"type":"Point"},"id":"friluftsliv.245","properties":{"andrad_av":"marwal02-0-004","andrad_datum":"2026-01-23T13:35:33.277","skapad_av":null,"skapad_datum":null,"typ":"Soptunnor"},"type":"Feature"}
 ,{"geometry":{"coordinates":[17.938482,59.259647],"type":"Point"},"id":"friluftsliv.246","properties":{"andrad_av":"marwal02-0-004","andrad_datum":"2026-01-23T14:10:09.903","skapad_av":null,"skapad_datum":null,"typ":"Soptunnor"},"type":"Feature"}
 ,{"geometry":{"coordinates":[18.022925,59.153861],"type":"Point"},"id":"friluftsliv.247","properties":{"andrad_av":null,"andrad_datum":null,"skapad_av":null,"skapad_datum":null,"typ":"Soptunnor"},"type":"Feature"}
 ,{"geometry":{"coordinates":[17.873366,59.266782],"type":"Point"},"id":"friluftsliv.248","properties":{"andrad_av":null,"andrad_datum":null,"skapad_av":null,"skapad_datum":null,"typ":"Soptunnor"},"type":"Feature"}
 ,{"geometry":{"coordinates":[17.872068,59.266952],"type":"Point"},"id":"friluftsliv.249","properties":{"andrad_av":null,"andrad_datum":null,"skapad_av":null,"skapad_datum":null,"typ":"Soptunnor"},"type":"Feature"}
 ,{"geometry":{"coordinates":[17.884428,59.243732],"type":"Point"},"id":"friluftsliv.250","properties":{"andrad_av":null,"andrad_datum":null,"skapad_av":null,"skapad_datum":null,"typ":"Soptunnor"},"type":"Feature"}
 ,{"geometry":{"coordinates":[18.073393,59.175619],"type":"Point"},"id":"friluftsliv.252","properties":{"andrad_av":"marwal02-0-004","andrad_datum":"2026-01-23T13:48:28.387","skapad_av":null,"skapad_datum":null,"typ":"Soptunnor"},"type":"Feature"}
 ,{"geometry":{"coordinates":[18.096994,59.186427],"type":"Point"},"id":"friluftsliv.253","properties":{"andrad_av":"marwal02-0-004","andrad_datum":"2026-01-23T13:47:57.867","skapad_av":null,"skapad_datum":null,"typ":"Soptunnor"},"type":"Feature"}
 ,{"geometry":{"coordinates":[18.150993,59.201228],"type":"Point"},"id":"friluftsliv.254","properties":{"andrad_av":"marwal02-0-004","andrad_datum":"2026-01-23T13:48:55.910","skapad_av":null,"skapad_datum":null,"typ":"Soptunnor"},"type":"Feature"}
 ,{"geometry":{"coordinates":[18.158564,59.228395],"type":"Point"},"id":"friluftsliv.255","properties":{"andrad_av":"marwal02-0-004","andrad_datum":"2026-01-23T13:46:31.743","skapad_av":null,"skapad_datum":null,"typ":"Soptunnor"},"type":"Feature"}
 ,{"geometry":{"coordinates":[18.14368,59.200043],"type":"Point"},"id":"friluftsliv.256","properties":{"andrad_av":"marwal02-0-004","andrad_datum":"2026-01-23T13:45:46.830","skapad_av":null,"skapad_datum":null,"typ":"Soptunnor"},"type":"Feature"}
 ,{"geometry":{"coordinates":[18.032175,59.201156],"type":"Point"},"id":"friluftsliv.257","properties":{"andrad_av":"marwal02-0-004","andrad_datum":"2025-11-10T08:19:27.183","skapad_av":null,"skapad_datum":null,"typ":"Ved"},"type":"Feature"}
 ,{"geometry":{"coordinates":[18.022199,59.19675],"type":"Point"},"id":"friluftsliv.258","properties":{"andrad_av":"marwal02-0-004","andrad_datum":"2026-01-22T10:54:58.147","skapad_av":null,"skapad_datum":null,"typ":"Ved"},"type":"Feature"}
 ,{"geometry":{"coordinates":[18.047776,59.165627],"type":"Point"},"id":"friluftsliv.259","properties":{"andrad_av":"svc_csmhud$","andrad_datum":"2024-05-29T13:05:33.210","skapad_av":null,"skapad_datum":null,"typ":"Ved"},"type":"Feature"}
 ,{"geometry":{"coordinates":[18.03724,59.151987],"type":"Point"},"id":"friluftsliv.260","properties":{"andrad_av":"marwal02-0-004","andrad_datum":"2026-01-22T14:48:45.733","skapad_av":null,"skapad_datum":null,"typ":"Ved"},"type":"Feature"}
 ,{"geometry":{"coordinates":[18.037218,59.151986],"type":"Point"},"id":"friluftsliv.261","properties":{"andrad_av":"marwal02-0-004","andrad_datum":"2026-01-22T14:49:08.290","skapad_av":null,"skapad_datum":null,"typ":"Ved"},"type":"Feature"}
 ,{"geometry":{"coordinates":[18.038205,59.150578],"type":"Point"},"id":"friluftsliv.262","properties":{"andrad_av":"marwal02-0-004","andrad_datum":"2026-01-22T14:36:42.797","skapad_av":null,"skapad_datum":null,"typ":"Ved"},"type":"Feature"}
 ,{"geometry":{"coordinates":[18.037258,59.146762],"type":"Point"},"id":"friluftsliv.263","properties":{"andrad_av":"marwal02-0-004","andrad_datum":"2026-01-23T13:42:34.377","skapad_av":null,"skapad_datum":null,"typ":"Ved"},"type":"Feature"}
 ,{"geometry":{"coordinates":[18.02325,59.153365],"type":"Point"},"id":"friluftsliv.264","properties":{"andrad_av":"svc_csmhud$","andrad_datum":"2024-05-29T13:04:04.347","skapad_av":null,"skapad_datum":null,"typ":"Ved"},"type":"Feature"}
 ,{"geometry":{"coordinates":[18.022885,59.153852],"type":"Point"},"id":"friluftsliv.265","properties":{"andrad_av":"svc_csmhud$","andrad_datum":"2024-05-29T13:07:54.927","skapad_av":null,"skapad_datum":null,"typ":"Ved"},"type":"Feature"}
 ,{"geometry":{"coordinates":[17.966423,59.207809],"type":"Point"},"id":"friluftsliv.266","properties":{"andrad_av":"svc_csmhud$","andrad_datum":"2024-05-29T13:11:37.693","skapad_av":null,"skapad_datum":null,"typ":"Ved"},"type":"Feature"}
 ,{"geometry":{"coordinates":[17.911672,59.25429],"type":"Point"},"id":"friluftsliv.267","properties":{"andrad_av":"marwal02-0-004","andrad_datum":"2026-01-23T08:43:21.200","skapad_av":null,"skapad_datum":null,"typ":"Ved"},"type":"Feature"}
 ,{"geometry":{"coordinates":[17.924263,59.253097],"type":"Point"},"id":"friluftsliv.268","properties":{"andrad_av":"marwal02-0-004","andrad_datum":"2026-01-23T09:02:31.250","skapad_av":null,"skapad_datum":null,"typ":"Ved"},"type":"Feature"}
 ,{"geometry":{"coordinates":[17.936334,59.268654],"type":"Point"},"id":"friluftsliv.269","properties":{"andrad_av":"svc_csmhud$","andrad_datum":"2024-05-29T13:10:42.430","skapad_av":null,"skapad_datum":null,"typ":"Ved"},"type":"Feature"}
 ,{"geometry":{"coordinates":[18.022326,59.1948],"type":"Point"},"id":"friluftsliv.271","properties":{"andrad_av":"marwal02-0-004","andrad_datum":"2026-01-22T13:50:30.450","skapad_av":null,"skapad_datum":null,"typ":"Ved"},"type":"Feature"}
 ,{"geometry":{"coordinates":[18.02493,59.193983],"type":"Point"},"id":"friluftsliv.272","properties":{"andrad_av":"marwal02-0-004","andrad_datum":"2026-01-22T14:04:28.083","skapad_av":null,"skapad_datum":null,"typ":"Ved"},"type":"Feature"}
 ,{"geometry":{"coordinates":[17.91164,59.25431],"type":"Point"},"id":"friluftsliv.273","properties":{"andrad_av":"marwal02-0-004","andrad_datum":"2026-01-23T08:43:43.367","skapad_av":null,"skapad_datum":null,"typ":"Vindskydd/koja"},"type":"Feature"}
 ,{"geometry":{"coordinates":[17.924234,59.253101],"type":"Point"},"id":"friluftsliv.274","properties":{"andrad_av":"marwal02-0-004","andrad_datum":"2026-01-23T09:02:50.937","skapad_av":null,"skapad_datum":null,"typ":"Vindskydd/koja"},"type":"Feature"}
 ,{"geometry":{"coordinates":[18.032185,59.201152],"type":"Point"},"id":"friluftsliv.275","properties":{"andrad_av":"svc_csmhud$","andrad_datum":"2024-05-29T13:13:58.910","skapad_av":null,"skapad_datum":null,"typ":"Vindskydd/koja"},"type":"Feature"}
 ,{"geometry":{"coordinates":[18.024936,59.194006],"type":"Point"},"id":"friluftsliv.276","properties":{"andrad_av":"marwal02-0-004","andrad_datum":"2026-01-22T14:06:10.593","skapad_av":null,"skapad_datum":null,"typ":"Vindskydd/koja"},"type":"Feature"}
 ,{"geometry":{"coordinates":[18.035388,59.150305],"type":"Point"},"id":"friluftsliv.277","properties":{"andrad_av":"marwal02-0-004","andrad_datum":"2026-01-23T13:53:24.017","skapad_av":null,"skapad_datum":null,"typ":"Vindskydd/koja"},"type":"Feature"}
 ,{"geometry":{"coordinates":[18.036833,59.150103],"type":"Point"},"id":"friluftsliv.278","properties":{"andrad_av":"svc_csmhud$","andrad_datum":"2024-05-29T13:13:28.883","skapad_av":null,"skapad_datum":null,"typ":"Vindskydd/koja"},"type":"Feature"}
 ,{"geometry":{"coordinates":[18.023316,59.153375],"type":"Point"},"id":"friluftsliv.279","properties":{"andrad_av":"svc_csmhud$","andrad_datum":"2024-05-29T13:14:57.827","skapad_av":null,"skapad_datum":null,"typ":"Vindskydd/koja"},"type":"Feature"}
 ,{"geometry":{"coordinates":[18.035067,59.143918],"type":"Point"},"id":"friluftsliv.280","properties":{"andrad_av":"svc_csmhud$","andrad_datum":"2024-05-29T13:18:40.820","skapad_av":null,"skapad_datum":null,"typ":"Vindskydd/koja"},"type":"Feature"}
 ,{"geometry":{"coordinates":[18.022299,59.196728],"type":"Point"},"id":"friluftsliv.281","properties":{"andrad_av":"marwal02-0-004","andrad_datum":"2026-01-22T10:55:23.247","skapad_av":null,"skapad_datum":null,"typ":"Vindskydd/koja"},"type":"Feature"}
 ,{"geometry":{"coordinates":[17.936358,59.268642],"type":"Point"},"id":"friluftsliv.282","properties":{"andrad_av":"marwal02-0-004","andrad_datum":"2026-01-23T13:40:24.917","skapad_av":null,"skapad_datum":null,"typ":"Vindskydd/koja"},"type":"Feature"}
 ,{"geometry":{"coordinates":[18.034169,59.151343],"type":"Point"},"id":"friluftsliv.283","properties":{"andrad_av":"marwal02-0-004","andrad_datum":"2026-01-23T13:52:00.357","skapad_av":null,"skapad_datum":null,"typ":"Vindskydd/koja"},"type":"Feature"}
 ,{"geometry":{"coordinates":[18.03568,59.183482,0.0],"type":"Point"},"id":"friluftsliv.284","properties":{"andrad_av":null,"andrad_datum":null,"skapad_av":null,"skapad_datum":null,"typ":"Reservatsportaler"},"type":"Feature"}
 ,{"geometry":{"coordinates":[18.074076,59.17552,0.0],"type":"Point"},"id":"friluftsliv.285","properties":{"andrad_av":null,"andrad_datum":null,"skapad_av":null,"skapad_datum":null,"typ":"Reservatsportaler"},"type":"Feature"}
 ,{"geometry":{"coordinates":[17.884333,59.243791],"type":"Point"},"id":"friluftsliv.286","properties":{"andrad_av":"svc_csmhud$","andrad_datum":"2023-06-19T09:05:14.110","skapad_av":null,"skapad_datum":null,"typ":"Reservatsportaler"},"type":"Feature"}
 ,{"geometry":{"coordinates":[17.873571,59.266708],"type":"Point"},"id":"friluftsliv.287","properties":{"andrad_av":"svc_csmhud$","andrad_datum":"2023-06-19T09:03:04.103","skapad_av":null,"skapad_datum":null,"typ":"Reservatsportaler"},"type":"Feature"}
 ,{"geometry":{"coordinates":[17.944655,59.267936],"type":"Point"},"id":"friluftsliv.288","properties":{"andrad_av":"svc_csmhud$","andrad_datum":"2023-06-19T09:00:31.087","skapad_av":null,"skapad_datum":null,"typ":"Reservatsportaler"},"type":"Feature"}
 ,{"geometry":{"coordinates":[17.959151,59.214763],"type":"Point"},"id":"friluftsliv.289","properties":{"andrad_av":"svc_csmhud$","andrad_datum":"2023-06-19T08:57:21.100","skapad_av":null,"skapad_datum":null,"typ":"Reservatsportaler"},"type":"Feature"}
 ,{"geometry":{"coordinates":[18.023821,59.191159],"type":"Point"},"id":"friluftsliv.290","properties":{"andrad_av":"marwal02-0-004","andrad_datum":"2026-01-22T14:12:34.777","skapad_av":null,"skapad_datum":null,"typ":"Reservatsportaler"},"type":"Feature"}
 ,{"geometry":{"coordinates":[18.158604,59.228388],"type":"Point"},"id":"friluftsliv.291","properties":{"andrad_av":"svc_csmhud$","andrad_datum":"2023-06-19T09:16:52.160","skapad_av":null,"skapad_datum":null,"typ":"Reservatsportaler"},"type":"Feature"}
 ,{"geometry":{"coordinates":[18.157911,59.233917],"type":"Point"},"id":"friluftsliv.292","properties":{"andrad_av":"svc_csmhud$","andrad_datum":"2023-06-19T08:56:06.603","skapad_av":null,"skapad_datum":null,"typ":"Reservatsportaler"},"type":"Feature"}
 ,{"geometry":{"coordinates":[18.005849,59.195683],"type":"Point"},"id":"friluftsliv.293","properties":{"andrad_av":"svc_csmhud$","andrad_datum":"2023-06-19T08:59:25.490","skapad_av":null,"skapad_datum":null,"typ":"Reservatsportaler"},"type":"Feature"}
 ,{"geometry":{"coordinates":[17.993545,59.186312],"type":"Point"},"id":"friluftsliv.294","properties":{"andrad_av":"svc_csmhud$","andrad_datum":"2023-06-19T08:58:43.607","skapad_av":null,"skapad_datum":null,"typ":"Reservatsportaler"},"type":"Feature"}
 ,{"geometry":{"coordinates":[18.021795,59.154706],"type":"Point"},"id":"friluftsliv.295","properties":{"andrad_av":"svc_csmhud$","andrad_datum":"2023-06-19T09:14:49.600","skapad_av":null,"skapad_datum":null,"typ":"Reservatsportaler"},"type":"Feature"}
 ,{"geometry":{"coordinates":[18.096995,59.186433],"type":"Point"},"id":"friluftsliv.296","properties":{"andrad_av":"svc_csmhud$","andrad_datum":"2023-06-19T09:04:11.200","skapad_av":null,"skapad_datum":null,"typ":"Reservatsportaler"},"type":"Feature"}
 ,{"geometry":{"coordinates":[18.038231,59.150518],"type":"Point"},"id":"friluftsliv.297","properties":{"andrad_av":"marwal02-0-004","andrad_datum":"2026-01-22T14:36:32.293","skapad_av":null,"skapad_datum":null,"typ":"Ved"},"type":"Feature"}
 ,{"geometry":{"coordinates":[18.022154,59.196727],"type":"Point"},"id":"friluftsliv.299","properties":{"andrad_av":"marwal02-0-004","andrad_datum":"2026-01-22T10:57:11.847","skapad_av":null,"skapad_datum":null,"typ":"Bänkar/picknickbord"},"type":"Feature"}
 ,{"geometry":{"coordinates":[18.022117,59.196759],"type":"Point"},"id":"friluftsliv.300","properties":{"andrad_av":"marwal02-0-004","andrad_datum":"2026-01-22T10:56:27.480","skapad_av":null,"skapad_datum":null,"typ":"Soptunnor"},"type":"Feature"}
 ,{"geometry":{"coordinates":[17.962688,59.190068,0.0],"type":"Point"},"id":"friluftsliv.301","properties":{"andrad_av":null,"andrad_datum":null,"skapad_av":null,"skapad_datum":null,"typ":"Gruvhål"},"type":"Feature"}
 ,{"geometry":{"coordinates":[17.944122,59.191267,0.0],"type":"Point"},"id":"friluftsliv.302","properties":{"andrad_av":null,"andrad_datum":null,"skapad_av":null,"skapad_datum":null,"typ":"Gruvhål"},"type":"Feature"}
 ,{"geometry":{"coordinates":[17.961748,59.190058,0.0],"type":"Point"},"id":"friluftsliv.303","properties":{"andrad_av":null,"andrad_datum":null,"skapad_av":null,"skapad_datum":null,"typ":"Gruvhål"},"type":"Feature"}
 ,{"geometry":{"coordinates":[18.033567,59.202626,0.0],"type":"Point"},"id":"friluftsliv.304","properties":{"andrad_av":null,"andrad_datum":null,"skapad_av":null,"skapad_datum":null,"typ":"Jordkällare"},"type":"Feature"}
 ,{"geometry":{"coordinates":[18.072564,59.176341,0.0],"type":"Point"},"id":"friluftsliv.305","properties":{"andrad_av":null,"andrad_datum":null,"skapad_av":null,"skapad_datum":null,"typ":"Jordkällare"},"type":"Feature"}
 ,{"geometry":{"coordinates":[18.021622,59.231779,0.0],"type":"Point"},"id":"friluftsliv.306","properties":{"andrad_av":null,"andrad_datum":null,"skapad_av":null,"skapad_datum":null,"typ":"Jordkällare"},"type":"Feature"}
 ,{"geometry":{"coordinates":[18.019993,59.232292,0.0],"type":"Point"},"id":"friluftsliv.307","properties":{"andrad_av":null,"andrad_datum":null,"skapad_av":null,"skapad_datum":null,"typ":"Jordkällare"},"type":"Feature"}
 ,{"geometry":{"coordinates":[17.98202,59.203601,0.0],"type":"Point"},"id":"friluftsliv.308","properties":{"andrad_av":null,"andrad_datum":null,"skapad_av":null,"skapad_datum":null,"typ":"Jordkällare"},"type":"Feature"}
 ,{"geometry":{"coordinates":[18.021342,59.251812],"type":"Point"},"id":"friluftsliv.309","properties":{"andrad_av":"svc_csmhud$","andrad_datum":"2023-06-21T10:54:37.753","skapad_av":null,"skapad_datum":null,"typ":"Jordkällare"},"type":"Feature"}
 ,{"geometry":{"coordinates":[18.138454,59.200601,0.0],"type":"Point"},"id":"friluftsliv.310","properties":{"andrad_av":null,"andrad_datum":null,"skapad_av":null,"skapad_datum":null,"typ":"Jordkällare"},"type":"Feature"}
 ,{"geometry":{"coordinates":[17.870802,59.265378,0.0],"type":"Point"},"id":"friluftsliv.311","properties":{"andrad_av":null,"andrad_datum":null,"skapad_av":null,"skapad_datum":null,"typ":"Jordkällare"},"type":"Feature"}
 ,{"geometry":{"coordinates":[17.994736,59.186937],"type":"Point"},"id":"friluftsliv.312","properties":{"andrad_av":"svc_csmhud$","andrad_datum":"2023-06-21T10:55:36.990","skapad_av":null,"skapad_datum":null,"typ":"Jordkällare"},"type":"Feature"}
 ,{"geometry":{"coordinates":[17.981404,59.179152,0.0],"type":"Point"},"id":"friluftsliv.313","properties":{"andrad_av":null,"andrad_datum":null,"skapad_av":null,"skapad_datum":null,"typ":"Jordkällare"},"type":"Feature"}
 ,{"geometry":{"coordinates":[17.8842,59.243649],"type":"Point"},"id":"friluftsliv.314","properties":{"andrad_av":"svc_csmhud$","andrad_datum":"2023-06-19T09:47:02.870","skapad_av":null,"skapad_datum":null,"typ":"Parkeringsplats naturreservat"},"type":"Feature"}
 ,{"geometry":{"coordinates":[17.944087,59.267848,0.0],"type":"Point"},"id":"friluftsliv.315","properties":{"andrad_av":null,"andrad_datum":null,"skapad_av":null,"skapad_datum":null,"typ":"Parkeringsplats naturreservat"},"type":"Feature"}
 ,{"geometry":{"coordinates":[17.931112,59.264272,0.0],"type":"Point"},"id":"friluftsliv.316","properties":{"andrad_av":null,"andrad_datum":null,"skapad_av":null,"skapad_datum":null,"typ":"Parkeringsplats naturreservat"},"type":"Feature"}
 ,{"geometry":{"coordinates":[17.931594,59.264167,0.0],"type":"Point"},"id":"friluftsliv.317","properties":{"andrad_av":null,"andrad_datum":null,"skapad_av":null,"skapad_datum":null,"typ":"Parkeringsplats naturreservat"},"type":"Feature"}
 ,{"geometry":{"coordinates":[17.909674,59.253909,0.0],"type":"Point"},"id":"friluftsliv.318","properties":{"andrad_av":null,"andrad_datum":null,"skapad_av":null,"skapad_datum":null,"typ":"Parkeringsplats naturreservat"},"type":"Feature"}
 ,{"geometry":{"coordinates":[17.909898,59.252889,0.0],"type":"Point"},"id":"friluftsliv.319","properties":{"andrad_av":null,"andrad_datum":null,"skapad_av":null,"skapad_datum":null,"typ":"Parkeringsplats naturreservat"},"type":"Feature"}
 ,{"geometry":{"coordinates":[17.924714,59.251384,0.0],"type":"Point"},"id":"friluftsliv.320","properties":{"andrad_av":null,"andrad_datum":null,"skapad_av":null,"skapad_datum":null,"typ":"Parkeringsplats naturreservat"},"type":"Feature"}
 ,{"geometry":{"coordinates":[17.948005,59.255011,0.0],"type":"Point"},"id":"friluftsliv.321","properties":{"andrad_av":null,"andrad_datum":null,"skapad_av":null,"skapad_datum":null,"typ":"Parkeringsplats naturreservat"},"type":"Feature"}
 ,{"geometry":{"coordinates":[17.873476,59.266785,0.0],"type":"Point"},"id":"friluftsliv.322","properties":{"andrad_av":null,"andrad_datum":null,"skapad_av":null,"skapad_datum":null,"typ":"Parkeringsplats naturreservat"},"type":"Feature"}
 ,{"geometry":{"coordinates":[17.990653,59.196474],"type":"Point"},"id":"friluftsliv.324","properties":{"andrad_av":"svc_csmhud$","andrad_datum":"2023-06-19T09:44:50.620","skapad_av":null,"skapad_datum":null,"typ":"Parkeringsplats naturreservat"},"type":"Feature"}
 ,{"geometry":{"coordinates":[17.964451,59.191752],"type":"Point"},"id":"friluftsliv.325","properties":{"andrad_av":"svc_csmhud$","andrad_datum":"2023-06-19T09:46:22.697","skapad_av":null,"skapad_datum":null,"typ":"Parkeringsplats naturreservat"},"type":"Feature"}
 ,{"geometry":{"coordinates":[17.993534,59.186522,0.0],"type":"Point"},"id":"friluftsliv.326","properties":{"andrad_av":null,"andrad_datum":null,"skapad_av":null,"skapad_datum":null,"typ":"Parkeringsplats naturreservat"},"type":"Feature"}
 ,{"geometry":{"coordinates":[18.023936,59.191076,0.0],"type":"Point"},"id":"friluftsliv.327","properties":{"andrad_av":null,"andrad_datum":null,"skapad_av":null,"skapad_datum":null,"typ":"Parkeringsplats naturreservat"},"type":"Feature"}
 ,{"geometry":{"coordinates":[18.020831,59.193496,0.0],"type":"Point"},"id":"friluftsliv.328","properties":{"andrad_av":null,"andrad_datum":null,"skapad_av":null,"skapad_datum":null,"typ":"Parkeringsplats naturreservat"},"type":"Feature"}
 ,{"geometry":{"coordinates":[18.035946,59.183497,0.0],"type":"Point"},"id":"friluftsliv.329","properties":{"andrad_av":null,"andrad_datum":null,"skapad_av":null,"skapad_datum":null,"typ":"Parkeringsplats naturreservat"},"type":"Feature"}
 ,{"geometry":{"coordinates":[18.043029,59.186061],"type":"Point"},"id":"friluftsliv.330","properties":{"andrad_av":"svc_csmhud$","andrad_datum":"2023-06-19T09:47:22.417","skapad_av":null,"skapad_datum":null,"typ":"Parkeringsplats naturreservat"},"type":"Feature"}
 ,{"geometry":{"coordinates":[18.02914,59.208201,0.0],"type":"Point"},"id":"friluftsliv.331","properties":{"andrad_av":null,"andrad_datum":null,"skapad_av":null,"skapad_datum":null,"typ":"Parkeringsplats naturreservat"},"type":"Feature"}
 ,{"geometry":{"coordinates":[18.032645,59.206886,0.0],"type":"Point"},"id":"friluftsliv.332","properties":{"andrad_av":null,"andrad_datum":null,"skapad_av":null,"skapad_datum":null,"typ":"Parkeringsplats naturreservat"},"type":"Feature"}
 ,{"geometry":{"coordinates":[18.03955,59.208728,0.0],"type":"Point"},"id":"friluftsliv.333","properties":{"andrad_av":null,"andrad_datum":null,"skapad_av":null,"skapad_datum":null,"typ":"Parkeringsplats naturreservat"},"type":"Feature"}
 ,{"geometry":{"coordinates":[18.044827,59.209622,0.0],"type":"Point"},"id":"friluftsliv.334","properties":{"andrad_av":null,"andrad_datum":null,"skapad_av":null,"skapad_datum":null,"typ":"Parkeringsplats naturreservat"},"type":"Feature"}
 ,{"geometry":{"coordinates":[18.02164,59.154513,0.0],"type":"Point"},"id":"friluftsliv.335","properties":{"andrad_av":null,"andrad_datum":null,"skapad_av":null,"skapad_datum":null,"typ":"Parkeringsplats naturreservat"},"type":"Feature"}
 ,{"geometry":{"coordinates":[18.047486,59.165519,0.0],"type":"Point"},"id":"friluftsliv.336","properties":{"andrad_av":null,"andrad_datum":null,"skapad_av":null,"skapad_datum":null,"typ":"Parkeringsplats naturreservat"},"type":"Feature"}
 ,{"geometry":{"coordinates":[18.070476,59.162293,0.0],"type":"Point"},"id":"friluftsliv.337","properties":{"andrad_av":null,"andrad_datum":null,"skapad_av":null,"skapad_datum":null,"typ":"Parkeringsplats naturreservat"},"type":"Feature"}
 ,{"geometry":{"coordinates":[18.071014,59.163236,0.0],"type":"Point"},"id":"friluftsliv.338","properties":{"andrad_av":null,"andrad_datum":null,"skapad_av":null,"skapad_datum":null,"typ":"Parkeringsplats naturreservat"},"type":"Feature"}
 ,{"geometry":{"coordinates":[18.068009,59.171441,0.0],"type":"Point"},"id":"friluftsliv.339","properties":{"andrad_av":null,"andrad_datum":null,"skapad_av":null,"skapad_datum":null,"typ":"Parkeringsplats naturreservat"},"type":"Feature"}
 ,{"geometry":{"coordinates":[18.072723,59.174372,0.0],"type":"Point"},"id":"friluftsliv.340","properties":{"andrad_av":null,"andrad_datum":null,"skapad_av":null,"skapad_datum":null,"typ":"Parkeringsplats naturreservat"},"type":"Feature"}
 ,{"geometry":{"coordinates":[18.075474,59.17636,0.0],"type":"Point"},"id":"friluftsliv.341","properties":{"andrad_av":null,"andrad_datum":null,"skapad_av":null,"skapad_datum":null,"typ":"Parkeringsplats naturreservat"},"type":"Feature"}
 ,{"geometry":{"coordinates":[18.097081,59.186386,0.0],"type":"Point"},"id":"friluftsliv.342","properties":{"andrad_av":null,"andrad_datum":null,"skapad_av":null,"skapad_datum":null,"typ":"Parkeringsplats naturreservat"},"type":"Feature"}
 ,{"geometry":{"coordinates":[18.078911,59.204243],"type":"Point"},"id":"friluftsliv.343","properties":{"andrad_av":"svc_csmhud$","andrad_datum":"2023-06-19T09:44:02.963","skapad_av":null,"skapad_datum":null,"typ":"Parkeringsplats naturreservat"},"type":"Feature"}
 ,{"geometry":{"coordinates":[18.082167,59.218167],"type":"Point"},"id":"friluftsliv.344","properties":{"andrad_av":"svc_csmhud$","andrad_datum":"2023-06-19T09:50:31.777","skapad_av":null,"skapad_datum":null,"typ":"Parkeringsplats naturreservat"},"type":"Feature"}
 ,{"geometry":{"coordinates":[18.0811,59.220453],"type":"Point"},"id":"friluftsliv.345","properties":{"andrad_av":"svc_csmhud$","andrad_datum":"2023-06-19T09:51:31.833","skapad_av":null,"skapad_datum":null,"typ":"Parkeringsplats naturreservat"},"type":"Feature"}
 ,{"geometry":{"coordinates":[18.013892,59.220019],"type":"Point"},"id":"friluftsliv.347","properties":{"andrad_av":"svc_csmhud$","andrad_datum":"2023-06-19T09:44:30.773","skapad_av":null,"skapad_datum":null,"typ":"Parkeringsplats naturreservat"},"type":"Feature"}
 ,{"geometry":{"coordinates":[18.021383,59.223942,0.0],"type":"Point"},"id":"friluftsliv.348","properties":{"andrad_av":null,"andrad_datum":null,"skapad_av":null,"skapad_datum":null,"typ":"Parkeringsplats naturreservat"},"type":"Feature"}
 ,{"geometry":{"coordinates":[18.153928,59.203394,0.0],"type":"Point"},"id":"friluftsliv.349","properties":{"andrad_av":null,"andrad_datum":null,"skapad_av":null,"skapad_datum":null,"typ":"Parkeringsplats naturreservat"},"type":"Feature"}
 ,{"geometry":{"coordinates":[18.158444,59.228451],"type":"Point"},"id":"friluftsliv.350","properties":{"andrad_av":"svc_csmhud$","andrad_datum":"2024-02-05T11:00:50.320","skapad_av":null,"skapad_datum":null,"typ":"Parkeringsplats naturreservat"},"type":"Feature"}
 ,{"geometry":{"coordinates":[18.014517,59.200827,0.0],"type":"Point"},"id":"friluftsliv.351","properties":{"andrad_av":null,"andrad_datum":null,"skapad_av":null,"skapad_datum":null,"typ":"Parkeringsplats naturreservat"},"type":"Feature"}
 ,{"geometry":{"coordinates":[18.028449,59.225363,0.0],"type":"Point"},"id":"friluftsliv.352","properties":{"andrad_av":null,"andrad_datum":null,"skapad_av":null,"skapad_datum":null,"typ":"Parkeringsplats naturreservat"},"type":"Feature"}
 ,{"geometry":{"coordinates":[17.977607,59.223182],"type":"Point"},"id":"friluftsliv.353","properties":{"andrad_av":"svc_csmhud$","andrad_datum":"2023-06-19T09:45:21.150","skapad_av":null,"skapad_datum":null,"typ":"Parkeringsplats naturreservat"},"type":"Feature"}
 ,{"geometry":{"coordinates":[17.998032,59.190395,0.0],"type":"Point"},"id":"friluftsliv.354","properties":{"andrad_av":null,"andrad_datum":null,"skapad_av":null,"skapad_datum":null,"typ":"Parkeringsplats naturreservat"},"type":"Feature"}
 ,{"geometry":{"coordinates":[17.950201,59.252528,0.0],"type":"Point"},"id":"friluftsliv.355","properties":{"andrad_av":null,"andrad_datum":null,"skapad_av":null,"skapad_datum":null,"typ":"Parkeringsplats naturreservat"},"type":"Feature"}
 ,{"geometry":{"coordinates":[17.96057,59.216242],"type":"Point"},"id":"friluftsliv.356","properties":{"andrad_av":"svc_csmhud$","andrad_datum":"2023-06-19T09:48:55.317","skapad_av":null,"skapad_datum":null,"typ":"Parkeringsplats naturreservat"},"type":"Feature"}
 ,{"geometry":{"coordinates":[18.056854,59.150428,0.0],"type":"Point"},"id":"friluftsliv.358","properties":{"andrad_av":null,"andrad_datum":null,"skapad_av":null,"skapad_datum":null,"typ":"Parkeringsplats naturreservat"},"type":"Feature"}
 ,{"geometry":{"coordinates":[18.028728,59.208377,0.0],"type":"Point"},"id":"friluftsliv.359","properties":{"andrad_av":null,"andrad_datum":null,"skapad_av":null,"skapad_datum":null,"typ":"Parkeringsplats naturreservat"},"type":"Feature"}
 ,{"geometry":{"coordinates":[18.027398,59.208916,0.0],"type":"Point"},"id":"friluftsliv.360","properties":{"andrad_av":null,"andrad_datum":null,"skapad_av":null,"skapad_datum":null,"typ":"Parkeringsplats naturreservat"},"type":"Feature"}
 ,{"geometry":{"coordinates":[18.012076,59.200434,0.0],"type":"Point"},"id":"friluftsliv.361","properties":{"andrad_av":null,"andrad_datum":null,"skapad_av":null,"skapad_datum":null,"typ":"Parkeringsplats naturreservat"},"type":"Feature"}
 ,{"geometry":{"coordinates":[18.053703,59.173466,0.0],"type":"Point"},"id":"friluftsliv.362","properties":{"andrad_av":null,"andrad_datum":null,"skapad_av":null,"skapad_datum":null,"typ":"Parkeringsplats naturreservat"},"type":"Feature"}
 ,{"geometry":{"coordinates":[18.073487,59.17558,0.0],"type":"Point"},"id":"friluftsliv.363","properties":{"andrad_av":null,"andrad_datum":null,"skapad_av":null,"skapad_datum":null,"typ":"Parkeringsplats naturreservat"},"type":"Feature"}
 ,{"geometry":{"coordinates":[18.143636,59.200062,0.0],"type":"Point"},"id":"friluftsliv.364","properties":{"andrad_av":null,"andrad_datum":null,"skapad_av":null,"skapad_datum":null,"typ":"Parkeringsplats naturreservat"},"type":"Feature"}
 ,{"geometry":{"coordinates":[18.005695,59.195598,0.0],"type":"Point"},"id":"friluftsliv.365","properties":{"andrad_av":null,"andrad_datum":null,"skapad_av":null,"skapad_datum":null,"typ":"Parkeringsplats naturreservat"},"type":"Feature"}
 ,{"geometry":{"coordinates":[17.868588,59.265969],"type":"Point"},"id":"friluftsliv.368","properties":{"andrad_av":"marwal02-0-004","andrad_datum":"2026-01-23T13:44:48.513","skapad_av":null,"skapad_datum":null,"typ":"Soptunnor"},"type":"Feature"}
 ,{"geometry":{"coordinates":[18.005652,59.195622,0.0],"type":"Point"},"id":"friluftsliv.369","properties":{"andrad_av":null,"andrad_datum":null,"skapad_av":null,"skapad_datum":null,"typ":"Reservatsentreer"},"type":"Feature"}
 ,{"geometry":{"coordinates":[18.032312,59.207076],"type":"Point"},"id":"friluftsliv.370","properties":{"andrad_av":"svc_csmhud$","andrad_datum":"2023-06-19T09:10:45.260","skapad_av":null,"skapad_datum":null,"typ":"Bänkar/picknickbord"},"type":"Feature"}
 ,{"geometry":{"coordinates":[18.060249,59.170155,0.0],"type":"Point"},"id":"friluftsliv.371","properties":{"andrad_av":null,"andrad_datum":null,"skapad_av":null,"skapad_datum":null,"typ":"Reservatsentreer"},"type":"Feature"}
 ,{"geometry":{"coordinates":[18.053615,59.173301],"type":"Point"},"id":"friluftsliv.372","properties":{"andrad_av":null,"andrad_datum":null,"skapad_av":null,"skapad_datum":null,"typ":"Reservatsentreer"},"type":"Feature"}
 ,{"geometry":{"coordinates":[18.043949,59.173254],"type":"Point"},"id":"friluftsliv.373","properties":{"andrad_av":null,"andrad_datum":null,"skapad_av":null,"skapad_datum":null,"typ":"Reservatsentreer"},"type":"Feature"}
 ,{"geometry":{"coordinates":[17.871099,59.264933],"type":"Point"},"id":"friluftsliv.374","properties":{"andrad_av":"svc_csmhud$","andrad_datum":"2023-06-19T09:02:27.820","skapad_av":null,"skapad_datum":null,"typ":"Reservatsentreer"},"type":"Feature"}
 ,{"geometry":{"coordinates":[18.010645,59.228341],"type":"Point"},"id":"friluftsliv.375","properties":{"andrad_av":"marwal02-0-004","andrad_datum":"2026-01-23T13:57:36.653","skapad_av":null,"skapad_datum":null,"typ":"Ved"},"type":"Feature"}
 ,{"geometry":{"coordinates":[18.021973,59.154595],"type":"Point"},"id":"friluftsliv.376","properties":{"andrad_av":"marwal02-0-004","andrad_datum":"2026-01-23T09:10:49.240","skapad_av":null,"skapad_datum":null,"typ":"Cykelställ"},"type":"Feature"}
 ,{"geometry":{"coordinates":[18.04753,59.165425],"type":"Point"},"id":"friluftsliv.377","properties":{"andrad_av":"svc_csmhud$","andrad_datum":"2023-06-19T09:13:27.917","skapad_av":null,"skapad_datum":null,"typ":"Cykelställ "},"type":"Feature"}
 ,{"geometry":{"coordinates":[18.035575,59.18358],"type":"Point"},"id":"friluftsliv.378","properties":{"andrad_av":null,"andrad_datum":null,"skapad_av":null,"skapad_datum":null,"typ":"Cykelställ"},"type":"Feature"}
 ,{"geometry":{"coordinates":[18.070843,59.163239],"type":"Point"},"id":"friluftsliv.379","properties":{"andrad_av":"svc_csmhud$","andrad_datum":"2023-06-19T09:13:12.327","skapad_av":null,"skapad_datum":null,"typ":"Cykelställ"},"type":"Feature"}
 ,{"geometry":{"coordinates":[18.047511,59.16544],"type":"Point"},"id":"friluftsliv.380","properties":{"andrad_av":"svc_csmhud$","andrad_datum":"2023-06-19T09:13:44.807","skapad_av":null,"skapad_datum":null,"typ":"Cykelställ"},"type":"Feature"}
 ,{"geometry":{"coordinates":[18.069927,59.187942,0.0],"type":"Point"},"id":"friluftsliv.381","properties":{"andrad_av":null,"andrad_datum":null,"skapad_av":null,"skapad_datum":null,"typ":"Cykelställ"},"type":"Feature"}
 ,{"geometry":{"coordinates":[17.966443,59.207813],"type":"Point"},"id":"friluftsliv.382","properties":{"andrad_av":"marwal02-0-004","andrad_datum":"2024-09-10T15:01:10.703","skapad_av":null,"skapad_datum":null,"typ":"Soptunnor"},"type":"Feature"}
 ,{"geometry":{"coordinates":[18.044974,59.209623,0.0],"type":"Point"},"id":"friluftsliv.383","properties":{"andrad_av":null,"andrad_datum":null,"skapad_av":null,"skapad_datum":null,"typ":"Bänkar/picknickbord"},"type":"Feature"}
 ,{"geometry":{"coordinates":[18.044906,59.209503],"type":"Point"},"id":"friluftsliv.384","properties":{"andrad_av":"svc_csmhud$","andrad_datum":"2023-06-19T09:12:08.970","skapad_av":null,"skapad_datum":null,"typ":"Cykelställ"},"type":"Feature"}
 ,{"geometry":{"coordinates":[18.039542,59.208789,0.0],"type":"Point"},"id":"friluftsliv.385","properties":{"andrad_av":null,"andrad_datum":null,"skapad_av":null,"skapad_datum":null,"typ":"Cykelställ"},"type":"Feature"}
 ,{"geometry":{"coordinates":[17.982427,59.220393,0.0],"type":"Point"},"id":"friluftsliv.386","properties":{"andrad_av":null,"andrad_datum":null,"skapad_av":null,"skapad_datum":null,"typ":"Reservatsentreer"},"type":"Feature"}
 ,{"geometry":{"coordinates":[17.976545,59.221855,0.0],"type":"Point"},"id":"friluftsliv.387","properties":{"andrad_av":null,"andrad_datum":null,"skapad_av":null,"skapad_datum":null,"typ":"Bänkar/picknickbord"},"type":"Feature"}
 ,{"geometry":{"coordinates":[18.010731,59.228381],"type":"Point"},"id":"friluftsliv.388","properties":{"andrad_av":"marwal02-0-004","andrad_datum":"2026-01-23T13:58:14.660","skapad_av":null,"skapad_datum":null,"typ":"Soptunnor"},"type":"Feature"}
 ,{"geometry":{"coordinates":[18.010631,59.228393],"type":"Point"},"id":"friluftsliv.389","properties":{"andrad_av":"marwal02-0-004","andrad_datum":"2026-01-23T13:58:29.503","skapad_av":null,"skapad_datum":null,"typ":"Grillplats"},"type":"Feature"}
 ,{"geometry":{"coordinates":[18.010917,59.228441],"type":"Point"},"id":"friluftsliv.390","properties":{"andrad_av":"marwal02-0-004","andrad_datum":"2026-01-23T13:57:47.957","skapad_av":null,"skapad_datum":null,"typ":"Bänkar/picknickbord"},"type":"Feature"}
 ,{"geometry":{"coordinates":[18.010724,59.2285],"type":"Point"},"id":"friluftsliv.391","properties":{"andrad_av":"marwal02-0-004","andrad_datum":"2026-01-23T13:57:58.477","skapad_av":null,"skapad_datum":null,"typ":"Bänkar/picknickbord"},"type":"Feature"}
 ,{"geometry":{"coordinates":[17.931487,59.251679],"type":"Point"},"id":"friluftsliv.392","properties":{"andrad_av":"marwal02-0-004","andrad_datum":"2024-09-10T15:03:15.453","skapad_av":"svc_csmhud$","skapad_datum":"2023-06-28T08:09:19.780","typ":"Soptunnor"},"type":"Feature"}
 ,{"geometry":{"coordinates":[18.032724,59.210537],"type":"Point"},"id":"friluftsliv.393","properties":{"andrad_av":"svc_csmhud$","andrad_datum":"2024-05-30T16:14:31.143","skapad_av":"svc_csmhud$","skapad_datum":"2024-05-30T16:14:31.143","typ":"Bänkar/picknickbord"},"type":"Feature"}
 ,{"geometry":{"coordinates":[18.043566,59.206404],"type":"Point"},"id":"friluftsliv.394","properties":{"andrad_av":"svc_csmhud$","andrad_datum":"2024-05-30T16:16:25.850","skapad_av":"svc_csmhud$","skapad_datum":"2024-05-30T16:16:25.850","typ":"Bänkar/picknickbord"},"type":"Feature"}
 ,{"geometry":{"coordinates":[18.078953,59.204189],"type":"Point"},"id":"friluftsliv.395","properties":{"andrad_av":"marwal02-0-004","andrad_datum":"2024-09-10T15:02:53.570","skapad_av":"marwal02-0-004","skapad_datum":"2024-09-05T13:58:07.626","typ":"Soptunnor"},"type":"Feature"}
 ,{"geometry":{"coordinates":[18.023256,59.153952],"type":"Point"},"id":"friluftsliv.398","properties":{"andrad_av":"marwal02-0-004","andrad_datum":"2026-01-23T09:15:31.440","skapad_av":"marwal02-0-004","skapad_datum":"2026-01-21T10:31:10.696","typ":"Dass"},"type":"Feature"}
 ]
}