{"type": "FeatureCollection",
 "bbox": [ 17.81034678, 59.11048047, 18.23706611, 59.31702172],
 "features": [
  {"bbox":[17.877037,59.225241,17.902883,59.231319],"geometry":{"coordinates":[[17.88553,59.229177,0.0],[17.88553,59.229019,0.0],[17.885384,59.228831,0.0],[17.885195,59.228634,0.0],[17.885202,59.228565,0.0],[17.88542,59.228432,0.0],[17.885567,59.228407,0.0],[17.885974,59.22857,0.0],[17.886331,59.22876,0.0],[17.886667,59.228894,0.0],[17.886997,59.228912,0.0],[17.887439,59.229009,0.0],[17.887782,59.229046,0.0],[17.887895,59.22901,0.0],[17.888112,59.229086,0.0],[17.888469,59.22924,0.0],[17.888714,59.229316,0.0],[17.888862,59.229284,0.0],[17.889277,59.22904,0.0],[17.889424,59.229004,0.0],[17.889578,59.229051,0.0],[17.889746,59.22913,0.0],[17.889767,59.22922,0.0],[17.889844,59.229382,0.0],[17.889773,59.229504,0.0],[17.889745,59.229623,0.0],[17.889793,59.229745,0.0],[17.889948,59.229795,0.0],[17.890158,59.229828,0.0],[17.890312,59.229821,0.0],[17.890502,59.229825,0.0],[17.890586,59.229785,0.0],[17.89086,59.229782,0.0],[17.891056,59.229786,0.0],[17.891204,59.229782,0.0],[17.891372,59.229818,0.0],[17.891554,59.229865,0.0],[17.8918,59.22988,0.0],[17.89201,59.229847,0.0],[17.892214,59.229758,0.0],[17.892481,59.229589,0.0],[17.892762,59.229427,0.0],[17.892952,59.229323,0.0],[17.893001,59.229251,0.0],[17.893226,59.229162,0.0],[17.893521,59.229108,0.0],[17.893886,59.229105,0.0],[17.894103,59.229112,0.0],[17.894145,59.22917,0.0],[17.89411,59.229224,0.0],[17.894053,59.229303,0.0],[17.893962,59.229371,0.0],[17.893856,59.229468,0.0],[17.893793,59.229547,0.0],[17.893716,59.229676,0.0],[17.893743,59.229788,0.0],[17.893757,59.229942,0.0],[17.893813,59.230036,0.0],[17.893918,59.23014,0.0],[17.893903,59.230245,0.0],[17.893847,59.230367,0.0],[17.893776,59.230446,0.0],[17.893685,59.230561,0.0],[17.893537,59.230647,0.0],[17.893354,59.230714999999996,0.0],[17.893165,59.230816,0.0],[17.892975,59.23092,0.0],[17.892982,59.231053,0.0],[17.893128,59.23119,0.0],[17.893206,59.231229,0.0],[17.893388,59.231283,0.0],[17.893514,59.231319,0.0],[17.893661,59.231312,0.0],[17.893921,59.231237,0.0],[17.894251,59.231284,0.0],[17.894398,59.23123,0.0],[17.894721,59.23109,0.0],[17.894996,59.230914,0.0],[17.895326,59.230763,0.0],[17.895817,59.230609,0.0],[17.89626,59.230433,0.0],[17.896702,59.230279,0.0],[17.897018,59.230172,0.0],[17.897215,59.230017,0.0],[17.897412,59.230003,0.0],[17.89758,59.229927,0.0],[17.897967,59.229777,0.0],[17.898191,59.229701,0.0],[17.898571,59.22959,0.0],[17.899048,59.229612,0.0],[17.899335,59.229609,0.0],[17.899686,59.229508,0.0],[17.900072,59.229581,0.0],[17.90036,59.229559,0.0],[17.900577,59.22971,0.0],[17.900962,59.230038,0.0],[17.90113,59.230225,0.0],[17.901199,59.230333,0.0],[17.901136,59.230426,0.0],[17.901024,59.230502,0.0],[17.900904,59.230559,0.0],[17.900757,59.23057,0.0],[17.900651,59.230617,0.0],[17.900756,59.230721,0.0],[17.90089,59.230728,0.0],[17.901079,59.230577,0.0],[17.901227,59.230491,0.0],[17.90127,59.230347,0.0],[17.901291,59.230297,0.0],[17.901256,59.230186,0.0],[17.901368,59.230107,0.0],[17.901285,59.229984,0.0],[17.901565,59.229895,0.0],[17.901629,59.22983,0.0],[17.901608,59.229733,0.0],[17.901433,59.22965,0.0],[17.901293,59.229625,0.0],[17.901152,59.229617,0.0],[17.901111,59.229459,0.0],[17.901181,59.229337,0.0],[17.901322,59.229233,0.0],[17.901371,59.229143,0.0],[17.901267,59.228816,0.0],[17.901345,59.228586,0.0],[17.901317,59.228474,0.0],[17.901191,59.228319,0.0],[17.901227,59.228212,0.0],[17.901304,59.228111,0.0],[17.901452,59.228064,0.0],[17.901578,59.228111,0.0],[17.901753,59.228083,0.0],[17.9019,59.228108,0.0],[17.901984,59.228151,0.0],[17.902139,59.22818,0.0],[17.902475,59.228162,0.0],[17.902609,59.228119,0.0],[17.902708,59.227961,0.0],[17.902883,59.227799,0.0],[17.902814,59.227681,0.0],[17.902716,59.22754,0.0],[17.902681,59.227443,0.0],[17.902569,59.227386,0.0],[17.902211,59.227375,0.0],[17.901924,59.227137,0.0],[17.901777,59.227033,0.0],[17.901721,59.226968,0.0],[17.901658,59.226831,0.0],[17.90161,59.226727,0.0],[17.9014,59.226507,0.0],[17.901533,59.226454,0.0],[17.901583,59.226324,0.0],[17.90166,59.226162,0.0],[17.901633,59.225979,0.0],[17.901598,59.225904,0.0],[17.901367,59.225738,0.0],[17.901157,59.22559,0.0],[17.900842,59.225385,0.0],[17.900618,59.225288,0.0],[17.900548,59.225241,0.0],[17.900407,59.225259,0.0],[17.900253,59.225295,0.0],[17.900049,59.225413,0.0],[17.899944,59.225467,0.0],[17.89988,59.225618,0.0],[17.899901,59.225687,0.0],[17.899606,59.225697,0.0],[17.899431,59.225762,0.0],[17.899388,59.225873,0.0],[17.899346,59.225952,0.0],[17.899114,59.226121,0.0],[17.898833,59.226265,0.0],[17.898784,59.226416,0.0],[17.898573,59.226548,0.0],[17.898432,59.226667,0.0],[17.898418,59.226757,0.0],[17.898326,59.226836,0.0],[17.898193,59.226886,0.0],[17.898024,59.226922,0.0],[17.897919,59.226925,0.0],[17.897793,59.227012,0.0],[17.897687,59.226986,0.0],[17.897492,59.226792,0.0],[17.897344,59.226734,0.0],[17.897183,59.226806,0.0],[17.896951,59.22686,0.0],[17.896825,59.226957,0.0],[17.8966,59.226899,0.0],[17.896432,59.226885,0.0],[17.896257,59.226917,0.0],[17.895997,59.226852,0.0],[17.895843,59.226823,0.0],[17.895745,59.226837,0.0],[17.895555,59.226844,0.0],[17.895422,59.226848,0.0],[17.895191,59.226819,0.0],[17.894917,59.226768,0.0],[17.894721,59.226761,0.0],[17.89444,59.226804,0.0],[17.894118,59.226714,0.0],[17.893893,59.226757,0.0],[17.893725,59.22676,0.0],[17.893402,59.226681,0.0],[17.89315,59.226648,0.0],[17.892995,59.226681,0.0],[17.892771,59.226698,0.0],[17.892595,59.226874,0.0],[17.892314,59.22695,0.0],[17.892096,59.226939,0.0],[17.891949,59.226903,0.0],[17.891592,59.226762,0.0],[17.891312,59.226632,0.0],[17.891025,59.226517,0.0],[17.890905,59.226456,0.0],[17.890744,59.22642,0.0],[17.890471,59.226405,0.0],[17.890316,59.226394,0.0],[17.890239,59.226412,0.0],[17.890085,59.226383,0.0],[17.889987,59.226401,0.0],[17.88979,59.226423,0.0],[17.889636,59.226473,0.0],[17.889397,59.226563,0.0],[17.889361,59.22666,0.0],[17.889235,59.226692,0.0],[17.889102,59.226656,0.0],[17.888955,59.226609,0.0],[17.888878,59.226562,0.0],[17.888702,59.226544,0.0],[17.888534,59.226544,0.0],[17.888324,59.22654,0.0],[17.888134,59.226486,0.0],[17.887917,59.226367,0.0],[17.8877,59.22632,0.0],[17.887497,59.226241,0.0],[17.887413,59.22619,0.0],[17.887399,59.226122,0.0],[17.887294,59.225982,0.0],[17.887133,59.22591,0.0],[17.886881,59.225928,0.0],[17.886733,59.225985,0.0],[17.886438,59.226003,0.0],[17.886284,59.225985,0.0],[17.886059,59.226017,0.0],[17.885646,59.22597,0.0],[17.885296,59.225793,0.0],[17.885163,59.22571,0.0],[17.885008,59.22566,0.0],[17.884868,59.225573,0.0],[17.884427,59.22548,0.0],[17.884231,59.225397,0.0],[17.88395,59.225303,0.0],[17.883677,59.225278,0.0],[17.883428,59.225359,0.0],[17.883263,59.225402,0.0],[17.883161,59.225411,0.0],[17.88281,59.225558,0.0],[17.882473,59.225484,0.0],[17.882294,59.225456,0.0],[17.882133,59.225377,0.0],[17.881958,59.225383,0.0],[17.881838,59.225448,0.0],[17.881638,59.225532,0.0],[17.881462,59.22581,0.0],[17.88136,59.225924,0.0],[17.881342,59.226037,0.0],[17.881285,59.226109,0.0],[17.881155,59.22617,0.0],[17.88092,59.226218,0.0],[17.880797,59.22629,0.0],[17.880748,59.22636,0.0],[17.880713,59.226439,0.0],[17.880565,59.226543,0.0],[17.88047,59.226656,0.0],[17.880252,59.226866,0.0],[17.879911,59.22708,0.0],[17.879661,59.2272,0.0],[17.87938,59.227391,0.0],[17.879222,59.227437,0.0],[17.878902,59.227611,0.0],[17.878877,59.227681,0.0],[17.87873,59.227791,0.0],[17.878666,59.227877,0.0],[17.878617,59.227944,0.0],[17.878617,59.228005,0.0],[17.87855,59.228057,0.0],[17.87843,59.228075,0.0],[17.878298,59.228138,0.0],[17.878216,59.228261,0.0],[17.878026,59.228351,0.0],[17.877879,59.228382,0.0],[17.87771,59.228419,0.0],[17.877334,59.228595,0.0],[17.877239,59.228598,0.0],[17.877134,59.22867,0.0],[17.877106,59.228731,0.0],[17.87714,59.228791,0.0],[17.877207,59.228902,0.0],[17.877227,59.228981,0.0],[17.87729,59.2291,0.0],[17.877213,59.229176,0.0],[17.877062,59.229231,0.0],[17.877037,59.229379,0.0],[17.877068,59.22949,0.0],[17.877124,59.229567,0.0],[17.877186,59.229675,0.0],[17.877534,59.229701,0.0],[17.877867,59.229721,0.0],[17.878147,59.229748,0.0],[17.878526,59.229783,0.0],[17.879259,59.229915,0.0],[17.879248,59.229967,0.0],[17.878903,59.230295,0.0],[17.878811,59.23043,0.0],[17.878888,59.230513,0.0],[17.87913,59.230589,0.0],[17.879716,59.23067,0.0],[17.879951,59.23065,0.0],[17.880021,59.230642,0.0],[17.880151,59.23062,0.0],[17.880357,59.230687,0.0],[17.880504,59.230818,0.0],[17.880655,59.230887,0.0],[17.880883,59.230903,0.0],[17.881069,59.23093,0.0],[17.881356,59.23095,0.0],[17.881577,59.230965,0.0],[17.881823,59.230931,0.0],[17.881977,59.23092,0.0],[17.882188,59.230881,0.0],[17.882318,59.230876,0.0],[17.882725,59.23091,0.0],[17.882823,59.230903,0.0],[17.882907,59.230846,0.0],[17.882974,59.230784,0.0],[17.883048,59.230729,0.0],[17.883122,59.230641,0.0],[17.88322,59.23054,0.0],[17.883312,59.230463,0.0],[17.883414,59.230368,0.0],[17.88352,59.230267,0.0],[17.883709,59.230163,0.0],[17.883773,59.230088,0.0],[17.883829,59.230023,0.0],[17.883959,59.22993,0.0],[17.884139,59.229809,0.0],[17.884251,59.229748,0.0],[17.884451,59.22961,0.0],[17.884596,59.229499,0.0],[17.884736,59.229423,0.0],[17.884831,59.229382,0.0],[17.884894,59.229343,0.0],[17.884919,59.229298,0.0],[17.8852,59.229273,0.0],[17.885519,59.229183,0.0]],"type":"LineString"},"id":"mountainbikeleder.1662","properties":{"andrad_datum":null,"ansvarig":"samarbete kommunen/Flottsbro","idnr":1662,"namn":"XCO-Spåret, mountainbike","omrade":"Flottsbro","skapad_datum":null},"type":"Feature"}
 ,{"bbox":[17.881904,59.226808,17.892165,59.23265],"geometry":{"coordinates":[[17.885799,59.228479,0.0],[17.885652,59.228231,0.0],[17.88559,59.228048,0.0],[17.885618,59.227864,0.0],[17.88578,59.227663,0.0],[17.885907,59.227484,0.0],[17.886034,59.227236,0.0],[17.886196,59.227052,0.0],[17.886302,59.226995,0.0],[17.886604,59.226848,0.0],[17.886892,59.226808,0.0],[17.887116,59.226823,0.0],[17.88732,59.22682,0.0],[17.887439,59.22687,0.0],[17.887537,59.22696,0.0],[17.887691,59.227068,0.0],[17.887746,59.227144,0.0],[17.887809,59.227172,0.0],[17.887872,59.227241,0.0],[17.887823,59.227352,0.0],[17.887724,59.227438,0.0],[17.887717,59.227539,0.0],[17.887738,59.227607,0.0],[17.887829,59.227654,0.0],[17.887857,59.227726,0.0],[17.887919,59.227899,0.0],[17.887982,59.228025,0.0],[17.888101,59.228125,0.0],[17.888241,59.228226,0.0],[17.888332,59.228359,0.0],[17.888395,59.228446,0.0],[17.888654,59.228568,0.0],[17.888885,59.228669,0.0],[17.88899,59.228694,0.0],[17.889242,59.228903,0.0],[17.889319,59.228939,0.0],[17.889466,59.228921,0.0],[17.889655,59.229022,0.0],[17.88976,59.229101,0.0],[17.889802,59.229216,0.0],[17.889837,59.229317,0.0],[17.889851,59.229393,0.0],[17.889836,59.229522,0.0],[17.889829,59.229662,0.0],[17.889927,59.229749,0.0],[17.890123,59.229806,0.0],[17.890242,59.22981,0.0],[17.890488,59.229789,0.0],[17.890867,59.229767,0.0],[17.891175,59.229782,0.0],[17.891344,59.229797,0.0],[17.891512,59.229879,0.0],[17.89161,59.229962,0.0],[17.891732,59.230053,0.0],[17.891872,59.230167,0.0],[17.891946,59.230271,0.0],[17.891984,59.230375,0.0],[17.892064,59.230476,0.0],[17.892138,59.230569,0.0],[17.892165,59.230649,0.0],[17.892154,59.230789,0.0],[17.892084,59.230871,0.0],[17.892049,59.230942,0.0],[17.892045,59.230991,0.0],[17.892055,59.231069,0.0],[17.892048,59.231227,0.0],[17.892104,59.231298,0.0],[17.892152,59.231425,0.0],[17.892163,59.23151,0.0],[17.892117,59.231592,0.0],[17.892155,59.231693,0.0],[17.892106,59.231752,0.0],[17.892099,59.231821,0.0],[17.892091,59.231911,0.0],[17.892074,59.231939,0.0],[17.891951,59.231968,0.0],[17.891846,59.231954,0.0],[17.891733,59.231973,0.0],[17.891525,59.232082,0.0],[17.891203,59.232251,0.0],[17.89115,59.232291,0.0],[17.891027,59.232336,0.0],[17.890953,59.232345,0.0],[17.890922,59.232413,0.0],[17.890816,59.23251,0.0],[17.890718,59.23256,0.0],[17.890658,59.232561,0.0],[17.890574,59.23251,0.0],[17.890494,59.232512,0.0],[17.890448,59.232468,0.0],[17.89034,59.232472,0.0],[17.890241,59.232427,0.0],[17.890167,59.23238,0.0],[17.890034,59.232351,0.0],[17.889855,59.23238,0.0],[17.889736,59.232405,0.0],[17.889571,59.232403,0.0],[17.889392,59.232347,0.0],[17.889213,59.232359,0.0],[17.889048,59.232311,0.0],[17.888929,59.232258,0.0],[17.888863,59.232195,0.0],[17.888849,59.232127,0.0],[17.888853,59.232012,0.0],[17.888846,59.231938,0.0],[17.88885,59.231906,0.0],[17.888801,59.231856,0.0],[17.888706,59.231859,0.0],[17.888626,59.23185,0.0],[17.88825,59.23192,0.0],[17.888029,59.231939,0.0],[17.887859,59.231976,0.0],[17.887785,59.231992,0.0],[17.887566,59.232011,0.0],[17.887344,59.232068,0.0],[17.887291,59.232138,0.0],[17.887193,59.232194,0.0],[17.88706,59.232239,0.0],[17.886909,59.2323,0.0],[17.886576,59.232389,0.0],[17.886291,59.232465,0.0],[17.886199,59.232468,0.0],[17.886122,59.232488,0.0],[17.885937,59.232546,0.0],[17.885609,59.23263,0.0],[17.885459,59.232642,0.0],[17.885325,59.232631,0.0],[17.885125,59.232645,0.0],[17.884918,59.232627,0.0],[17.884697,59.23265,0.0],[17.884582,59.232602,0.0],[17.884582,59.232539,0.0],[17.884593,59.232488,0.0],[17.884547,59.232409,0.0],[17.884551,59.232328,0.0],[17.884555,59.232238,0.0],[17.884488,59.232163,0.0],[17.884475,59.232114,0.0],[17.884401,59.232091,0.0],[17.884345,59.232044,0.0],[17.884331,59.231958,0.0],[17.884303,59.231895,0.0],[17.884244,59.231868,0.0],[17.884149,59.231897,0.0],[17.88404,59.231918,0.0],[17.883802,59.231829,0.0],[17.883683,59.231735,0.0],[17.883185,59.231589,0.0],[17.882737,59.231531,0.0],[17.881993,59.231458,0.0],[17.881994,59.231155,0.0],[17.881904,59.230903,0.0],[17.882199,59.230867,0.0],[17.882577,59.230904,0.0],[17.882879,59.230877,0.0],[17.883118,59.230634,0.0],[17.883308,59.230462,0.0],[17.883555,59.23025,0.0],[17.883688,59.23016,0.0],[17.883785,59.230073,0.0],[17.88397,59.229927,0.0],[17.884167,59.229816,0.0],[17.884448,59.229618,0.0],[17.884582,59.229489,0.0],[17.88475,59.22941,0.0],[17.884919,59.229316,0.0],[17.885214,59.229281,0.0],[17.885495,59.229198,0.0],[17.885504,59.22913,0.0],[17.885523,59.229058,0.0],[17.885488,59.228961,0.0],[17.885405,59.228853,0.0],[17.88523,59.228655,0.0],[17.885223,59.228544,0.0],[17.885406,59.228436,0.0],[17.885581,59.228415,0.0],[17.885764,59.228472,0.0]],"type":"LineString"},"id":"mountainbikeleder.1663","properties":{"andrad_datum":"2023-06-26T09:52:46.017","ansvarig":"samarbete kommunen/Flottsbro","idnr":1663,"namn":"Teknikspåret, mountainbike","omrade":"Flottsbro","skapad_datum":null},"type":"Feature"}
 ]
}