{"type": "FeatureCollection",
 "bbox": [ 17.81034678, 59.11048047, 18.23706611, 59.31702172],
 "features": [
  {"geometry":{"coordinates":[17.924182,59.235164],"type":"Point"},"id":"vintersandlador.360","properties":null,"type":"Feature"}
 ,{"geometry":{"coordinates":[17.924182,59.235164],"type":"Point"},"id":"vintersandlador.361","properties":null,"type":"Feature"}
 ,{"geometry":{"coordinates":[17.879567,59.261996],"type":"Point"},"id":"vintersandlador.362","properties":null,"type":"Feature"}
 ,{"geometry":{"coordinates":[17.86836,59.269017],"type":"Point"},"id":"vintersandlador.363","properties":null,"type":"Feature"}
 ,{"geometry":{"coordinates":[17.86836,59.269017],"type":"Point"},"id":"vintersandlador.364","properties":null,"type":"Feature"}
 ,{"geometry":{"coordinates":[17.869293,59.271078],"type":"Point"},"id":"vintersandlador.365","properties":null,"type":"Feature"}
 ,{"geometry":{"coordinates":[17.869032,59.273543],"type":"Point"},"id":"vintersandlador.366","properties":null,"type":"Feature"}
 ,{"geometry":{"coordinates":[17.873049,59.27023],"type":"Point"},"id":"vintersandlador.367","properties":null,"type":"Feature"}
 ,{"geometry":{"coordinates":[17.876541,59.264246],"type":"Point"},"id":"vintersandlador.368","properties":null,"type":"Feature"}
 ,{"geometry":{"coordinates":[17.883768,59.263431],"type":"Point"},"id":"vintersandlador.369","properties":null,"type":"Feature"}
 ,{"geometry":{"coordinates":[17.88489,59.264351],"type":"Point"},"id":"vintersandlador.370","properties":null,"type":"Feature"}
 ,{"geometry":{"coordinates":[17.884314,59.264396],"type":"Point"},"id":"vintersandlador.371","properties":null,"type":"Feature"}
 ,{"geometry":{"coordinates":[17.889026,59.263091],"type":"Point"},"id":"vintersandlador.372","properties":null,"type":"Feature"}
 ,{"geometry":{"coordinates":[17.882273,59.259978],"type":"Point"},"id":"vintersandlador.373","properties":null,"type":"Feature"}
 ,{"geometry":{"coordinates":[17.887292,59.263404],"type":"Point"},"id":"vintersandlador.374","properties":null,"type":"Feature"}
 ,{"geometry":{"coordinates":[17.884335,59.245042],"type":"Point"},"id":"vintersandlador.375","properties":null,"type":"Feature"}
 ,{"geometry":{"coordinates":[17.946591,59.276376],"type":"Point"},"id":"vintersandlador.376","properties":null,"type":"Feature"}
 ,{"geometry":{"coordinates":[17.954862,59.276118],"type":"Point"},"id":"vintersandlador.377","properties":null,"type":"Feature"}
 ,{"geometry":{"coordinates":[17.944438,59.279519],"type":"Point"},"id":"vintersandlador.378","properties":null,"type":"Feature"}
 ,{"geometry":{"coordinates":[17.944438,59.279519],"type":"Point"},"id":"vintersandlador.379","properties":null,"type":"Feature"}
 ,{"geometry":{"coordinates":[17.946394,59.279859],"type":"Point"},"id":"vintersandlador.380","properties":null,"type":"Feature"}
 ,{"geometry":{"coordinates":[17.947496,59.279984],"type":"Point"},"id":"vintersandlador.381","properties":null,"type":"Feature"}
 ,{"geometry":{"coordinates":[17.948447,59.277588],"type":"Point"},"id":"vintersandlador.382","properties":null,"type":"Feature"}
 ,{"geometry":{"coordinates":[17.952371,59.279272],"type":"Point"},"id":"vintersandlador.383","properties":null,"type":"Feature"}
 ,{"geometry":{"coordinates":[17.953684,59.278283],"type":"Point"},"id":"vintersandlador.384","properties":null,"type":"Feature"}
 ,{"geometry":{"coordinates":[17.952737,59.281767],"type":"Point"},"id":"vintersandlador.385","properties":null,"type":"Feature"}
 ,{"geometry":{"coordinates":[17.953306,59.282602],"type":"Point"},"id":"vintersandlador.386","properties":null,"type":"Feature"}
 ,{"geometry":{"coordinates":[17.954437,59.282255],"type":"Point"},"id":"vintersandlador.387","properties":null,"type":"Feature"}
 ,{"geometry":{"coordinates":[17.951738,59.282127],"type":"Point"},"id":"vintersandlador.388","properties":null,"type":"Feature"}
 ,{"geometry":{"coordinates":[17.950347,59.283722],"type":"Point"},"id":"vintersandlador.389","properties":null,"type":"Feature"}
 ,{"geometry":{"coordinates":[17.949407,59.282097],"type":"Point"},"id":"vintersandlador.390","properties":null,"type":"Feature"}
 ,{"geometry":{"coordinates":[17.953242,59.280097],"type":"Point"},"id":"vintersandlador.391","properties":null,"type":"Feature"}
 ,{"geometry":{"coordinates":[17.95403,59.278827],"type":"Point"},"id":"vintersandlador.392","properties":null,"type":"Feature"}
 ,{"geometry":{"coordinates":[17.945196,59.28108],"type":"Point"},"id":"vintersandlador.393","properties":null,"type":"Feature"}
 ,{"geometry":{"coordinates":[17.945196,59.28108],"type":"Point"},"id":"vintersandlador.394","properties":null,"type":"Feature"}
 ,{"geometry":{"coordinates":[17.94395,59.279898],"type":"Point"},"id":"vintersandlador.395","properties":null,"type":"Feature"}
 ,{"geometry":{"coordinates":[17.938715,59.280112],"type":"Point"},"id":"vintersandlador.396","properties":null,"type":"Feature"}
 ,{"geometry":{"coordinates":[17.935295,59.279873],"type":"Point"},"id":"vintersandlador.397","properties":null,"type":"Feature"}
 ,{"geometry":{"coordinates":[17.930046,59.277595],"type":"Point"},"id":"vintersandlador.398","properties":null,"type":"Feature"}
 ,{"geometry":{"coordinates":[17.932836000000002,59.280945],"type":"Point"},"id":"vintersandlador.399","properties":null,"type":"Feature"}
 ,{"geometry":{"coordinates":[17.925098,59.278721],"type":"Point"},"id":"vintersandlador.400","properties":null,"type":"Feature"}
 ,{"geometry":{"coordinates":[17.920312,59.277519],"type":"Point"},"id":"vintersandlador.401","properties":null,"type":"Feature"}
 ,{"geometry":{"coordinates":[17.928868,59.27771],"type":"Point"},"id":"vintersandlador.402","properties":null,"type":"Feature"}
 ,{"geometry":{"coordinates":[17.92545,59.274594],"type":"Point"},"id":"vintersandlador.403","properties":null,"type":"Feature"}
 ,{"geometry":{"coordinates":[17.92595,59.271818],"type":"Point"},"id":"vintersandlador.404","properties":null,"type":"Feature"}
 ,{"geometry":{"coordinates":[17.931336,59.276548],"type":"Point"},"id":"vintersandlador.405","properties":null,"type":"Feature"}
 ,{"geometry":{"coordinates":[17.939122,59.275691],"type":"Point"},"id":"vintersandlador.406","properties":null,"type":"Feature"}
 ,{"geometry":{"coordinates":[17.897702,59.262861],"type":"Point"},"id":"vintersandlador.407","properties":null,"type":"Feature"}
 ,{"geometry":{"coordinates":[17.897011,59.26272],"type":"Point"},"id":"vintersandlador.408","properties":null,"type":"Feature"}
 ,{"geometry":{"coordinates":[17.944839,59.276873],"type":"Point"},"id":"vintersandlador.409","properties":null,"type":"Feature"}
 ,{"geometry":{"coordinates":[17.958027,59.270725],"type":"Point"},"id":"vintersandlador.410","properties":null,"type":"Feature"}
 ,{"geometry":{"coordinates":[17.958027,59.270725],"type":"Point"},"id":"vintersandlador.411","properties":null,"type":"Feature"}
 ,{"geometry":{"coordinates":[17.966371,59.26558],"type":"Point"},"id":"vintersandlador.412","properties":null,"type":"Feature"}
 ,{"geometry":{"coordinates":[17.948795,59.269654],"type":"Point"},"id":"vintersandlador.413","properties":null,"type":"Feature"}
 ,{"geometry":{"coordinates":[17.948795,59.269654],"type":"Point"},"id":"vintersandlador.414","properties":null,"type":"Feature"}
 ,{"geometry":{"coordinates":[17.946682,59.269222],"type":"Point"},"id":"vintersandlador.415","properties":null,"type":"Feature"}
 ,{"geometry":{"coordinates":[17.951074,59.27174],"type":"Point"},"id":"vintersandlador.416","properties":null,"type":"Feature"}
 ,{"geometry":{"coordinates":[17.945197,59.272282],"type":"Point"},"id":"vintersandlador.417","properties":null,"type":"Feature"}
 ,{"geometry":{"coordinates":[17.965206,59.254263],"type":"Point"},"id":"vintersandlador.418","properties":null,"type":"Feature"}
 ,{"geometry":{"coordinates":[17.962205,59.253916],"type":"Point"},"id":"vintersandlador.419","properties":null,"type":"Feature"}
 ,{"geometry":{"coordinates":[17.958761,59.253839],"type":"Point"},"id":"vintersandlador.420","properties":null,"type":"Feature"}
 ,{"geometry":{"coordinates":[17.95094,59.251806],"type":"Point"},"id":"vintersandlador.421","properties":null,"type":"Feature"}
 ,{"geometry":{"coordinates":[17.950185,59.251977],"type":"Point"},"id":"vintersandlador.422","properties":null,"type":"Feature"}
 ,{"geometry":{"coordinates":[17.965409,59.255473],"type":"Point"},"id":"vintersandlador.423","properties":null,"type":"Feature"}
 ,{"geometry":{"coordinates":[17.964717,59.256868],"type":"Point"},"id":"vintersandlador.424","properties":null,"type":"Feature"}
 ,{"geometry":{"coordinates":[17.967794,59.254758],"type":"Point"},"id":"vintersandlador.425","properties":null,"type":"Feature"}
 ,{"geometry":{"coordinates":[17.970179,59.260084],"type":"Point"},"id":"vintersandlador.426","properties":null,"type":"Feature"}
 ,{"geometry":{"coordinates":[17.969363,59.2592],"type":"Point"},"id":"vintersandlador.427","properties":null,"type":"Feature"}
 ,{"geometry":{"coordinates":[17.96292,59.262491],"type":"Point"},"id":"vintersandlador.428","properties":null,"type":"Feature"}
 ,{"geometry":{"coordinates":[17.967334,59.26227],"type":"Point"},"id":"vintersandlador.429","properties":null,"type":"Feature"}
 ,{"geometry":{"coordinates":[17.969482,59.261996],"type":"Point"},"id":"vintersandlador.430","properties":null,"type":"Feature"}
 ,{"geometry":{"coordinates":[17.960697,59.263619],"type":"Point"},"id":"vintersandlador.431","properties":null,"type":"Feature"}
 ,{"geometry":{"coordinates":[17.961719,59.26267],"type":"Point"},"id":"vintersandlador.432","properties":null,"type":"Feature"}
 ,{"geometry":{"coordinates":[17.96921,59.256043],"type":"Point"},"id":"vintersandlador.433","properties":null,"type":"Feature"}
 ,{"geometry":{"coordinates":[17.959854,59.244872],"type":"Point"},"id":"vintersandlador.434","properties":null,"type":"Feature"}
 ,{"geometry":{"coordinates":[17.962126,59.24512],"type":"Point"},"id":"vintersandlador.435","properties":null,"type":"Feature"}
 ,{"geometry":{"coordinates":[17.963232,59.244758],"type":"Point"},"id":"vintersandlador.436","properties":null,"type":"Feature"}
 ,{"geometry":{"coordinates":[17.956329,59.243558],"type":"Point"},"id":"vintersandlador.437","properties":null,"type":"Feature"}
 ,{"geometry":{"coordinates":[17.957453,59.241775],"type":"Point"},"id":"vintersandlador.438","properties":null,"type":"Feature"}
 ,{"geometry":{"coordinates":[17.967256,59.245272],"type":"Point"},"id":"vintersandlador.439","properties":null,"type":"Feature"}
 ,{"geometry":{"coordinates":[17.970976,59.235492],"type":"Point"},"id":"vintersandlador.440","properties":null,"type":"Feature"}
 ,{"geometry":{"coordinates":[17.973468,59.234576],"type":"Point"},"id":"vintersandlador.441","properties":null,"type":"Feature"}
 ,{"geometry":{"coordinates":[17.968473,59.23871],"type":"Point"},"id":"vintersandlador.442","properties":null,"type":"Feature"}
 ,{"geometry":{"coordinates":[17.963671,59.237224],"type":"Point"},"id":"vintersandlador.443","properties":null,"type":"Feature"}
 ,{"geometry":{"coordinates":[17.967971,59.239186],"type":"Point"},"id":"vintersandlador.444","properties":null,"type":"Feature"}
 ,{"geometry":{"coordinates":[17.96923,59.24022],"type":"Point"},"id":"vintersandlador.445","properties":null,"type":"Feature"}
 ,{"geometry":{"coordinates":[17.967742,59.24015],"type":"Point"},"id":"vintersandlador.446","properties":null,"type":"Feature"}
 ,{"geometry":{"coordinates":[17.973366,59.241823],"type":"Point"},"id":"vintersandlador.447","properties":null,"type":"Feature"}
 ,{"geometry":{"coordinates":[17.974863,59.242967],"type":"Point"},"id":"vintersandlador.448","properties":null,"type":"Feature"}
 ,{"geometry":{"coordinates":[17.974395,59.243446],"type":"Point"},"id":"vintersandlador.449","properties":null,"type":"Feature"}
 ,{"geometry":{"coordinates":[17.962471,59.242487],"type":"Point"},"id":"vintersandlador.450","properties":null,"type":"Feature"}
 ,{"geometry":{"coordinates":[17.970804,59.245606],"type":"Point"},"id":"vintersandlador.451","properties":null,"type":"Feature"}
 ,{"geometry":{"coordinates":[17.983071,59.241397],"type":"Point"},"id":"vintersandlador.452","properties":null,"type":"Feature"}
 ,{"geometry":{"coordinates":[17.982353,59.241544],"type":"Point"},"id":"vintersandlador.453","properties":null,"type":"Feature"}
 ,{"geometry":{"coordinates":[17.984989,59.244199],"type":"Point"},"id":"vintersandlador.454","properties":null,"type":"Feature"}
 ,{"geometry":{"coordinates":[17.98807,59.244273],"type":"Point"},"id":"vintersandlador.455","properties":null,"type":"Feature"}
 ,{"geometry":{"coordinates":[17.987644,59.244553],"type":"Point"},"id":"vintersandlador.456","properties":null,"type":"Feature"}
 ,{"geometry":{"coordinates":[17.988555,59.246182],"type":"Point"},"id":"vintersandlador.457","properties":null,"type":"Feature"}
 ,{"geometry":{"coordinates":[17.985927,59.24791],"type":"Point"},"id":"vintersandlador.458","properties":null,"type":"Feature"}
 ,{"geometry":{"coordinates":[17.985793,59.244879],"type":"Point"},"id":"vintersandlador.459","properties":null,"type":"Feature"}
 ,{"geometry":{"coordinates":[17.978261,59.249192],"type":"Point"},"id":"vintersandlador.460","properties":null,"type":"Feature"}
 ,{"geometry":{"coordinates":[17.978085,59.250462],"type":"Point"},"id":"vintersandlador.461","properties":null,"type":"Feature"}
 ,{"geometry":{"coordinates":[17.978397,59.250821],"type":"Point"},"id":"vintersandlador.462","properties":null,"type":"Feature"}
 ,{"geometry":{"coordinates":[17.979477,59.243692],"type":"Point"},"id":"vintersandlador.463","properties":null,"type":"Feature"}
 ,{"geometry":{"coordinates":[17.980485,59.246703],"type":"Point"},"id":"vintersandlador.464","properties":null,"type":"Feature"}
 ,{"geometry":{"coordinates":[17.979483,59.246782],"type":"Point"},"id":"vintersandlador.465","properties":null,"type":"Feature"}
 ,{"geometry":{"coordinates":[17.974108,59.250347],"type":"Point"},"id":"vintersandlador.466","properties":null,"type":"Feature"}
 ,{"geometry":{"coordinates":[17.99177,59.251473],"type":"Point"},"id":"vintersandlador.467","properties":null,"type":"Feature"}
 ,{"geometry":{"coordinates":[17.989683,59.253277],"type":"Point"},"id":"vintersandlador.468","properties":null,"type":"Feature"}
 ,{"geometry":{"coordinates":[17.988262,59.254159],"type":"Point"},"id":"vintersandlador.469","properties":null,"type":"Feature"}
 ,{"geometry":{"coordinates":[17.992717,59.253475],"type":"Point"},"id":"vintersandlador.470","properties":null,"type":"Feature"}
 ,{"geometry":{"coordinates":[17.986272,59.242243],"type":"Point"},"id":"vintersandlador.471","properties":null,"type":"Feature"}
 ,{"geometry":{"coordinates":[17.994905,59.253091],"type":"Point"},"id":"vintersandlador.472","properties":null,"type":"Feature"}
 ,{"geometry":{"coordinates":[17.956934,59.228744],"type":"Point"},"id":"vintersandlador.473","properties":null,"type":"Feature"}
 ,{"geometry":{"coordinates":[17.96139,59.229215],"type":"Point"},"id":"vintersandlador.474","properties":null,"type":"Feature"}
 ,{"geometry":{"coordinates":[17.964077,59.230135],"type":"Point"},"id":"vintersandlador.475","properties":null,"type":"Feature"}
 ,{"geometry":{"coordinates":[17.962485,59.230438],"type":"Point"},"id":"vintersandlador.476","properties":null,"type":"Feature"}
 ,{"geometry":{"coordinates":[17.959417,59.230319],"type":"Point"},"id":"vintersandlador.477","properties":null,"type":"Feature"}
 ,{"geometry":{"coordinates":[17.961139,59.230568],"type":"Point"},"id":"vintersandlador.478","properties":null,"type":"Feature"}
 ,{"geometry":{"coordinates":[17.967289,59.233045],"type":"Point"},"id":"vintersandlador.479","properties":null,"type":"Feature"}
 ,{"geometry":{"coordinates":[17.966107,59.234271],"type":"Point"},"id":"vintersandlador.480","properties":null,"type":"Feature"}
 ,{"geometry":{"coordinates":[17.958059,59.238929],"type":"Point"},"id":"vintersandlador.481","properties":null,"type":"Feature"}
 ,{"geometry":{"coordinates":[17.957204,59.239006],"type":"Point"},"id":"vintersandlador.482","properties":null,"type":"Feature"}
 ,{"geometry":{"coordinates":[17.978133,59.262512],"type":"Point"},"id":"vintersandlador.483","properties":null,"type":"Feature"}
 ,{"geometry":{"coordinates":[17.972249,59.263098],"type":"Point"},"id":"vintersandlador.484","properties":null,"type":"Feature"}
 ,{"geometry":{"coordinates":[17.971805,59.264024],"type":"Point"},"id":"vintersandlador.485","properties":null,"type":"Feature"}
 ,{"geometry":{"coordinates":[17.969664,59.264255],"type":"Point"},"id":"vintersandlador.486","properties":null,"type":"Feature"}
 ,{"geometry":{"coordinates":[17.982038,59.259442],"type":"Point"},"id":"vintersandlador.487","properties":null,"type":"Feature"}
 ,{"geometry":{"coordinates":[17.984959,59.255551],"type":"Point"},"id":"vintersandlador.488","properties":null,"type":"Feature"}
 ,{"geometry":{"coordinates":[17.988932,59.257027],"type":"Point"},"id":"vintersandlador.489","properties":null,"type":"Feature"}
 ,{"geometry":{"coordinates":[17.992592,59.255535],"type":"Point"},"id":"vintersandlador.490","properties":null,"type":"Feature"}
 ,{"geometry":{"coordinates":[17.992237,59.256042],"type":"Point"},"id":"vintersandlador.491","properties":null,"type":"Feature"}
 ,{"geometry":{"coordinates":[17.990938,59.25824],"type":"Point"},"id":"vintersandlador.492","properties":null,"type":"Feature"}
 ,{"geometry":{"coordinates":[17.983279,59.26129],"type":"Point"},"id":"vintersandlador.493","properties":null,"type":"Feature"}
 ,{"geometry":{"coordinates":[17.986145,59.260118],"type":"Point"},"id":"vintersandlador.494","properties":null,"type":"Feature"}
 ,{"geometry":{"coordinates":[17.987928,59.260718],"type":"Point"},"id":"vintersandlador.495","properties":null,"type":"Feature"}
 ,{"geometry":{"coordinates":[17.991212,59.259753],"type":"Point"},"id":"vintersandlador.496","properties":null,"type":"Feature"}
 ,{"geometry":{"coordinates":[17.994987,59.258639],"type":"Point"},"id":"vintersandlador.497","properties":null,"type":"Feature"}
 ,{"geometry":{"coordinates":[17.995622,59.258002],"type":"Point"},"id":"vintersandlador.498","properties":null,"type":"Feature"}
 ,{"geometry":{"coordinates":[17.985812,59.262021],"type":"Point"},"id":"vintersandlador.499","properties":null,"type":"Feature"}
 ,{"geometry":{"coordinates":[17.975704,59.252501],"type":"Point"},"id":"vintersandlador.500","properties":null,"type":"Feature"}
 ,{"geometry":{"coordinates":[17.973743,59.252895],"type":"Point"},"id":"vintersandlador.501","properties":null,"type":"Feature"}
 ,{"geometry":{"coordinates":[17.973576,59.254183],"type":"Point"},"id":"vintersandlador.502","properties":null,"type":"Feature"}
 ,{"geometry":{"coordinates":[17.971003,59.251837],"type":"Point"},"id":"vintersandlador.503","properties":null,"type":"Feature"}
 ,{"geometry":{"coordinates":[17.971065,59.25364],"type":"Point"},"id":"vintersandlador.504","properties":null,"type":"Feature"}
 ,{"geometry":{"coordinates":[17.980594,59.254488],"type":"Point"},"id":"vintersandlador.505","properties":null,"type":"Feature"}
 ,{"geometry":{"coordinates":[17.934291,59.227886],"type":"Point"},"id":"vintersandlador.506","properties":null,"type":"Feature"}
 ,{"geometry":{"coordinates":[17.929212,59.22673],"type":"Point"},"id":"vintersandlador.507","properties":null,"type":"Feature"}
 ,{"geometry":{"coordinates":[17.930433,59.227128],"type":"Point"},"id":"vintersandlador.508","properties":null,"type":"Feature"}
 ,{"geometry":{"coordinates":[17.931019,59.227422],"type":"Point"},"id":"vintersandlador.509","properties":null,"type":"Feature"}
 ,{"geometry":{"coordinates":[17.926881,59.227764],"type":"Point"},"id":"vintersandlador.510","properties":null,"type":"Feature"}
 ,{"geometry":{"coordinates":[17.921476,59.227599],"type":"Point"},"id":"vintersandlador.511","properties":null,"type":"Feature"}
 ,{"geometry":{"coordinates":[17.957287,59.21715],"type":"Point"},"id":"vintersandlador.512","properties":null,"type":"Feature"}
 ,{"geometry":{"coordinates":[17.95663,59.217255],"type":"Point"},"id":"vintersandlador.513","properties":null,"type":"Feature"}
 ,{"geometry":{"coordinates":[17.956643,59.217577],"type":"Point"},"id":"vintersandlador.514","properties":null,"type":"Feature"}
 ,{"geometry":{"coordinates":[17.948949,59.216029],"type":"Point"},"id":"vintersandlador.515","properties":null,"type":"Feature"}
 ,{"geometry":{"coordinates":[17.94716,59.220761],"type":"Point"},"id":"vintersandlador.516","properties":null,"type":"Feature"}
 ,{"geometry":{"coordinates":[17.939675,59.224775],"type":"Point"},"id":"vintersandlador.517","properties":null,"type":"Feature"}
 ,{"geometry":{"coordinates":[17.933831,59.232467],"type":"Point"},"id":"vintersandlador.518","properties":null,"type":"Feature"}
 ,{"geometry":{"coordinates":[17.937008,59.232541],"type":"Point"},"id":"vintersandlador.519","properties":null,"type":"Feature"}
 ,{"geometry":{"coordinates":[17.934799,59.233354],"type":"Point"},"id":"vintersandlador.520","properties":null,"type":"Feature"}
 ,{"geometry":{"coordinates":[17.937884,59.232806],"type":"Point"},"id":"vintersandlador.521","properties":null,"type":"Feature"}
 ,{"geometry":{"coordinates":[17.940277,59.232658],"type":"Point"},"id":"vintersandlador.522","properties":null,"type":"Feature"}
 ,{"geometry":{"coordinates":[17.941972,59.233014],"type":"Point"},"id":"vintersandlador.523","properties":null,"type":"Feature"}
 ,{"geometry":{"coordinates":[17.942172,59.23253],"type":"Point"},"id":"vintersandlador.524","properties":null,"type":"Feature"}
 ,{"geometry":{"coordinates":[17.943528,59.231877],"type":"Point"},"id":"vintersandlador.525","properties":null,"type":"Feature"}
 ,{"geometry":{"coordinates":[17.946602,59.231539],"type":"Point"},"id":"vintersandlador.526","properties":null,"type":"Feature"}
 ,{"geometry":{"coordinates":[17.910274,59.233223],"type":"Point"},"id":"vintersandlador.527","properties":null,"type":"Feature"}
 ,{"geometry":{"coordinates":[17.913087,59.239141],"type":"Point"},"id":"vintersandlador.528","properties":null,"type":"Feature"}
 ,{"geometry":{"coordinates":[17.908572,59.239091],"type":"Point"},"id":"vintersandlador.529","properties":null,"type":"Feature"}
 ,{"geometry":{"coordinates":[17.908572,59.239091],"type":"Point"},"id":"vintersandlador.530","properties":null,"type":"Feature"}
 ,{"geometry":{"coordinates":[17.906385,59.240008],"type":"Point"},"id":"vintersandlador.531","properties":null,"type":"Feature"}
 ,{"geometry":{"coordinates":[17.905059,59.240403],"type":"Point"},"id":"vintersandlador.532","properties":null,"type":"Feature"}
 ,{"geometry":{"coordinates":[17.928324,59.244138],"type":"Point"},"id":"vintersandlador.533","properties":null,"type":"Feature"}
 ,{"geometry":{"coordinates":[17.92618,59.244096],"type":"Point"},"id":"vintersandlador.534","properties":null,"type":"Feature"}
 ,{"geometry":{"coordinates":[17.917955,59.245556],"type":"Point"},"id":"vintersandlador.535","properties":null,"type":"Feature"}
 ,{"geometry":{"coordinates":[17.917604,59.249012],"type":"Point"},"id":"vintersandlador.536","properties":null,"type":"Feature"}
 ,{"geometry":{"coordinates":[17.923607,59.275978],"type":"Point"},"id":"vintersandlador.537","properties":null,"type":"Feature"}
 ,{"geometry":{"coordinates":[18.008396,59.225974],"type":"Point"},"id":"vintersandlador.538","properties":null,"type":"Feature"}
 ,{"geometry":{"coordinates":[18.012731,59.224697],"type":"Point"},"id":"vintersandlador.539","properties":null,"type":"Feature"}
 ,{"geometry":{"coordinates":[18.003249,59.225979],"type":"Point"},"id":"vintersandlador.540","properties":null,"type":"Feature"}
 ,{"geometry":{"coordinates":[18.003897,59.224869],"type":"Point"},"id":"vintersandlador.541","properties":null,"type":"Feature"}
 ,{"geometry":{"coordinates":[18.003203,59.225591],"type":"Point"},"id":"vintersandlador.542","properties":null,"type":"Feature"}
 ,{"geometry":{"coordinates":[18.004148,59.227345],"type":"Point"},"id":"vintersandlador.543","properties":null,"type":"Feature"}
 ,{"geometry":{"coordinates":[18.008899,59.225386],"type":"Point"},"id":"vintersandlador.544","properties":null,"type":"Feature"}
 ,{"geometry":{"coordinates":[17.992283,59.238887],"type":"Point"},"id":"vintersandlador.545","properties":null,"type":"Feature"}
 ,{"geometry":{"coordinates":[17.998114,59.230058],"type":"Point"},"id":"vintersandlador.546","properties":null,"type":"Feature"}
 ,{"geometry":{"coordinates":[17.999295,59.229764],"type":"Point"},"id":"vintersandlador.547","properties":null,"type":"Feature"}
 ,{"geometry":{"coordinates":[17.982399,59.23409],"type":"Point"},"id":"vintersandlador.548","properties":null,"type":"Feature"}
 ,{"geometry":{"coordinates":[17.98247,59.23486],"type":"Point"},"id":"vintersandlador.549","properties":null,"type":"Feature"}
 ,{"geometry":{"coordinates":[17.982194,59.23474],"type":"Point"},"id":"vintersandlador.550","properties":null,"type":"Feature"}
 ,{"geometry":{"coordinates":[18.117778,59.227952],"type":"Point"},"id":"vintersandlador.551","properties":null,"type":"Feature"}
 ,{"geometry":{"coordinates":[18.116007,59.229505],"type":"Point"},"id":"vintersandlador.552","properties":null,"type":"Feature"}
 ,{"geometry":{"coordinates":[18.120299,59.232266],"type":"Point"},"id":"vintersandlador.553","properties":null,"type":"Feature"}
 ,{"geometry":{"coordinates":[18.121225,59.233392],"type":"Point"},"id":"vintersandlador.554","properties":null,"type":"Feature"}
 ,{"geometry":{"coordinates":[18.108452,59.18863],"type":"Point"},"id":"vintersandlador.555","properties":null,"type":"Feature"}
 ,{"geometry":{"coordinates":[18.000139,59.229629],"type":"Point"},"id":"vintersandlador.556","properties":null,"type":"Feature"}
 ,{"geometry":{"coordinates":[18.003784,59.231341],"type":"Point"},"id":"vintersandlador.557","properties":null,"type":"Feature"}
 ,{"geometry":{"coordinates":[18.003124,59.229796],"type":"Point"},"id":"vintersandlador.558","properties":null,"type":"Feature"}
 ,{"geometry":{"coordinates":[18.000975,59.23444],"type":"Point"},"id":"vintersandlador.559","properties":null,"type":"Feature"}
 ,{"geometry":{"coordinates":[18.006659,59.238118],"type":"Point"},"id":"vintersandlador.560","properties":null,"type":"Feature"}
 ,{"geometry":{"coordinates":[18.008816,59.235983],"type":"Point"},"id":"vintersandlador.561","properties":null,"type":"Feature"}
 ,{"geometry":{"coordinates":[17.997312,59.236522],"type":"Point"},"id":"vintersandlador.562","properties":null,"type":"Feature"}
 ,{"geometry":{"coordinates":[18.004256,59.240341],"type":"Point"},"id":"vintersandlador.563","properties":null,"type":"Feature"}
 ,{"geometry":{"coordinates":[18.017551,59.238798],"type":"Point"},"id":"vintersandlador.564","properties":null,"type":"Feature"}
 ,{"geometry":{"coordinates":[18.025795,59.237006],"type":"Point"},"id":"vintersandlador.565","properties":null,"type":"Feature"}
 ,{"geometry":{"coordinates":[18.020357,59.235156],"type":"Point"},"id":"vintersandlador.566","properties":null,"type":"Feature"}
 ,{"geometry":{"coordinates":[18.010147,59.233102],"type":"Point"},"id":"vintersandlador.567","properties":null,"type":"Feature"}
 ,{"geometry":{"coordinates":[18.019401,59.236627],"type":"Point"},"id":"vintersandlador.568","properties":null,"type":"Feature"}
 ,{"geometry":{"coordinates":[18.009879,59.233831],"type":"Point"},"id":"vintersandlador.569","properties":null,"type":"Feature"}
 ,{"geometry":{"coordinates":[18.011715,59.23737],"type":"Point"},"id":"vintersandlador.570","properties":null,"type":"Feature"}
 ,{"geometry":{"coordinates":[18.013091,59.232015],"type":"Point"},"id":"vintersandlador.571","properties":null,"type":"Feature"}
 ,{"geometry":{"coordinates":[18.023163,59.231652],"type":"Point"},"id":"vintersandlador.572","properties":null,"type":"Feature"}
 ,{"geometry":{"coordinates":[18.022588,59.236067],"type":"Point"},"id":"vintersandlador.573","properties":null,"type":"Feature"}
 ,{"geometry":{"coordinates":[18.01812,59.23509],"type":"Point"},"id":"vintersandlador.574","properties":null,"type":"Feature"}
 ,{"geometry":{"coordinates":[18.012189,59.239415],"type":"Point"},"id":"vintersandlador.575","properties":null,"type":"Feature"}
 ,{"geometry":{"coordinates":[18.145177,59.20737],"type":"Point"},"id":"vintersandlador.576","properties":null,"type":"Feature"}
 ,{"geometry":{"coordinates":[18.136124,59.204671],"type":"Point"},"id":"vintersandlador.577","properties":null,"type":"Feature"}
 ,{"geometry":{"coordinates":[18.127979,59.210785],"type":"Point"},"id":"vintersandlador.578","properties":null,"type":"Feature"}
 ,{"geometry":{"coordinates":[18.130123,59.220084],"type":"Point"},"id":"vintersandlador.579","properties":null,"type":"Feature"}
 ,{"geometry":{"coordinates":[18.128465,59.220542],"type":"Point"},"id":"vintersandlador.580","properties":null,"type":"Feature"}
 ,{"geometry":{"coordinates":[18.145305,59.21205],"type":"Point"},"id":"vintersandlador.581","properties":null,"type":"Feature"}
 ,{"geometry":{"coordinates":[18.135431,59.214945],"type":"Point"},"id":"vintersandlador.582","properties":null,"type":"Feature"}
 ,{"geometry":{"coordinates":[18.131565,59.217127],"type":"Point"},"id":"vintersandlador.583","properties":null,"type":"Feature"}
 ,{"geometry":{"coordinates":[18.143098,59.212724],"type":"Point"},"id":"vintersandlador.584","properties":null,"type":"Feature"}
 ,{"geometry":{"coordinates":[18.139359,59.200288],"type":"Point"},"id":"vintersandlador.585","properties":null,"type":"Feature"}
 ,{"geometry":{"coordinates":[18.156581,59.204681],"type":"Point"},"id":"vintersandlador.586","properties":null,"type":"Feature"}
 ,{"geometry":{"coordinates":[18.158324,59.206307],"type":"Point"},"id":"vintersandlador.587","properties":null,"type":"Feature"}
 ,{"geometry":{"coordinates":[18.143908,59.202125],"type":"Point"},"id":"vintersandlador.588","properties":null,"type":"Feature"}
 ,{"geometry":{"coordinates":[18.027125,59.242673],"type":"Point"},"id":"vintersandlador.589","properties":null,"type":"Feature"}
 ,{"geometry":{"coordinates":[18.030881,59.244981],"type":"Point"},"id":"vintersandlador.590","properties":null,"type":"Feature"}
 ,{"geometry":{"coordinates":[18.026167,59.245742],"type":"Point"},"id":"vintersandlador.591","properties":null,"type":"Feature"}
 ,{"geometry":{"coordinates":[18.03583,59.247089],"type":"Point"},"id":"vintersandlador.592","properties":null,"type":"Feature"}
 ,{"geometry":{"coordinates":[18.024611,59.243284],"type":"Point"},"id":"vintersandlador.593","properties":null,"type":"Feature"}
 ,{"geometry":{"coordinates":[18.038581,59.246295],"type":"Point"},"id":"vintersandlador.594","properties":null,"type":"Feature"}
 ,{"geometry":{"coordinates":[18.026747,59.248384],"type":"Point"},"id":"vintersandlador.595","properties":null,"type":"Feature"}
 ,{"geometry":{"coordinates":[18.164753,59.216461],"type":"Point"},"id":"vintersandlador.596","properties":null,"type":"Feature"}
 ,{"geometry":{"coordinates":[18.166747,59.21755],"type":"Point"},"id":"vintersandlador.597","properties":null,"type":"Feature"}
 ,{"geometry":{"coordinates":[18.166765,59.217164],"type":"Point"},"id":"vintersandlador.598","properties":null,"type":"Feature"}
 ,{"geometry":{"coordinates":[18.167173,59.219055],"type":"Point"},"id":"vintersandlador.599","properties":null,"type":"Feature"}
 ,{"geometry":{"coordinates":[18.166359,59.214567],"type":"Point"},"id":"vintersandlador.600","properties":null,"type":"Feature"}
 ,{"geometry":{"coordinates":[18.172593,59.213444],"type":"Point"},"id":"vintersandlador.601","properties":null,"type":"Feature"}
 ,{"geometry":{"coordinates":[18.172325,59.215944],"type":"Point"},"id":"vintersandlador.602","properties":null,"type":"Feature"}
 ,{"geometry":{"coordinates":[18.004765,59.252695],"type":"Point"},"id":"vintersandlador.603","properties":null,"type":"Feature"}
 ,{"geometry":{"coordinates":[18.010625,59.25602],"type":"Point"},"id":"vintersandlador.604","properties":null,"type":"Feature"}
 ,{"geometry":{"coordinates":[18.005214,59.253671],"type":"Point"},"id":"vintersandlador.605","properties":null,"type":"Feature"}
 ,{"geometry":{"coordinates":[18.001353,59.253472],"type":"Point"},"id":"vintersandlador.606","properties":null,"type":"Feature"}
 ,{"geometry":{"coordinates":[17.998808,59.251603],"type":"Point"},"id":"vintersandlador.607","properties":null,"type":"Feature"}
 ,{"geometry":{"coordinates":[17.998434,59.252334],"type":"Point"},"id":"vintersandlador.608","properties":null,"type":"Feature"}
 ,{"geometry":{"coordinates":[18.010685,59.256006],"type":"Point"},"id":"vintersandlador.609","properties":null,"type":"Feature"}
 ,{"geometry":{"coordinates":[18.01288,59.254889],"type":"Point"},"id":"vintersandlador.610","properties":null,"type":"Feature"}
 ,{"geometry":{"coordinates":[18.154122,59.233997],"type":"Point"},"id":"vintersandlador.611","properties":null,"type":"Feature"}
 ,{"geometry":{"coordinates":[18.165558,59.233262],"type":"Point"},"id":"vintersandlador.612","properties":null,"type":"Feature"}
 ,{"geometry":{"coordinates":[18.13726,59.221443],"type":"Point"},"id":"vintersandlador.613","properties":null,"type":"Feature"}
 ,{"geometry":{"coordinates":[18.146088,59.218723],"type":"Point"},"id":"vintersandlador.614","properties":null,"type":"Feature"}
 ,{"geometry":{"coordinates":[18.155558,59.217973],"type":"Point"},"id":"vintersandlador.615","properties":null,"type":"Feature"}
 ,{"geometry":{"coordinates":[18.151348,59.218686],"type":"Point"},"id":"vintersandlador.616","properties":null,"type":"Feature"}
 ,{"geometry":{"coordinates":[18.155212,59.214475],"type":"Point"},"id":"vintersandlador.617","properties":null,"type":"Feature"}
 ,{"geometry":{"coordinates":[18.145108,59.22277],"type":"Point"},"id":"vintersandlador.618","properties":null,"type":"Feature"}
 ,{"geometry":{"coordinates":[18.146326,59.216659],"type":"Point"},"id":"vintersandlador.619","properties":null,"type":"Feature"}
 ,{"geometry":{"coordinates":[17.999789,59.224167],"type":"Point"},"id":"vintersandlador.620","properties":null,"type":"Feature"}
 ,{"geometry":{"coordinates":[17.978653,59.224078],"type":"Point"},"id":"vintersandlador.621","properties":null,"type":"Feature"}
 ,{"geometry":{"coordinates":[17.986059,59.229209],"type":"Point"},"id":"vintersandlador.622","properties":null,"type":"Feature"}
 ,{"geometry":{"coordinates":[17.983575,59.229304],"type":"Point"},"id":"vintersandlador.623","properties":null,"type":"Feature"}
 ,{"geometry":{"coordinates":[17.984229,59.229273],"type":"Point"},"id":"vintersandlador.624","properties":null,"type":"Feature"}
 ,{"geometry":{"coordinates":[17.976731,59.226115],"type":"Point"},"id":"vintersandlador.625","properties":null,"type":"Feature"}
 ,{"geometry":{"coordinates":[17.970802,59.22955],"type":"Point"},"id":"vintersandlador.626","properties":null,"type":"Feature"}
 ,{"geometry":{"coordinates":[17.970693,59.231173],"type":"Point"},"id":"vintersandlador.627","properties":null,"type":"Feature"}
 ,{"geometry":{"coordinates":[17.987032,59.22796],"type":"Point"},"id":"vintersandlador.628","properties":null,"type":"Feature"}
 ,{"geometry":{"coordinates":[17.962595,59.225102],"type":"Point"},"id":"vintersandlador.629","properties":null,"type":"Feature"}
 ,{"geometry":{"coordinates":[17.963928,59.225731],"type":"Point"},"id":"vintersandlador.630","properties":null,"type":"Feature"}
 ,{"geometry":{"coordinates":[17.965914,59.225862],"type":"Point"},"id":"vintersandlador.631","properties":null,"type":"Feature"}
 ,{"geometry":{"coordinates":[17.973469,59.229472],"type":"Point"},"id":"vintersandlador.632","properties":null,"type":"Feature"}
 ,{"geometry":{"coordinates":[17.968935,59.226697],"type":"Point"},"id":"vintersandlador.633","properties":null,"type":"Feature"}
 ,{"geometry":{"coordinates":[17.975622,59.232474],"type":"Point"},"id":"vintersandlador.634","properties":null,"type":"Feature"}
 ,{"geometry":{"coordinates":[17.971473,59.22633],"type":"Point"},"id":"vintersandlador.635","properties":null,"type":"Feature"}
 ,{"geometry":{"coordinates":[18.020188,59.246982],"type":"Point"},"id":"vintersandlador.636","properties":null,"type":"Feature"}
 ,{"geometry":{"coordinates":[18.017011,59.252683],"type":"Point"},"id":"vintersandlador.637","properties":null,"type":"Feature"}
 ,{"geometry":{"coordinates":[18.017343,59.252175],"type":"Point"},"id":"vintersandlador.638","properties":null,"type":"Feature"}
 ,{"geometry":{"coordinates":[18.01548,59.252242],"type":"Point"},"id":"vintersandlador.639","properties":null,"type":"Feature"}
 ,{"geometry":{"coordinates":[18.012224,59.251981],"type":"Point"},"id":"vintersandlador.640","properties":null,"type":"Feature"}
 ,{"geometry":{"coordinates":[18.014052,59.25325],"type":"Point"},"id":"vintersandlador.641","properties":null,"type":"Feature"}
 ,{"geometry":{"coordinates":[18.01784,59.252971],"type":"Point"},"id":"vintersandlador.642","properties":null,"type":"Feature"}
 ,{"geometry":{"coordinates":[17.996302,59.251901],"type":"Point"},"id":"vintersandlador.643","properties":null,"type":"Feature"}
 ,{"geometry":{"coordinates":[17.992634,59.244056],"type":"Point"},"id":"vintersandlador.644","properties":null,"type":"Feature"}
 ,{"geometry":{"coordinates":[18.002425,59.245182],"type":"Point"},"id":"vintersandlador.645","properties":null,"type":"Feature"}
 ,{"geometry":{"coordinates":[18.000047,59.249361],"type":"Point"},"id":"vintersandlador.646","properties":null,"type":"Feature"}
 ,{"geometry":{"coordinates":[18.01578,59.246849],"type":"Point"},"id":"vintersandlador.647","properties":null,"type":"Feature"}
 ,{"geometry":{"coordinates":[18.002306,59.249605],"type":"Point"},"id":"vintersandlador.648","properties":null,"type":"Feature"}
 ,{"geometry":{"coordinates":[17.996682,59.24492],"type":"Point"},"id":"vintersandlador.649","properties":null,"type":"Feature"}
 ,{"geometry":{"coordinates":[18.009159,59.247947],"type":"Point"},"id":"vintersandlador.650","properties":null,"type":"Feature"}
 ,{"geometry":{"coordinates":[18.008804,59.247327],"type":"Point"},"id":"vintersandlador.651","properties":null,"type":"Feature"}
 ,{"geometry":{"coordinates":[18.005348,59.248488],"type":"Point"},"id":"vintersandlador.652","properties":null,"type":"Feature"}
 ,{"geometry":{"coordinates":[18.006039,59.244402],"type":"Point"},"id":"vintersandlador.653","properties":null,"type":"Feature"}
 ,{"geometry":{"coordinates":[17.991684,59.246394],"type":"Point"},"id":"vintersandlador.654","properties":null,"type":"Feature"}
 ,{"geometry":{"coordinates":[17.996385,59.251843],"type":"Point"},"id":"vintersandlador.655","properties":null,"type":"Feature"}
 ,{"geometry":{"coordinates":[18.005135,59.244249],"type":"Point"},"id":"vintersandlador.656","properties":null,"type":"Feature"}
 ,{"geometry":{"coordinates":[17.995212,59.253332],"type":"Point"},"id":"vintersandlador.657","properties":null,"type":"Feature"}
 ,{"geometry":{"coordinates":[17.996723,59.252631],"type":"Point"},"id":"vintersandlador.658","properties":null,"type":"Feature"}
 ,{"geometry":{"coordinates":[17.996763,59.253587],"type":"Point"},"id":"vintersandlador.659","properties":null,"type":"Feature"}
 ,{"geometry":{"coordinates":[18.010327,59.249184],"type":"Point"},"id":"vintersandlador.660","properties":null,"type":"Feature"}
 ,{"geometry":{"coordinates":[18.00888,59.24973],"type":"Point"},"id":"vintersandlador.661","properties":null,"type":"Feature"}
 ,{"geometry":{"coordinates":[17.996595,59.244887],"type":"Point"},"id":"vintersandlador.662","properties":null,"type":"Feature"}
 ,{"geometry":{"coordinates":[18.00827,59.248156],"type":"Point"},"id":"vintersandlador.663","properties":null,"type":"Feature"}
 ,{"geometry":{"coordinates":[18.009871,59.245495],"type":"Point"},"id":"vintersandlador.664","properties":null,"type":"Feature"}
 ,{"geometry":{"coordinates":[18.015849,59.246775],"type":"Point"},"id":"vintersandlador.665","properties":null,"type":"Feature"}
 ,{"geometry":{"coordinates":[18.066746,59.236174],"type":"Point"},"id":"vintersandlador.666","properties":null,"type":"Feature"}
 ,{"geometry":{"coordinates":[17.999759,59.224111],"type":"Point"},"id":"vintersandlador.667","properties":null,"type":"Feature"}
 ,{"geometry":{"coordinates":[17.993204,59.227594],"type":"Point"},"id":"vintersandlador.668","properties":null,"type":"Feature"}
 ,{"geometry":{"coordinates":[17.988183,59.22885],"type":"Point"},"id":"vintersandlador.669","properties":null,"type":"Feature"}
 ,{"geometry":{"coordinates":[18.126486,59.240254],"type":"Point"},"id":"vintersandlador.670","properties":null,"type":"Feature"}
 ,{"geometry":{"coordinates":[18.126269,59.240056],"type":"Point"},"id":"vintersandlador.671","properties":null,"type":"Feature"}
 ,{"geometry":{"coordinates":[18.146718,59.226042],"type":"Point"},"id":"vintersandlador.672","properties":null,"type":"Feature"}
 ,{"geometry":{"coordinates":[18.139787,59.229526],"type":"Point"},"id":"vintersandlador.673","properties":null,"type":"Feature"}
 ,{"geometry":{"coordinates":[18.128385,59.239032],"type":"Point"},"id":"vintersandlador.674","properties":null,"type":"Feature"}
 ,{"geometry":{"coordinates":[18.134911,59.22851],"type":"Point"},"id":"vintersandlador.675","properties":null,"type":"Feature"}
 ,{"geometry":{"coordinates":[18.134911,59.22851],"type":"Point"},"id":"vintersandlador.676","properties":null,"type":"Feature"}
 ,{"geometry":{"coordinates":[18.124607,59.237584],"type":"Point"},"id":"vintersandlador.677","properties":null,"type":"Feature"}
 ,{"geometry":{"coordinates":[18.139984,59.232243],"type":"Point"},"id":"vintersandlador.678","properties":null,"type":"Feature"}
 ,{"geometry":{"coordinates":[18.144011,59.23473],"type":"Point"},"id":"vintersandlador.679","properties":null,"type":"Feature"}
 ,{"geometry":{"coordinates":[18.151692,59.227995],"type":"Point"},"id":"vintersandlador.680","properties":null,"type":"Feature"}
 ,{"geometry":{"coordinates":[18.130831,59.229592],"type":"Point"},"id":"vintersandlador.681","properties":null,"type":"Feature"}
 ,{"geometry":{"coordinates":[18.156565,59.232095],"type":"Point"},"id":"vintersandlador.682","properties":null,"type":"Feature"}
 ,{"geometry":{"coordinates":[18.139919,59.236964],"type":"Point"},"id":"vintersandlador.683","properties":null,"type":"Feature"}
 ,{"geometry":{"coordinates":[18.139188,59.234004],"type":"Point"},"id":"vintersandlador.684","properties":null,"type":"Feature"}
 ,{"geometry":{"coordinates":[18.136807,59.236421],"type":"Point"},"id":"vintersandlador.685","properties":null,"type":"Feature"}
 ,{"geometry":{"coordinates":[18.131829,59.2254],"type":"Point"},"id":"vintersandlador.686","properties":null,"type":"Feature"}
 ,{"geometry":{"coordinates":[18.129754,59.2323],"type":"Point"},"id":"vintersandlador.687","properties":null,"type":"Feature"}
 ,{"geometry":{"coordinates":[18.125082,59.238859],"type":"Point"},"id":"vintersandlador.688","properties":null,"type":"Feature"}
 ,{"geometry":{"coordinates":[18.144624,59.236875],"type":"Point"},"id":"vintersandlador.689","properties":null,"type":"Feature"}
 ,{"geometry":{"coordinates":[18.13031,59.23398],"type":"Point"},"id":"vintersandlador.690","properties":null,"type":"Feature"}
 ,{"geometry":{"coordinates":[18.142084,59.237085],"type":"Point"},"id":"vintersandlador.691","properties":null,"type":"Feature"}
 ,{"geometry":{"coordinates":[18.021882,59.211075],"type":"Point"},"id":"vintersandlador.692","properties":null,"type":"Feature"}
 ,{"geometry":{"coordinates":[18.054779,59.192951],"type":"Point"},"id":"vintersandlador.693","properties":null,"type":"Feature"}
 ,{"geometry":{"coordinates":[18.052371,59.194719],"type":"Point"},"id":"vintersandlador.694","properties":null,"type":"Feature"}
 ,{"geometry":{"coordinates":[18.051855,59.194722],"type":"Point"},"id":"vintersandlador.695","properties":null,"type":"Feature"}
 ,{"geometry":{"coordinates":[18.056963,59.193151],"type":"Point"},"id":"vintersandlador.696","properties":null,"type":"Feature"}
 ,{"geometry":{"coordinates":[18.056232,59.196371],"type":"Point"},"id":"vintersandlador.697","properties":null,"type":"Feature"}
 ,{"geometry":{"coordinates":[18.054059,59.197013],"type":"Point"},"id":"vintersandlador.698","properties":null,"type":"Feature"}
 ,{"geometry":{"coordinates":[18.054603,59.197035],"type":"Point"},"id":"vintersandlador.699","properties":null,"type":"Feature"}
 ,{"geometry":{"coordinates":[18.053503,59.199402],"type":"Point"},"id":"vintersandlador.700","properties":null,"type":"Feature"}
 ,{"geometry":{"coordinates":[18.05402,59.198837],"type":"Point"},"id":"vintersandlador.701","properties":null,"type":"Feature"}
 ,{"geometry":{"coordinates":[18.054826,59.199752],"type":"Point"},"id":"vintersandlador.702","properties":null,"type":"Feature"}
 ,{"geometry":{"coordinates":[18.057042,59.199841],"type":"Point"},"id":"vintersandlador.703","properties":null,"type":"Feature"}
 ,{"geometry":{"coordinates":[18.057614,59.198649],"type":"Point"},"id":"vintersandlador.704","properties":null,"type":"Feature"}
 ,{"geometry":{"coordinates":[18.058918,59.195786],"type":"Point"},"id":"vintersandlador.705","properties":null,"type":"Feature"}
 ,{"geometry":{"coordinates":[18.051558,59.187034],"type":"Point"},"id":"vintersandlador.706","properties":null,"type":"Feature"}
 ,{"geometry":{"coordinates":[18.055095,59.201021],"type":"Point"},"id":"vintersandlador.707","properties":null,"type":"Feature"}
 ,{"geometry":{"coordinates":[18.061511,59.204116],"type":"Point"},"id":"vintersandlador.708","properties":null,"type":"Feature"}
 ,{"geometry":{"coordinates":[18.060317,59.201688],"type":"Point"},"id":"vintersandlador.709","properties":null,"type":"Feature"}
 ,{"geometry":{"coordinates":[18.061564,59.202354],"type":"Point"},"id":"vintersandlador.710","properties":null,"type":"Feature"}
 ,{"geometry":{"coordinates":[18.063399,59.202395],"type":"Point"},"id":"vintersandlador.711","properties":null,"type":"Feature"}
 ,{"geometry":{"coordinates":[18.064797,59.205553],"type":"Point"},"id":"vintersandlador.712","properties":null,"type":"Feature"}
 ,{"geometry":{"coordinates":[18.066079,59.204106],"type":"Point"},"id":"vintersandlador.713","properties":null,"type":"Feature"}
 ,{"geometry":{"coordinates":[18.064283,59.200354],"type":"Point"},"id":"vintersandlador.714","properties":null,"type":"Feature"}
 ,{"geometry":{"coordinates":[18.069142,59.199423],"type":"Point"},"id":"vintersandlador.715","properties":null,"type":"Feature"}
 ,{"geometry":{"coordinates":[18.054629,59.189371],"type":"Point"},"id":"vintersandlador.716","properties":null,"type":"Feature"}
 ,{"geometry":{"coordinates":[18.054795,59.189582],"type":"Point"},"id":"vintersandlador.717","properties":null,"type":"Feature"}
 ,{"geometry":{"coordinates":[18.054916,59.190143],"type":"Point"},"id":"vintersandlador.718","properties":null,"type":"Feature"}
 ]
}