{
  "type": "FeatureCollection",
  "features": [
    {
      "type": "Feature",
      "geometry": {
        "type": "Point",
        "coordinates": [
          12.327746,
          57.34126
        ]
      },
      "properties": {
        "td_url": "",
        "parking": "TRUE",
        "country": "SE",
        "wheelchair": "FALSE",
        "city": "Frillesås",
        "accessibility": "",
        "cabin": "FALSE",
        "description": "",
        "snowmobile_trail": "FALSE",
        "source": "2120001256",
        "wind_shelter": "FALSE",
        "trashbin": "FALSE",
        "playground": "FALSE",
        "id": "1384-gp-Lillesjostugan",
        "email": "teknik@kungsbacka.se",
        "table": "TRUE",
        "service_interval": "UNKNOWN",
        "campground": "",
        "namn": "Lillesjöstugans grillplats",
        "grate": "TRUE",
        "postcode": "43964",
        "restrictions": "",
        "boat_required": "FALSE",
        "water": "TRUE",
        "seating": "TRUE",
        "toilet": "FALSE",
        "visit_url": "",
        "beach": "TRUE",
        "shoreline": "TRUE",
        "wood_storage": "FALSE",
        "drinking_water": "FALSE",
        "updated": "2025-06-27",
        "wikidata": ""
      }
    },
    {
      "type": "Feature",
      "geometry": {
        "type": "Point",
        "coordinates": [
          12.341251,
          57.338379
        ]
      },
      "properties": {
        "td_url": "",
        "parking": "TRUE",
        "country": "SE",
        "wheelchair": "FALSE",
        "city": "Frillesås",
        "accessibility": "",
        "cabin": "FALSE",
        "description": "",
        "snowmobile_trail": "FALSE",
        "source": "2120001256",
        "wind_shelter": "FALSE",
        "trashbin": "TRUE",
        "playground": "FALSE",
        "id": "1384-gp-Stattared",
        "email": "teknik@kungsbacka.se",
        "table": "TRUE",
        "service_interval": "QUARTERLY",
        "campground": "",
        "namn": "Stättareds grillplats",
        "grate": "TRUE",
        "postcode": "43964",
        "restrictions": "",
        "boat_required": "FALSE",
        "water": "TRUE",
        "seating": "TRUE",
        "toilet": "TRUE",
        "visit_url": "",
        "beach": "FALSE",
        "shoreline": "FALSE",
        "wood_storage": "TRUE",
        "drinking_water": "TRUE",
        "updated": "2025-06-27",
        "wikidata": ""
      }
    },
    {
      "type": "Feature",
      "geometry": {
        "type": "Point",
        "coordinates": [
          12.348685,
          57.338681
        ]
      },
      "properties": {
        "td_url": "",
        "parking": "FALSE",
        "country": "SE",
        "wheelchair": "FALSE",
        "city": "Frillesås",
        "accessibility": "",
        "cabin": "FALSE",
        "description": "",
        "snowmobile_trail": "FALSE",
        "source": "2120001256",
        "wind_shelter": "FALSE",
        "trashbin": "FALSE",
        "playground": "FALSE",
        "id": "1384-gp-StattaredTomtarochTroll",
        "email": "teknik@kungsbacka.se",
        "table": "FALSE",
        "service_interval": "YEARLY",
        "campground": "",
        "namn": "Stättared tomtar&troll grillplats",
        "grate": "TRUE",
        "postcode": "43964",
        "restrictions": "",
        "boat_required": "FALSE",
        "water": "FALSE",
        "seating": "FALSE",
        "toilet": "FALSE",
        "visit_url": "",
        "beach": "FALSE",
        "shoreline": "FALSE",
        "wood_storage": "FALSE",
        "drinking_water": "FALSE",
        "updated": "2025-06-27",
        "wikidata": ""
      }
    },
    {
      "type": "Feature",
      "geometry": {
        "type": "Point",
        "coordinates": [
          12.353074,
          57.345399
        ]
      },
      "properties": {
        "td_url": "",
        "parking": "FALSE",
        "country": "SE",
        "wheelchair": "FALSE",
        "city": "Frillesås",
        "accessibility": "",
        "cabin": "FALSE",
        "description": "",
        "snowmobile_trail": "FALSE",
        "source": "2120001256",
        "wind_shelter": "TRUE",
        "trashbin": "TRUE",
        "playground": "FALSE",
        "id": "1384-gp-StattaredVindskyddN",
        "email": "teknik@kungsbacka.se",
        "table": "TRUE",
        "service_interval": "WEEKLY",
        "campground": "",
        "namn": "Stättareds vindskydd grillplats N",
        "grate": "TRUE",
        "postcode": "43964",
        "restrictions": "",
        "boat_required": "FALSE",
        "water": "TRUE",
        "seating": "TRUE",
        "toilet": "TRUE",
        "visit_url": "",
        "beach": "TRUE",
        "shoreline": "TRUE",
        "wood_storage": "TRUE",
        "drinking_water": "FALSE",
        "updated": "2025-06-27",
        "wikidata": ""
      }
    },
    {
      "type": "Feature",
      "geometry": {
        "type": "Point",
        "coordinates": [
          12.353177,
          57.34531
        ]
      },
      "properties": {
        "td_url": "",
        "parking": "FALSE",
        "country": "SE",
        "wheelchair": "FALSE",
        "city": "Frillesås",
        "accessibility": "",
        "cabin": "FALSE",
        "description": "",
        "snowmobile_trail": "FALSE",
        "source": "2120001256",
        "wind_shelter": "TRUE",
        "trashbin": "TRUE",
        "playground": "FALSE",
        "id": "1384-gp-StattaredVindskyddS",
        "email": "teknik@kungsbacka.se",
        "table": "TRUE",
        "service_interval": "WEEKLY",
        "campground": "",
        "namn": "Stättareds vindskydd grillplats S",
        "grate": "TRUE",
        "postcode": "43964",
        "restrictions": "",
        "boat_required": "FALSE",
        "water": "TRUE",
        "seating": "TRUE",
        "toilet": "TRUE",
        "visit_url": "",
        "beach": "TRUE",
        "shoreline": "TRUE",
        "wood_storage": "TRUE",
        "drinking_water": "FALSE",
        "updated": "2025-06-27",
        "wikidata": ""
      }
    },
    {
      "type": "Feature",
      "geometry": {
        "type": "Point",
        "coordinates": [
          12.281564,
          57.424963
        ]
      },
      "properties": {
        "td_url": "",
        "parking": "TRUE",
        "country": "SE",
        "wheelchair": "FALSE",
        "city": "Fjärås",
        "accessibility": "",
        "cabin": "FALSE",
        "description": "",
        "snowmobile_trail": "FALSE",
        "source": "2120001256",
        "wind_shelter": "TRUE",
        "trashbin": "TRUE",
        "playground": "FALSE",
        "id": "1384-gp-Askhult",
        "email": "teknik@kungsbacka.se",
        "table": "TRUE",
        "service_interval": "WEEKLY",
        "campground": "",
        "namn": "Äskhults grillplats",
        "grate": "TRUE",
        "postcode": "43975",
        "restrictions": "Toa 70 m",
        "boat_required": "FALSE",
        "water": "TRUE",
        "seating": "TRUE",
        "toilet": "TRUE",
        "visit_url": "",
        "beach": "FALSE",
        "shoreline": "FALSE",
        "wood_storage": "TRUE",
        "drinking_water": "TRUE",
        "updated": "2025-06-27",
        "wikidata": ""
      }
    },
    {
      "type": "Feature",
      "geometry": {
        "type": "Point",
        "coordinates": [
          12.23938,
          57.444096
        ]
      },
      "properties": {
        "td_url": "",
        "parking": "FALSE",
        "country": "SE",
        "wheelchair": "FALSE",
        "city": "Fjärås",
        "accessibility": "",
        "cabin": "FALSE",
        "description": "",
        "snowmobile_trail": "FALSE",
        "source": "2120001256",
        "wind_shelter": "FALSE",
        "trashbin": "TRUE",
        "playground": "FALSE",
        "id": "1384-gp-GaddevikN",
        "email": "teknik@kungsbacka.se",
        "table": "TRUE",
        "service_interval": "WEEKLY",
        "campground": "",
        "namn": "Gäddeviks grillplats N",
        "grate": "TRUE",
        "postcode": "43974",
        "restrictions": "",
        "boat_required": "FALSE",
        "water": "TRUE",
        "seating": "TRUE",
        "toilet": "TRUE",
        "visit_url": "",
        "beach": "TRUE",
        "shoreline": "TRUE",
        "wood_storage": "TRUE",
        "drinking_water": "TRUE",
        "updated": "2025-06-27",
        "wikidata": ""
      }
    },
    {
      "type": "Feature",
      "geometry": {
        "type": "Point",
        "coordinates": [
          12.23779,
          57.442756
        ]
      },
      "properties": {
        "td_url": "",
        "parking": "FALSE",
        "country": "SE",
        "wheelchair": "FALSE",
        "city": "Fjärås",
        "accessibility": "",
        "cabin": "FALSE",
        "description": "",
        "snowmobile_trail": "FALSE",
        "source": "2120001256",
        "wind_shelter": "FALSE",
        "trashbin": "TRUE",
        "playground": "FALSE",
        "id": "1384-gp-GaddevikS",
        "email": "teknik@kungsbacka.se",
        "table": "TRUE",
        "service_interval": "WEEKLY",
        "campground": "",
        "namn": "Gäddeviks grillplats S",
        "grate": "TRUE",
        "postcode": "43974",
        "restrictions": "",
        "boat_required": "FALSE",
        "water": "TRUE",
        "seating": "TRUE",
        "toilet": "TRUE",
        "visit_url": "",
        "beach": "TRUE",
        "shoreline": "TRUE",
        "wood_storage": "TRUE",
        "drinking_water": "FALSE",
        "updated": "2025-06-27",
        "wikidata": ""
      }
    },
    {
      "type": "Feature",
      "geometry": {
        "type": "Point",
        "coordinates": [
          12.185277,
          57.446176
        ]
      },
      "properties": {
        "td_url": "",
        "parking": "TRUE",
        "country": "SE",
        "wheelchair": "FALSE",
        "city": "Fjärås",
        "accessibility": "",
        "cabin": "FALSE",
        "description": "",
        "snowmobile_trail": "FALSE",
        "source": "2120001256",
        "wind_shelter": "FALSE",
        "trashbin": "TRUE",
        "playground": "FALSE",
        "id": "1384-gp-NaturumN",
        "email": "teknik@kungsbacka.se",
        "table": "TRUE",
        "service_interval": "MONTHLY",
        "campground": "",
        "namn": "Naturums grillplats N",
        "grate": "TRUE",
        "postcode": "43974",
        "restrictions": "",
        "boat_required": "FALSE",
        "water": "TRUE",
        "seating": "TRUE",
        "toilet": "TRUE",
        "visit_url": "",
        "beach": "FALSE",
        "shoreline": "FALSE",
        "wood_storage": "",
        "drinking_water": "TRUE",
        "updated": "2025-06-27",
        "wikidata": ""
      }
    },
    {
      "type": "Feature",
      "geometry": {
        "type": "Point",
        "coordinates": [
          12.185849,
          57.44536
        ]
      },
      "properties": {
        "td_url": "",
        "parking": "TRUE",
        "country": "SE",
        "wheelchair": "FALSE",
        "city": "Fjärås",
        "accessibility": "",
        "cabin": "FALSE",
        "description": "",
        "snowmobile_trail": "FALSE",
        "source": "2120001256",
        "wind_shelter": "FALSE",
        "trashbin": "TRUE",
        "playground": "FALSE",
        "id": "1384-gp-NaturumS",
        "email": "teknik@kungsbacka.se",
        "table": "TRUE",
        "service_interval": "MONTHLY",
        "campground": "",
        "namn": "Naturums grillplats S",
        "grate": "TRUE",
        "postcode": "43974",
        "restrictions": "",
        "boat_required": "FALSE",
        "water": "TRUE",
        "seating": "TRUE",
        "toilet": "TRUE",
        "visit_url": "",
        "beach": "FALSE",
        "shoreline": "FALSE",
        "wood_storage": "",
        "drinking_water": "TRUE",
        "updated": "2025-06-27",
        "wikidata": ""
      }
    },
    {
      "type": "Feature",
      "geometry": {
        "type": "Point",
        "coordinates": [
          12.18857,
          57.446973
        ]
      },
      "properties": {
        "td_url": "",
        "parking": "FALSE",
        "country": "SE",
        "wheelchair": "FALSE",
        "city": "Fjärås",
        "accessibility": "",
        "cabin": "FALSE",
        "description": "",
        "snowmobile_trail": "FALSE",
        "source": "2120001256",
        "wind_shelter": "FALSE",
        "trashbin": "TRUE",
        "playground": "FALSE",
        "id": "1384-gp-BrackavikenN",
        "email": "teknik@kungsbacka.se",
        "table": "TRUE",
        "service_interval": "WEEKLY",
        "campground": "",
        "namn": "Bräckavikens grillplats N",
        "grate": "TRUE",
        "postcode": "43974",
        "restrictions": "",
        "boat_required": "FALSE",
        "water": "TRUE",
        "seating": "TRUE",
        "toilet": "FALSE",
        "visit_url": "",
        "beach": "TRUE",
        "shoreline": "TRUE",
        "wood_storage": "TRUE",
        "drinking_water": "FALSE",
        "updated": "2025-06-27",
        "wikidata": ""
      }
    },
    {
      "type": "Feature",
      "geometry": {
        "type": "Point",
        "coordinates": [
          12.188674,
          57.44674
        ]
      },
      "properties": {
        "td_url": "",
        "parking": "FALSE",
        "country": "SE",
        "wheelchair": "FALSE",
        "city": "Fjärås",
        "accessibility": "",
        "cabin": "FALSE",
        "description": "",
        "snowmobile_trail": "FALSE",
        "source": "2120001256",
        "wind_shelter": "FALSE",
        "trashbin": "TRUE",
        "playground": "FALSE",
        "id": "1384-gp-BrackavikenS",
        "email": "teknik@kungsbacka.se",
        "table": "TRUE",
        "service_interval": "WEEKLY",
        "campground": "",
        "namn": "Bräckavikens grillplats S",
        "grate": "TRUE",
        "postcode": "43974",
        "restrictions": "",
        "boat_required": "FALSE",
        "water": "TRUE",
        "seating": "TRUE",
        "toilet": "FALSE",
        "visit_url": "",
        "beach": "TRUE",
        "shoreline": "TRUE",
        "wood_storage": "TRUE",
        "drinking_water": "FALSE",
        "updated": "2025-06-27",
        "wikidata": ""
      }
    },
    {
      "type": "Feature",
      "geometry": {
        "type": "Point",
        "coordinates": [
          12.258984,
          57.48892
        ]
      },
      "properties": {
        "td_url": "",
        "parking": "FALSE",
        "country": "SE",
        "wheelchair": "FALSE",
        "city": "Fjärås",
        "accessibility": "",
        "cabin": "TRUE",
        "description": "",
        "snowmobile_trail": "FALSE",
        "source": "2120001256",
        "wind_shelter": "TRUE",
        "trashbin": "FALSE",
        "playground": "FALSE",
        "id": "1384-gp-SundsjonsLagerplats",
        "email": "teknik@kungsbacka.se",
        "table": "TRUE",
        "service_interval": "",
        "campground": "",
        "namn": "Sundsjöns lägerplats grillplats",
        "grate": "TRUE",
        "postcode": "43972",
        "restrictions": "Toa ca 400m, Underhåll veckovis på sommaren, ej vinterunderhåll",
        "boat_required": "FALSE",
        "water": "TRUE",
        "seating": "TRUE",
        "toilet": "",
        "visit_url": "",
        "beach": "TRUE",
        "shoreline": "TRUE",
        "wood_storage": "TRUE",
        "drinking_water": "FALSE",
        "updated": "2025-06-27",
        "wikidata": ""
      }
    },
    {
      "type": "Feature",
      "geometry": {
        "type": "Point",
        "coordinates": [
          12.175599,
          57.493953
        ]
      },
      "properties": {
        "td_url": "",
        "parking": "FALSE",
        "country": "SE",
        "wheelchair": "FALSE",
        "city": "Kungsbacka",
        "accessibility": "",
        "cabin": "FALSE",
        "description": "",
        "snowmobile_trail": "FALSE",
        "source": "2120001256",
        "wind_shelter": "TRUE",
        "trashbin": "FALSE",
        "playground": "FALSE",
        "id": "1384-gp-Stensjon",
        "email": "teknik@kungsbacka.se",
        "table": "TRUE",
        "service_interval": "QUARTERLY",
        "campground": "",
        "namn": "Stensjöns grillplats",
        "grate": "TRUE",
        "postcode": "43497",
        "restrictions": "Toa ca 500m",
        "boat_required": "FALSE",
        "water": "TRUE",
        "seating": "TRUE",
        "toilet": "",
        "visit_url": "",
        "beach": "TRUE",
        "shoreline": "TRUE",
        "wood_storage": "TRUE",
        "drinking_water": "FALSE",
        "updated": "2025-06-27",
        "wikidata": ""
      }
    },
    {
      "type": "Feature",
      "geometry": {
        "type": "Point",
        "coordinates": [
          12.179133,
          57.505432
        ]
      },
      "properties": {
        "td_url": "",
        "parking": "FALSE",
        "country": "SE",
        "wheelchair": "FALSE",
        "city": "Kungsbacka",
        "accessibility": "",
        "cabin": "FALSE",
        "description": "",
        "snowmobile_trail": "FALSE",
        "source": "2120001256",
        "wind_shelter": "FALSE",
        "trashbin": "",
        "playground": "FALSE",
        "id": "1384-gp-StoraIglakarr",
        "email": "teknik@kungsbacka.se",
        "table": "TRUE",
        "service_interval": "",
        "campground": "",
        "namn": "Stora Iglakärrs grillplats",
        "grate": "TRUE",
        "postcode": "43497",
        "restrictions": "Sommartoa, Sommarsopor, Underhåll veckovis på sommaren, ej vinterunderhåll",
        "boat_required": "FALSE",
        "water": "TRUE",
        "seating": "TRUE",
        "toilet": "",
        "visit_url": "",
        "beach": "TRUE",
        "shoreline": "TRUE",
        "wood_storage": "FALSE",
        "drinking_water": "FALSE",
        "updated": "2025-06-27",
        "wikidata": ""
      }
    },
    {
      "type": "Feature",
      "geometry": {
        "type": "Point",
        "coordinates": [
          12.054644,
          57.485193
        ]
      },
      "properties": {
        "td_url": "",
        "parking": "FALSE",
        "country": "SE",
        "wheelchair": "FALSE",
        "city": "Kungsbacka",
        "accessibility": "",
        "cabin": "FALSE",
        "description": "",
        "snowmobile_trail": "FALSE",
        "source": "2120001256",
        "wind_shelter": "FALSE",
        "trashbin": "TRUE",
        "playground": "TRUE",
        "id": "1384-gp-Kungsbackaskogen1",
        "email": "teknik@kungsbacka.se",
        "table": "TRUE",
        "service_interval": "QUARTERLY",
        "campground": "",
        "namn": "Kungsbackaskogens grillplats 1",
        "grate": "TRUE",
        "postcode": "43431",
        "restrictions": "",
        "boat_required": "FALSE",
        "water": "TRUE",
        "seating": "TRUE",
        "toilet": "TRUE",
        "visit_url": "",
        "beach": "FALSE",
        "shoreline": "FALSE",
        "wood_storage": "FALSE",
        "drinking_water": "TRUE",
        "updated": "2025-06-27",
        "wikidata": ""
      }
    },
    {
      "type": "Feature",
      "geometry": {
        "type": "Point",
        "coordinates": [
          11.972837,
          57.481057
        ]
      },
      "properties": {
        "td_url": "",
        "parking": "FALSE",
        "country": "SE",
        "wheelchair": "FALSE",
        "city": "Vallda",
        "accessibility": "",
        "cabin": "FALSE",
        "description": "",
        "snowmobile_trail": "FALSE",
        "source": "2120001256",
        "wind_shelter": "FALSE",
        "trashbin": "FALSE",
        "playground": "FALSE",
        "id": "1384-gp-ValldaPalta",
        "email": "teknik@kungsbacka.se",
        "table": "TRUE",
        "service_interval": "YEARLY",
        "campground": "",
        "namn": "Vallda Palta grillplats",
        "grate": "TRUE",
        "postcode": "43494",
        "restrictions": "",
        "boat_required": "FALSE",
        "water": "FALSE",
        "seating": "TRUE",
        "toilet": "FALSE",
        "visit_url": "",
        "beach": "FALSE",
        "shoreline": "FALSE",
        "wood_storage": "FALSE",
        "drinking_water": "FALSE",
        "updated": "2025-06-27",
        "wikidata": ""
      }
    },
    {
      "type": "Feature",
      "geometry": {
        "type": "Point",
        "coordinates": [
          11.919165,
          57.457582
        ]
      },
      "properties": {
        "td_url": "",
        "parking": "FALSE",
        "country": "SE",
        "wheelchair": "FALSE",
        "city": "Vallda",
        "accessibility": "",
        "cabin": "FALSE",
        "description": "",
        "snowmobile_trail": "FALSE",
        "source": "2120001256",
        "wind_shelter": "FALSE",
        "trashbin": "TRUE",
        "playground": "FALSE",
        "id": "1384-gp-Lerkil",
        "email": "teknik@kungsbacka.se",
        "table": "TRUE",
        "service_interval": "",
        "campground": "",
        "namn": "Lerkils grillplats",
        "grate": "TRUE",
        "postcode": "43493",
        "restrictions": "Underhåll veckovis på sommaren, ej vinterunderhåll",
        "boat_required": "FALSE",
        "water": "TRUE",
        "seating": "TRUE",
        "toilet": "TRUE",
        "visit_url": "",
        "beach": "TRUE",
        "shoreline": "TRUE",
        "wood_storage": "FALSE",
        "drinking_water": "TRUE",
        "updated": "2025-06-27",
        "wikidata": ""
      }
    },
    {
      "type": "Feature",
      "geometry": {
        "type": "Point",
        "coordinates": [
          11.919038,
          57.430209
        ]
      },
      "properties": {
        "td_url": "",
        "parking": "TRUE",
        "country": "SE",
        "wheelchair": "FALSE",
        "city": "Vallda",
        "accessibility": "",
        "cabin": "FALSE",
        "description": "",
        "snowmobile_trail": "FALSE",
        "source": "2120001256",
        "wind_shelter": "FALSE",
        "trashbin": "TRUE",
        "playground": "FALSE",
        "id": "1384-gp-SmarholmenN",
        "email": "teknik@kungsbacka.se",
        "table": "TRUE",
        "service_interval": "",
        "campground": "",
        "namn": "Smarholmens grillplats N",
        "grate": "TRUE",
        "postcode": "43492",
        "restrictions": "Underhåll veckovis på sommaren, ej vinterunderhåll",
        "boat_required": "FALSE",
        "water": "TRUE",
        "seating": "TRUE",
        "toilet": "TRUE",
        "visit_url": "",
        "beach": "TRUE",
        "shoreline": "TRUE",
        "wood_storage": "FALSE",
        "drinking_water": "TRUE",
        "updated": "2025-06-27",
        "wikidata": ""
      }
    },
    {
      "type": "Feature",
      "geometry": {
        "type": "Point",
        "coordinates": [
          11.918268,
          57.429004
        ]
      },
      "properties": {
        "td_url": "",
        "parking": "FALSE",
        "country": "SE",
        "wheelchair": "FALSE",
        "city": "Vallda",
        "accessibility": "",
        "cabin": "FALSE",
        "description": "",
        "snowmobile_trail": "FALSE",
        "source": "2120001256",
        "wind_shelter": "FALSE",
        "trashbin": "TRUE",
        "playground": "FALSE",
        "id": "1384-gp-SmarholmenS",
        "email": "teknik@kungsbacka.se",
        "table": "TRUE",
        "service_interval": "",
        "campground": "",
        "namn": "Smarholmens grillplats S",
        "grate": "TRUE",
        "postcode": "43492",
        "restrictions": "Underhåll veckovis på sommaren, ej vinterunderhåll",
        "boat_required": "FALSE",
        "water": "TRUE",
        "seating": "TRUE",
        "toilet": "TRUE",
        "visit_url": "",
        "beach": "TRUE",
        "shoreline": "TRUE",
        "wood_storage": "FALSE",
        "drinking_water": "TRUE",
        "updated": "2025-06-27",
        "wikidata": ""
      }
    },
    {
      "type": "Feature",
      "geometry": {
        "type": "Point",
        "coordinates": [
          12.025069,
          57.389903
        ]
      },
      "properties": {
        "td_url": "",
        "parking": "FALSE",
        "country": "SE",
        "wheelchair": "FALSE",
        "city": "Onsala",
        "accessibility": "",
        "cabin": "FALSE",
        "description": "",
        "snowmobile_trail": "FALSE",
        "source": "2120001256",
        "wind_shelter": "FALSE",
        "trashbin": "",
        "playground": "FALSE",
        "id": "1384-gp-UtholmenV",
        "email": "teknik@kungsbacka.se",
        "table": "TRUE",
        "service_interval": "",
        "campground": "",
        "namn": "Utholmens grillplats V",
        "grate": "TRUE",
        "postcode": "43994",
        "restrictions": "Sommarsopor, Underhåll veckovis på sommaren, ej vinterunderhåll",
        "boat_required": "FALSE",
        "water": "TRUE",
        "seating": "TRUE",
        "toilet": "TRUE",
        "visit_url": "",
        "beach": "TRUE",
        "shoreline": "TRUE",
        "wood_storage": "FALSE",
        "drinking_water": "TRUE",
        "updated": "2025-06-27",
        "wikidata": ""
      }
    },
    {
      "type": "Feature",
      "geometry": {
        "type": "Point",
        "coordinates": [
          12.02625,
          57.389924
        ]
      },
      "properties": {
        "td_url": "",
        "parking": "FALSE",
        "country": "SE",
        "wheelchair": "FALSE",
        "city": "Onsala",
        "accessibility": "",
        "cabin": "FALSE",
        "description": "",
        "snowmobile_trail": "FALSE",
        "source": "2120001256",
        "wind_shelter": "FALSE",
        "trashbin": "",
        "playground": "FALSE",
        "id": "1384-gp-UtholmenO",
        "email": "teknik@kungsbacka.se",
        "table": "TRUE",
        "service_interval": "",
        "campground": "",
        "namn": "Utholmens grillplats Ö",
        "grate": "TRUE",
        "postcode": "43994",
        "restrictions": "Sommarsopor, Underhåll veckovis på sommaren, ej vinterunderhåll",
        "boat_required": "FALSE",
        "water": "TRUE",
        "seating": "TRUE",
        "toilet": "TRUE",
        "visit_url": "",
        "beach": "TRUE",
        "shoreline": "TRUE",
        "wood_storage": "FALSE",
        "drinking_water": "TRUE",
        "updated": "2025-06-27",
        "wikidata": ""
      }
    },
    {
      "type": "Feature",
      "geometry": {
        "type": "Point",
        "coordinates": [
          12.096561,
          57.479679
        ]
      },
      "properties": {
        "td_url": "",
        "parking": "FALSE",
        "country": "SE",
        "wheelchair": "TRUE",
        "city": "Kungsbacka",
        "accessibility": "",
        "cabin": "FALSE",
        "description": "",
        "snowmobile_trail": "FALSE",
        "source": "2120001256",
        "wind_shelter": "FALSE",
        "trashbin": "",
        "playground": "TRUE",
        "id": "1384-gp-Gullregnsvagen",
        "email": "teknik@kungsbacka.se",
        "table": "TRUE",
        "service_interval": "YEARLY",
        "campground": "",
        "namn": "Gullregnsvägens grillplats",
        "grate": "TRUE",
        "postcode": "43446",
        "restrictions": "",
        "boat_required": "FALSE",
        "water": "FALSE",
        "seating": "TRUE",
        "toilet": "FALSE",
        "visit_url": "",
        "beach": "FALSE",
        "shoreline": "FALSE",
        "wood_storage": "FALSE",
        "drinking_water": "FALSE",
        "updated": "2025-06-27",
        "wikidata": ""
      }
    },
    {
      "type": "Feature",
      "geometry": {
        "type": "Point",
        "coordinates": [
          12.091772,
          57.486377
        ]
      },
      "properties": {
        "td_url": "",
        "parking": "FALSE",
        "country": "SE",
        "wheelchair": "FALSE",
        "city": "Kungsbacka",
        "accessibility": "",
        "cabin": "FALSE",
        "description": "",
        "snowmobile_trail": "FALSE",
        "source": "2120001256",
        "wind_shelter": "FALSE",
        "trashbin": "",
        "playground": "FALSE",
        "id": "1384-gp-Halabacksskolan",
        "email": "teknik@kungsbacka.se",
        "table": "FALSE",
        "service_interval": "YEARLY",
        "campground": "",
        "namn": "Hålabäcksskolans bouleplans grillplats",
        "grate": "TRUE",
        "postcode": "43443",
        "restrictions": "",
        "boat_required": "FALSE",
        "water": "FALSE",
        "seating": "FALSE",
        "toilet": "FALSE",
        "visit_url": "",
        "beach": "FALSE",
        "shoreline": "FALSE",
        "wood_storage": "FALSE",
        "drinking_water": "FALSE",
        "updated": "2025-06-27",
        "wikidata": ""
      }
    },
    {
      "type": "Feature",
      "geometry": {
        "type": "Point",
        "coordinates": [
          12.077017,
          57.491543
        ]
      },
      "properties": {
        "td_url": "",
        "parking": "TRUE",
        "country": "SE",
        "wheelchair": "TRUE",
        "city": "Kungsbacka",
        "accessibility": "",
        "cabin": "FALSE",
        "description": "",
        "snowmobile_trail": "FALSE",
        "source": "2120001256",
        "wind_shelter": "FALSE",
        "trashbin": "TRUE",
        "playground": "TRUE",
        "id": "1384-gp-Borgmastarplatsen",
        "email": "teknik@kungsbacka.se",
        "table": "TRUE",
        "service_interval": "YEARLY",
        "campground": "",
        "namn": "Borgmästarplatsens grillplats",
        "grate": "TRUE",
        "postcode": "43432",
        "restrictions": "",
        "boat_required": "FALSE",
        "water": "FALSE",
        "seating": "TRUE",
        "toilet": "TRUE",
        "visit_url": "",
        "beach": "FALSE",
        "shoreline": "FALSE",
        "wood_storage": "FALSE",
        "drinking_water": "FALSE",
        "updated": "2025-06-27",
        "wikidata": ""
      }
    },
    {
      "type": "Feature",
      "geometry": {
        "type": "Point",
        "coordinates": [
          12.054635,
          57.485061
        ]
      },
      "properties": {
        "td_url": "",
        "parking": "FALSE",
        "country": "SE",
        "wheelchair": "FALSE",
        "city": "Kungsbacka",
        "accessibility": "",
        "cabin": "FALSE",
        "description": "",
        "snowmobile_trail": "FALSE",
        "source": "2120001256",
        "wind_shelter": "FALSE",
        "trashbin": "TRUE",
        "playground": "TRUE",
        "id": "1384-gp-Kungsbackaskogen2",
        "email": "teknik@kungsbacka.se",
        "table": "TRUE",
        "service_interval": "QUARTERLY",
        "campground": "",
        "namn": "Kungsbackaskogens grillplats 2",
        "grate": "TRUE",
        "postcode": "43431",
        "restrictions": "",
        "boat_required": "FALSE",
        "water": "TRUE",
        "seating": "TRUE",
        "toilet": "TRUE",
        "visit_url": "",
        "beach": "FALSE",
        "shoreline": "FALSE",
        "wood_storage": "FALSE",
        "drinking_water": "TRUE",
        "updated": "2025-06-27",
        "wikidata": ""
      }
    },
    {
      "type": "Feature",
      "geometry": {
        "type": "Point",
        "coordinates": [
          12.054869,
          57.485157
        ]
      },
      "properties": {
        "td_url": "",
        "parking": "FALSE",
        "country": "SE",
        "wheelchair": "FALSE",
        "city": "Kungsbacka",
        "accessibility": "",
        "cabin": "FALSE",
        "description": "",
        "snowmobile_trail": "FALSE",
        "source": "2120001256",
        "wind_shelter": "FALSE",
        "trashbin": "TRUE",
        "playground": "TRUE",
        "id": "1384-gp-Kungsbackaskogen3",
        "email": "teknik@kungsbacka.se",
        "table": "TRUE",
        "service_interval": "QUARTERLY",
        "campground": "",
        "namn": "Kungsbackaskogens grillplats 3",
        "grate": "TRUE",
        "postcode": "43431",
        "restrictions": "",
        "boat_required": "FALSE",
        "water": "TRUE",
        "seating": "TRUE",
        "toilet": "TRUE",
        "visit_url": "",
        "beach": "FALSE",
        "shoreline": "FALSE",
        "wood_storage": "FALSE",
        "drinking_water": "TRUE",
        "updated": "2025-06-27",
        "wikidata": ""
      }
    },
    {
      "type": "Feature",
      "geometry": {
        "type": "Point",
        "coordinates": [
          12.054189,
          57.485332
        ]
      },
      "properties": {
        "td_url": "",
        "parking": "FALSE",
        "country": "SE",
        "wheelchair": "FALSE",
        "city": "Kungsbacka",
        "accessibility": "",
        "cabin": "FALSE",
        "description": "",
        "snowmobile_trail": "FALSE",
        "source": "2120001256",
        "wind_shelter": "FALSE",
        "trashbin": "TRUE",
        "playground": "TRUE",
        "id": "1384-gp-Kungsbackaskogen4",
        "email": "teknik@kungsbacka.se",
        "table": "TRUE",
        "service_interval": "QUARTERLY",
        "campground": "",
        "namn": "Kungsbackaskogens grillplats 4",
        "grate": "TRUE",
        "postcode": "43431",
        "restrictions": "",
        "boat_required": "FALSE",
        "water": "TRUE",
        "seating": "TRUE",
        "toilet": "TRUE",
        "visit_url": "",
        "beach": "FALSE",
        "shoreline": "FALSE",
        "wood_storage": "FALSE",
        "drinking_water": "TRUE",
        "updated": "2025-06-27",
        "wikidata": ""
      }
    },
    {
      "type": "Feature",
      "geometry": {
        "type": "Point",
        "coordinates": [
          12.075117,
          57.517306
        ]
      },
      "properties": {
        "td_url": "",
        "parking": "TRUE",
        "country": "SE",
        "wheelchair": "TRUE",
        "city": "Kungsbacka",
        "accessibility": "",
        "cabin": "FALSE",
        "description": "",
        "snowmobile_trail": "FALSE",
        "source": "2120001256",
        "wind_shelter": "FALSE",
        "trashbin": "TRUE",
        "playground": "TRUE",
        "id": "1384-gp-BjorkrisPark",
        "email": "teknik@kungsbacka.se",
        "table": "TRUE",
        "service_interval": "YEARLY",
        "campground": "",
        "namn": "Björkris Park",
        "grate": "TRUE",
        "postcode": "43460",
        "restrictions": "",
        "boat_required": "FALSE",
        "water": "",
        "seating": "TRUE",
        "toilet": "FALSE",
        "visit_url": "",
        "beach": "FALSE",
        "shoreline": "FALSE",
        "wood_storage": "FALSE",
        "drinking_water": "",
        "updated": "2025-06-27",
        "wikidata": ""
      }
    }
  ]
}