{
  "type": "FeatureCollection",
  "features": [
    {
      "id": 3724,
      "type": "Feature",
      "properties": {
        "name": "Björnstigen",
        "type": "Äventyrsstig",
        "created": "2023-09-05 10:50:19",
        "updated": "2025-02-17 10:50:41",
        "published": true,
        "childObjects": [
          4087
        ],
        "owner": {
          "organizationID": 36,
          "name": "Sundsvalls kommun Friluftsenheten"
        },
        "manager": {
          "organizationID": 36,
          "name": "Sundsvalls kommun Friluftsenheten"
        },
        "fields": [
          {
            "id": 134,
            "name": "Ledgrupp",
            "type": "DROPDOWN",
            "value": "Sundsvalls friluftsleder"
          },
          {
            "id": 109,
            "name": "Svårighet",
            "type": "DROPDOWN",
            "value": "Mycket svår"
          },
          {
            "id": 282,
            "name": "Allmänt tillgänglig",
            "type": "DROPDOWN",
            "value": "Hela dygnet"
          },
          {
            "id": 274,
            "name": "Led",
            "type": "COMBINEDTRAIL",
            "referencedObjects": [
              {
                "objectID": 3718,
                "fieldID": 262,
                "direction": "NORMAL"
              },
              {
                "objectID": 3719,
                "fieldID": 262,
                "direction": "NORMAL"
              },
              {
                "objectID": 3720,
                "fieldID": 262,
                "direction": "NORMAL"
              },
              {
                "objectID": 3721,
                "fieldID": 262,
                "direction": "NORMAL"
              },
              {
                "objectID": 3722,
                "fieldID": 262,
                "direction": "NORMAL"
              },
              {
                "objectID": 3723,
                "fieldID": 262,
                "direction": "NORMAL"
              }
            ]
          },
          {
            "id": 99,
            "name": "Längd (meter)",
            "type": "INTEGER",
            "value": 1000
          },
          {
            "id": 113,
            "name": "Tillhörande filer",
            "type": "FILES",
            "value": [
              {
                "id": 2550,
                "filename": "20210923_152958.jpg",
                "description": "STart Björnstigen",
                "alttext": "Start Björnstigen",
                "sourcetext": "Frilufstenheten",
                "validForWinter": true,
                "validForSummer": true,
                "sortIndex": 1,
                "type": "image/jpeg",
                "size": 6411080,
                "url": "https://api.sundsvall.se/facilities/2.2/field/filesfield/2550",
                "license": "CC0",
                "licenseDescription": "Creative commons. \"No rights reserved\" https://creativecommons.org/share-your-work/public-domain/cc0/"
              },
              {
                "id": 2551,
                "filename": "20210923_152538.jpg",
                "description": "Portal Björnstigen",
                "alttext": "Portal Björnstigen",
                "sourcetext": "Frilufstenheten",
                "validForWinter": true,
                "validForSummer": true,
                "sortIndex": 2,
                "type": "image/jpeg",
                "size": 8017588,
                "url": "https://api.sundsvall.se/facilities/2.2/field/filesfield/2551",
                "license": "CC0",
                "licenseDescription": "Creative commons. \"No rights reserved\" https://creativecommons.org/share-your-work/public-domain/cc0/"
              },
              {
                "id": 2552,
                "filename": "20220906_074641.jpg",
                "description": "Balanshinder Björnstigen",
                "alttext": "Balanshinder Björnstigen",
                "sourcetext": "Frilufstenheten",
                "validForWinter": true,
                "validForSummer": true,
                "sortIndex": 3,
                "type": "image/jpeg",
                "size": 5892227,
                "url": "https://api.sundsvall.se/facilities/2.2/field/filesfield/2552",
                "license": "CC0",
                "licenseDescription": "Creative commons. \"No rights reserved\" https://creativecommons.org/share-your-work/public-domain/cc0/"
              },
              {
                "id": 2553,
                "filename": "20220906_074926.jpg",
                "description": "Bergväggen Björnstigen",
                "alttext": "Bergväggen Björnstigen",
                "sourcetext": "Frilufstenheten",
                "validForWinter": true,
                "validForSummer": true,
                "sortIndex": 4,
                "type": "image/jpeg",
                "size": 5196972,
                "url": "https://api.sundsvall.se/facilities/2.2/field/filesfield/2553",
                "license": "CC0",
                "licenseDescription": "Creative commons. \"No rights reserved\" https://creativecommons.org/share-your-work/public-domain/cc0/"
              },
              {
                "id": 2554,
                "filename": "20220906_075043.jpg",
                "description": "Grottan",
                "alttext": "Grottan",
                "sourcetext": "Frilufstenheten",
                "validForWinter": true,
                "validForSummer": true,
                "sortIndex": 5,
                "type": "image/jpeg",
                "size": 5391394,
                "url": "https://api.sundsvall.se/facilities/2.2/field/filesfield/2554",
                "license": "CC0",
                "licenseDescription": "Creative commons. \"No rights reserved\" https://creativecommons.org/share-your-work/public-domain/cc0/"
              },
              {
                "id": 2555,
                "filename": "20220906_075218.jpg",
                "description": "Rep",
                "alttext": "Rep",
                "sourcetext": "Frilufstenheten",
                "validForWinter": true,
                "validForSummer": true,
                "sortIndex": 6,
                "type": "image/jpeg",
                "size": 5049983,
                "url": "https://api.sundsvall.se/facilities/2.2/field/filesfield/2555",
                "license": "CC0",
                "licenseDescription": "Creative commons. \"No rights reserved\" https://creativecommons.org/share-your-work/public-domain/cc0/"
              }
            ]
          },
          {
            "id": 98,
            "name": "Markering fil",
            "type": "FILES",
            "value": [
              {
                "id": 2549,
                "filename": "Björnstigen.png",
                "description": "Spårmarkering Björnstigen",
                "alttext": "Spårmarkering Björnstigen",
                "sourcetext": "Friluftsenheten",
                "validForWinter": true,
                "validForSummer": true,
                "sortIndex": 1001,
                "type": "image/png",
                "size": 12668,
                "url": "https://api.sundsvall.se/facilities/2.2/field/filesfield/2549",
                "license": "CC0",
                "licenseDescription": "Creative commons. \"No rights reserved\" https://creativecommons.org/share-your-work/public-domain/cc0/"
              }
            ]
          },
          {
            "id": 102,
            "name": "Öppen",
            "type": "TOGGLE",
            "value": "Ja"
          },
          {
            "id": 103,
            "name": "Belysning",
            "type": "TOGGLE",
            "value": "Nej"
          },
          {
            "id": 108,
            "name": "Tillgänglighetsanpassad",
            "type": "TOGGLE",
            "value": "Nej"
          },
          {
            "id": 287,
            "name": "Felanmälan",
            "type": "Felanmälningstjänst",
            "reportName": "Kontakt Sundsvall",
            "reportDescription": "Felanmälan av motionsspår, elljusspår, leder och andra friluftsanläggningar",
            "reportLink": "https://sundsvall.se/kommun-och-politik/politik-och-demokrati/dialog-och-synpunkter/felanmalan",
            "reportPhone": "060-19 10 00",
            "reportEmail": "kontakt@sundsvall.se"
          },
          {
            "id": 104,
            "name": "Avgift",
            "type": "FREETEXT",
            "value": "Nej"
          },
          {
            "id": 110,
            "name": "Beskrivning",
            "type": "FREETEXT",
            "value": "Björnstigen är en äventyrsstig som startar vid norra delen av Ängen, vid Friluftscentrum Södra Berget. Stigen är cirka 1 kilometer lång och går lite upp och ner i klippig terräng. Längs stigen har vi byggt en del äventyr, exempelvis bergväggen, linbanan, lianen, och balansbommen. Alla äventyren är frivilliga, du kan gå förbi dem om du vill, och det är på egen risk som du går stigen.\r\n\r\nGymnastikskor eller liknande är bra att ha, och är du 11 år eller yngre rekommenderar vi dig att ta någon vuxen med dig. Stigen tar cirka en timme att gå, beroende på hur många och hur äventyrliga ni är.\r\n\r\nI slutet på stigen finns utsiktsplats med grillmöjligheter. Stigen är märkt med rosa spårmarkeringar som liknar björntassar. WC och handikapptoalett finns vid Raststugan."
          },
          {
            "id": 289,
            "name": "Tillgänglighetsbeskrivning",
            "type": "FREETEXT",
            "value": "Bjrönstigen är en utmanande äventyrsstig som går genom ett starkt kuperat område med många bergsskrevor, stenar och andra ojämnheter."
          }
        ],
        "centerPoint": [
          17.306691512495522,
          62.36732586079996
        ]
      },
      "geometry": {
        "type": "LineString",
        "coordinates": [
          [
            17.308298006992974,
            62.36753449834851
          ],
          [
            17.307801460763557,
            62.367342833269745
          ],
          [
            17.30792137472653,
            62.36728301180375
          ],
          [
            17.307986062521625,
            62.367244221922725
          ],
          [
            17.30799320783795,
            62.36719632847633
          ],
          [
            17.307929100591508,
            62.367172246969666
          ],
          [
            17.30790428863374,
            62.367131169696336
          ],
          [
            17.308019566585845,
            62.367116685489314
          ],
          [
            17.30804486235613,
            62.36709363571635
          ],
          [
            17.30799292111449,
            62.367016548578405
          ],
          [
            17.307694495044675,
            62.36697246548041
          ],
          [
            17.30750449075907,
            62.3669655582856
          ],
          [
            17.307366332074746,
            62.36696407739052
          ],
          [
            17.307257042868933,
            62.36691560001874
          ],
          [
            17.307204909473374,
            62.36687120390832
          ],
          [
            17.30714041758969,
            62.366842099490555
          ],
          [
            17.307065884510962,
            62.366823219391016
          ],
          [
            17.3068988603187,
            62.366798329119256
          ],
          [
            17.306799223997906,
            62.36680500971535
          ],
          [
            17.306615013433046,
            62.36680303422001
          ],
          [
            17.306460736910285,
            62.3667326716863
          ],
          [
            17.306292266894864,
            62.36668894614325
          ],
          [
            17.306292266894864,
            62.36668894614325
          ],
          [
            17.30606992301856,
            62.36666622892395
          ],
          [
            17.305838060712922,
            62.36663587421782
          ],
          [
            17.30564579912296,
            62.366587218059266
          ],
          [
            17.30564579912296,
            62.366587218059266
          ],
          [
            17.305546943727,
            62.36664550299489
          ],
          [
            17.305405148427514,
            62.36673552388545
          ],
          [
            17.30531798012225,
            62.3667889622815
          ],
          [
            17.30523554979605,
            62.366840655688904
          ],
          [
            17.30517617901546,
            62.36690895006966
          ],
          [
            17.305167088147105,
            62.36696574543714
          ],
          [
            17.305162233208303,
            62.36703563811627
          ],
          [
            17.305090400030824,
            62.367051351065705
          ],
          [
            17.304911549481368,
            62.36706808399473
          ],
          [
            17.304687026459916,
            62.36704088544892
          ],
          [
            17.3044240628111,
            62.36700196083175
          ],
          [
            17.30430763547579,
            62.36698843009851
          ],
          [
            17.30416731785738,
            62.36696436308835
          ],
          [
            17.304063039162664,
            62.36696548498418
          ],
          [
            17.304006183707216,
            62.366987634961966
          ],
          [
            17.303976473202848,
            62.367088915496964
          ],
          [
            17.303971353119515,
            62.36710243202448
          ],
          [
            17.303882634246346,
            62.36712492472927
          ],
          [
            17.303769799666497,
            62.367128830719565
          ],
          [
            17.303642818342116,
            62.36713961950948
          ],
          [
            17.303605565744817,
            62.36714809703581
          ],
          [
            17.303742448381595,
            62.3672171012497
          ],
          [
            17.303842172279307,
            62.36728208371148
          ],
          [
            17.303910521594105,
            62.36732621256663
          ],
          [
            17.30396120555521,
            62.36735177535751
          ],
          [
            17.30402482823283,
            62.36736958051432
          ],
          [
            17.30422281575544,
            62.36737837878975
          ],
          [
            17.30422281575544,
            62.36737837878975
          ],
          [
            17.30433046502969,
            62.36732875927931
          ],
          [
            17.30435330165878,
            62.3673217828246
          ],
          [
            17.304387388234534,
            62.36730795459013
          ],
          [
            17.304468898867015,
            62.36731515433966
          ],
          [
            17.30470676204135,
            62.36731932520097
          ],
          [
            17.304866617427365,
            62.36732837378089
          ],
          [
            17.305202697844233,
            62.36732610196768
          ],
          [
            17.305325301080565,
            62.36734362796437
          ],
          [
            17.30549654126663,
            62.36734851480737
          ],
          [
            17.30556249064074,
            62.36733434316012
          ],
          [
            17.305584450869148,
            62.36730987603382
          ],
          [
            17.305594622214358,
            62.36728149743261
          ],
          [
            17.305605332720237,
            62.3672638821944
          ],
          [
            17.305610452095767,
            62.367250365598224
          ],
          [
            17.305629785135416,
            62.36723131135678
          ],
          [
            17.30564662588419,
            62.36722036081728
          ],
          [
            17.305680981333072,
            62.36721191394339
          ],
          [
            17.305750029172703,
            62.36720174726663
          ],
          [
            17.305767409078577,
            62.36720156008483
          ],
          [
            17.305843396062393,
            62.36721420310711
          ],
          [
            17.305872901838782,
            62.36722465446763
          ],
          [
            17.30589385248458,
            62.36723789025994
          ],
          [
            17.305913389493046,
            62.36728075649265
          ],
          [
            17.305927204524526,
            62.36744079907614
          ],
          [
            17.305946135012586,
            62.367471556521586
          ],
          [
            17.30597031960309,
            62.367491488202695
          ],
          [
            17.305994167167587,
            62.36750469277498
          ],
          [
            17.30615732511559,
            62.367521781191435
          ],
          [
            17.306227519708376,
            62.36753448641085
          ],
          [
            17.30625143482784,
            62.367549036366896
          ],
          [
            17.306212836529475,
            62.36758849045487
          ],
          [
            17.306190606930624,
            62.367607575985275
          ],
          [
            17.306097510633748,
            62.36765838632537
          ],
          [
            17.306080804643326,
            62.36767202775675
          ],
          [
            17.306072923558833,
            62.367688266405
          ],
          [
            17.306073328056108,
            62.36769633892821
          ],
          [
            17.306101016389245,
            62.36772834815963
          ],
          [
            17.3061245945119,
            62.36773617103305
          ],
          [
            17.30625743825641,
            62.367726662978946
          ],
          [
            17.306307934931816,
            62.36772831018263
          ],
          [
            17.30638826180527,
            62.36773467646558
          ],
          [
            17.30647300793531,
            62.36774857093154
          ],
          [
            17.306549333785053,
            62.367767940661516
          ],
          [
            17.30657870546647,
            62.36777570103401
          ],
          [
            17.30660524790998,
            62.36778483802762
          ],
          [
            17.306646206450473,
            62.36779247351504
          ],
          [
            17.306675713074227,
            62.36780292470449
          ],
          [
            17.30680673942429,
            62.367814974054
          ],
          [
            17.306824119678296,
            62.36781478673129
          ],
          [
            17.30686507831523,
            62.36782242215426
          ],
          [
            17.30689748176484,
            62.36783284207366
          ],
          [
            17.30695319382875,
            62.36784570304403
          ],
          [
            17.306988628958788,
            62.36785878255443
          ],
          [
            17.30701234231939,
            62.367869296114456
          ],
          [
            17.30711804078162,
            62.367896425797944
          ],
          [
            17.307194839694816,
            62.36792521311191
          ],
          [
            17.307194839694816,
            62.36792521311191
          ],
          [
            17.307235798576514,
            62.36793284842571
          ],
          [
            17.30748909530489,
            62.36795569422759
          ],
          [
            17.30763204694956,
            62.367974344965106
          ],
          [
            17.30775580161335,
            62.36801474092027
          ],
          [
            17.307829075770005,
            62.368054946219715
          ],
          [
            17.30792826682656,
            62.36810172653796
          ],
          [
            17.30807330610425,
            62.36810420055135
          ],
          [
            17.308125312299836,
            62.36810094726644
          ],
          [
            17.30820486805779,
            62.36806912768896
          ],
          [
            17.308319582919324,
            62.36798712131673
          ],
          [
            17.30843438166361,
            62.367783514784286
          ],
          [
            17.30843438166361,
            62.367783514784286
          ],
          [
            17.30846586072496,
            62.36766004265816
          ]
        ]
      }
    },
    {
      "id": 3730,
      "type": "Feature",
      "properties": {
        "name": "Tarzanstigen",
        "type": "Äventyrsstig",
        "created": "2023-09-05 12:12:58",
        "published": true,
        "owner": {
          "organizationID": 36,
          "name": "Sundsvalls kommun Friluftsenheten"
        },
        "manager": {
          "organizationID": 36,
          "name": "Sundsvalls kommun Friluftsenheten"
        },
        "fields": [
          {
            "id": 134,
            "name": "Ledgrupp",
            "type": "DROPDOWN",
            "value": "Sundsvalls friluftsleder"
          },
          {
            "id": 109,
            "name": "Svårighet",
            "type": "DROPDOWN",
            "value": "Mycket svår"
          },
          {
            "id": 282,
            "name": "Allmänt tillgänglig",
            "type": "DROPDOWN",
            "value": "Hela dygnet"
          },
          {
            "id": 274,
            "name": "Led",
            "type": "COMBINEDTRAIL",
            "referencedObjects": [
              {
                "objectID": 3725,
                "fieldID": 262,
                "direction": "NORMAL"
              },
              {
                "objectID": 3726,
                "fieldID": 262,
                "direction": "NORMAL"
              },
              {
                "objectID": 3727,
                "fieldID": 262,
                "direction": "NORMAL"
              },
              {
                "objectID": 3728,
                "fieldID": 262,
                "direction": "NORMAL"
              },
              {
                "objectID": 3729,
                "fieldID": 262,
                "direction": "NORMAL"
              }
            ]
          },
          {
            "id": 99,
            "name": "Längd (meter)",
            "type": "INTEGER",
            "value": 1000
          },
          {
            "id": 102,
            "name": "Öppen",
            "type": "TOGGLE",
            "value": "Ja"
          },
          {
            "id": 103,
            "name": "Belysning",
            "type": "TOGGLE",
            "value": "Nej"
          },
          {
            "id": 108,
            "name": "Tillgänglighetsanpassad",
            "type": "TOGGLE",
            "value": "Nej"
          },
          {
            "id": 287,
            "name": "Felanmälan",
            "type": "Felanmälningstjänst",
            "reportName": "Kontakt Sundsvall",
            "reportDescription": "Felanmälan av motionsspår, elljusspår, leder och andra friluftsanläggningar",
            "reportLink": "https://sundsvall.se/kommun-och-politik/politik-och-demokrati/dialog-och-synpunkter/felanmalan",
            "reportPhone": "060-19 10 00",
            "reportEmail": "kontakt@sundsvall.se"
          },
          {
            "id": 104,
            "name": "Avgift",
            "type": "FREETEXT",
            "value": "Nej"
          },
          {
            "id": 110,
            "name": "Beskrivning",
            "type": "FREETEXT",
            "value": "Tarzanstigen är en äventyrsstig som startar strax bakom hotellet på Södra Berget. Stigen är en kilometer lång, märkt med vita markeringar med svarta \"Tarzan T:n\" och går i blandad skogsterräng.\r\n\r\nLängs stigen har vi byggt en del äventyr som olika balans- och klätteraktiviteter med anknytning till Sundsvalls historia. Här kan du stifta bekantskap med Vårdkasen, Flottarrännan och Kolarkojan. Här finns också hällristningar och runstenar och du kan prova balansstänger och tarzangungan, samt kolla vad klockan är vid det nya soluret. Alla äventyr är frivilliga, du kan gå förbi dem om du vill, och det är också på egen risk som du går stigen.\r\n\r\nGympaskor eller liknande är bra att ha och är du 8-9 år eller yngre rekommenderar vi att du tar en vuxen med dig. Stigen tar 45-60 minuter att gå, beroende på hur många och hur äventyrliga ni är. Utefter Tarzanstigen finns även ett vindskydd med grillplats och utedass, närmaste stig är från Flottarrännan."
          },
          {
            "id": 289,
            "name": "Tillgänglighetsbeskrivning",
            "type": "FREETEXT",
            "value": "Tarzanstigen är en utmanande äventyrsstig som går genom ett starkt kuperat område med många bergsskrevor, stenar och andra ojämnheter."
          }
        ],
        "centerPoint": [
          17.322910835573335,
          62.36727196209695
        ]
      },
      "geometry": {
        "type": "LineString",
        "coordinates": [
          [
            17.322884164003067,
            62.368110414199776
          ],
          [
            17.323063735539264,
            62.368041883001574
          ],
          [
            17.32318970030411,
            62.36793467470943
          ],
          [
            17.323281770498728,
            62.367935149252695
          ],
          [
            17.32330809649574,
            62.368065463014474
          ],
          [
            17.323413107677233,
            62.36814920236275
          ],
          [
            17.323623345283856,
            62.36827149772305
          ],
          [
            17.323751819772752,
            62.368290289471766
          ],
          [
            17.323781195216895,
            62.36829804602743
          ],
          [
            17.323834493849095,
            62.36832034907914
          ],
          [
            17.32386400573211,
            62.36833079634844
          ],
          [
            17.32390626440963,
            62.368253616997855
          ],
          [
            17.32381156686494,
            62.36817724924074
          ],
          [
            17.32382093478353,
            62.36814440448911
          ],
          [
            17.323886968068198,
            62.368130226493555
          ],
          [
            17.323893876629697,
            62.36812156187418
          ],
          [
            17.323911209957096,
            62.36810769419802
          ],
          [
            17.323955880908937,
            62.368083312054296
          ],
          [
            17.323955880908937,
            62.368083312054296
          ],
          [
            17.32394676352267,
            62.368077429541216
          ],
          [
            17.32394285851504,
            62.368068945498024
          ],
          [
            17.32392798445725,
            62.36805863304041
          ],
          [
            17.323914114005856,
            62.3680472980274
          ],
          [
            17.323879573996276,
            62.36802071835678
          ],
          [
            17.32385336790937,
            62.36800222045044
          ],
          [
            17.32382567914927,
            62.36798188944421
          ],
          [
            17.323810183147902,
            62.36796354100392
          ],
          [
            17.323796966494335,
            62.36794666319268
          ],
          [
            17.323787795932205,
            62.36791211641291
          ],
          [
            17.323775886738026,
            62.36788415302753
          ],
          [
            17.323778968094686,
            62.367868008861414
          ],
          [
            17.323774052389005,
            62.36784646636169
          ],
          [
            17.32376995308241,
            62.367835471072375
          ],
          [
            17.32376809422111,
            62.36782544416629
          ],
          [
            17.323759992240564,
            62.367819344828696
          ],
          [
            17.32375865877457,
            62.36780146265096
          ],
          [
            17.32386577671652,
            62.36776129488648
          ],
          [
            17.323880595745308,
            62.3677541657247
          ],
          [
            17.323932065279994,
            62.36773369323037
          ],
          [
            17.323932065279994,
            62.36773369323037
          ],
          [
            17.324049653247407,
            62.36767917676298
          ],
          [
            17.324200481705414,
            62.367641454993446
          ],
          [
            17.32451295083183,
            62.36756583034702
          ],
          [
            17.324627557734622,
            62.36750080231694
          ],
          [
            17.324709257121366,
            62.367465240518584
          ],
          [
            17.324952533402016,
            62.36745388434415
          ],
          [
            17.325044921089273,
            62.36743750533045
          ],
          [
            17.325079173588904,
            62.36743240697464
          ],
          [
            17.325109532503227,
            62.36742247041276
          ],
          [
            17.325143897760242,
            62.36741183828323
          ],
          [
            17.325221029910573,
            62.367394205349
          ],
          [
            17.325316217690684,
            62.367361560916464
          ],
          [
            17.325456587772642,
            62.367342619712254
          ],
          [
            17.32548886715405,
            62.36733279636705
          ],
          [
            17.325468007557486,
            62.367322312975205
          ],
          [
            17.325414703421036,
            62.36730509939292
          ],
          [
            17.325372935879862,
            62.36726908580314
          ],
          [
            17.325273453575324,
            62.36720084533928
          ],
          [
            17.325047566269113,
            62.36712214435597
          ],
          [
            17.32484057579479,
            62.3670637461263
          ],
          [
            17.32458707333456,
            62.36704786505187
          ],
          [
            17.32458707333456,
            62.36704786505187
          ],
          [
            17.324246661248242,
            62.367035195244284
          ],
          [
            17.323945680915774,
            62.367063355144985
          ],
          [
            17.323686489845745,
            62.36709986875419
          ],
          [
            17.323616020539294,
            62.367196595908595
          ],
          [
            17.3236069886301,
            62.36735968543679
          ],
          [
            17.32357745361193,
            62.367453717477396
          ],
          [
            17.32348129982428,
            62.367470409834695
          ],
          [
            17.32335491841269,
            62.367432288092914
          ],
          [
            17.323180944995325,
            62.36736679851138
          ],
          [
            17.323044237775537,
            62.3672792696121
          ],
          [
            17.3229599588787,
            62.367305470642876
          ],
          [
            17.322896847977276,
            62.36731827268299
          ],
          [
            17.32279152150184,
            62.36723148205882
          ],
          [
            17.32279152150184,
            62.36723148205882
          ],
          [
            17.32272056404091,
            62.367262463071256
          ],
          [
            17.32260760764374,
            62.3672718918192
          ],
          [
            17.322530069224534,
            62.36724929830532
          ],
          [
            17.322330201981053,
            62.36721994553503
          ],
          [
            17.322235084324966,
            62.36718004382771
          ],
          [
            17.322075767412638,
            62.3671500140154
          ],
          [
            17.321980860365073,
            62.36714782589865
          ],
          [
            17.32187922895831,
            62.36714228541495
          ],
          [
            17.321845720770504,
            62.36711034679449
          ],
          [
            17.321842958275337,
            62.36705581311679
          ],
          [
            17.32183474617985,
            62.3670081609858
          ],
          [
            17.321861199382948,
            62.36695806275601
          ],
          [
            17.32184742856323,
            62.36691513783595
          ],
          [
            17.321819783769246,
            62.366884480830144
          ],
          [
            17.32177065849878,
            62.36683524901968
          ],
          [
            17.32174615546031,
            62.36680452263878
          ],
          [
            17.32152315741058,
            62.36663736260034
          ],
          [
            17.321461272194178,
            62.36660900683807
          ],
          [
            17.32140770399007,
            62.36659017170726
          ],
          [
            17.32135142613891,
            62.36656656028797
          ],
          [
            17.321211226897365,
            62.36648868024877
          ],
          [
            17.321156838403084,
            62.366444850343186
          ],
          [
            17.321114788845087,
            62.36641569233718
          ],
          [
            17.32103897158202,
            62.366349209419226
          ],
          [
            17.320942674977434,
            62.36627891102003
          ],
          [
            17.320796457122267,
            62.36619569412252
          ],
          [
            17.320576018724896,
            62.36613482287876
          ],
          [
            17.32047579643488,
            62.3661587976085
          ],
          [
            17.320493340552275,
            62.36621918368876
          ],
          [
            17.32048655579448,
            62.3662569497799
          ],
          [
            17.32050754080913,
            62.36632806765972
          ],
          [
            17.32050756965709,
            62.366385951941155
          ],
          [
            17.320494719622186,
            62.36641839938918
          ],
          [
            17.320463401656237,
            62.36642950924974
          ],
          [
            17.320387918384164,
            62.36643884080356
          ],
          [
            17.320348219272482,
            62.36644422351788
          ],
          [
            17.320313868607947,
            62.3664526740202
          ],
          [
            17.320268611870453,
            62.36647470465183
          ],
          [
            17.32020801622138,
            62.36653728667166
          ],
          [
            17.320220826895028,
            62.36656137811778
          ],
          [
            17.320220826895028,
            62.36656137811778
          ],
          [
            17.32026287549121,
            62.36659053621566
          ],
          [
            17.320295282080806,
            62.3666009530153
          ],
          [
            17.32037127350078,
            62.36661358810099
          ],
          [
            17.320588546276458,
            62.36666910950973
          ],
          [
            17.320627018398405,
            62.36668484487012
          ],
          [
            17.320679837436625,
            62.366697731848284
          ],
          [
            17.320785951972,
            62.366732923636214
          ],
          [
            17.320836759198148,
            62.36676333243646
          ],
          [
            17.320876660630496,
            62.36680732140196
          ],
          [
            17.32089560542327,
            62.366838076821814
          ],
          [
            17.320939705957713,
            62.36687493492961
          ],
          [
            17.321016778122747,
            62.36694175848436
          ],
          [
            17.321094268591562,
            62.366983992582064
          ],
          [
            17.321176855508057,
            62.367014223400496
          ],
          [
            17.321286062751422,
            62.367050543157525
          ],
          [
            17.321392757137005,
            62.36709648437567
          ],
          [
            17.32154148030104,
            62.367228116034056
          ],
          [
            17.321585031813235,
            62.36728084245994
          ],
          [
            17.321601507389165,
            62.367325723778684
          ],
          [
            17.321656729268728,
            62.36738569247707
          ],
          [
            17.321672743813643,
            62.367428730476185
          ],
          [
            17.321696372666633,
            62.367496341494004
          ],
          [
            17.321731323332628,
            62.367589501926865
          ],
          [
            17.3217498153526,
            62.36763446992691
          ]
        ]
      }
    }
  ]
}