{
  "type": "FeatureCollection",
  "features": [
    {
      "id": 854,
      "type": "Feature",
      "properties": {
        "name": "Bågskytte - Karlsvik",
        "type": "Bågskyttebana",
        "created": "2019-10-18 14:00:41",
        "published": false
      },
      "geometry": null
    },
    {
      "id": 1025,
      "type": "Feature",
      "properties": {
        "name": "Sundsvall/Ortvikens Bågskytte",
        "type": "Bågskyttebana",
        "created": "2019-11-04 13:25:19",
        "published": false
      },
      "geometry": null
    }
  ]
}