{
  "type": "FeatureCollection",
  "features": [
    {
      "id": 1456,
      "type": "Feature",
      "properties": {
        "name": "Skarpuddsbadets camping",
        "type": "Campingplats/stugby",
        "created": "2020-03-12 15:09:00",
        "published": false
      },
      "geometry": null
    },
    {
      "id": 1516,
      "type": "Feature",
      "properties": {
        "name": "Fläsians camping",
        "type": "Campingplats/stugby",
        "created": "2020-04-06 16:05:53",
        "updated": "2020-06-29 15:17:43",
        "published": true,
        "fields": [
          {
            "id": 153,
            "name": "Allmänt tillgänglig",
            "type": "DROPDOWN",
            "value": "Särskilda öppettider"
          },
          {
            "id": 154,
            "name": "Bokningsbar",
            "type": "TOGGLE",
            "value": "Ja"
          },
          {
            "id": 1,
            "name": "Beskrivning",
            "type": "FREETEXT",
            "value": "First Camp Sundsvall-Höga Kusten ligger 5 km söder om Sundsvall och är en vacker etagebyggd camping med havsbad, där alla campingplatser har havsutsikt. Nära till Sundsvalls centrum och inte långt ifrån IKEA. Bra bussanslutning till Sundsvall, ca 200 m från receptionen."
          },
          {
            "id": 136,
            "name": "Öppettider länk",
            "type": "FREETEXT",
            "value": "https://firstcamp.se/destination/sundsvall-hoga-kusten/"
          },
          {
            "id": 155,
            "name": "Bokning länk",
            "type": "FREETEXT",
            "value": "https://firstcamp.se/destination/sundsvall-hoga-kusten/"
          },
          {
            "id": 180,
            "name": "Kontakt länk",
            "type": "FREETEXT",
            "value": "https://firstcamp.se/destination/sundsvall-hoga-kusten/"
          }
        ],
        "centerPoint": [
          17.37160501671642,
          62.35990436196425
        ]
      },
      "geometry": {
        "type": "MultiPolygon",
        "coordinates": [
          [
            [
              [
                17.37292930453802,
                62.36039869836847
              ],
              [
                17.37290244514752,
                62.360514084059396
              ],
              [
                17.37287263217166,
                62.36064218785836
              ],
              [
                17.372938902373935,
                62.36079813327821
              ],
              [
                17.372808094994326,
                62.36084241164667
              ],
              [
                17.372728894698458,
                62.36079430259003
              ],
              [
                17.37261057369224,
                62.36075902232643
              ],
              [
                17.372468902125398,
                62.360753892614404
              ],
              [
                17.372305438755692,
                62.36076066500234
              ],
              [
                17.37211412488826,
                62.36078570663606
              ],
              [
                17.37194596398046,
                62.360817213347296
              ],
              [
                17.371789444301246,
                62.36085739281422
              ],
              [
                17.371514735537627,
                62.360964854029945
              ],
              [
                17.3714286835773,
                62.36101536769676
              ],
              [
                17.371323112497915,
                62.3610876334268
              ],
              [
                17.371223112134082,
                62.36116333336513
              ],
              [
                17.37111870804369,
                62.361258288875675
              ],
              [
                17.371045623541924,
                62.361334856933205
              ],
              [
                17.370979259646656,
                62.3614258805296
              ],
              [
                17.37090864060595,
                62.36155016268342
              ],
              [
                17.37087935841534,
                62.36163709888137
              ],
              [
                17.37085510465448,
                62.361749999860855
              ],
              [
                17.37084339938799,
                62.361855758605365
              ],
              [
                17.37084296590895,
                62.362259433501485
              ],
              [
                17.37066380811505,
                62.36223210130699
              ],
              [
                17.370608444099883,
                62.36215948851616
              ],
              [
                17.370600336805975,
                62.36207791737728
              ],
              [
                17.370616934886982,
                62.36192507138444
              ],
              [
                17.370615798072023,
                62.3618588580593
              ],
              [
                17.37057600670065,
                62.36183274067431
              ],
              [
                17.370455541792314,
                62.36180833293853
              ],
              [
                17.370297070356454,
                62.361784931096565
              ],
              [
                17.370285008216122,
                62.361783147889355
              ],
              [
                17.3703630896288,
                62.3615982035464
              ],
              [
                17.370414506306,
                62.36145376341421
              ],
              [
                17.37043164663156,
                62.36140155010366
              ],
              [
                17.370487373486554,
                62.36123181495886
              ],
              [
                17.370530809290845,
                62.36110864921792
              ],
              [
                17.370371065842217,
                62.36106790701749
              ],
              [
                17.370228297317702,
                62.361052995304014
              ],
              [
                17.370083731927593,
                62.361047885127306
              ],
              [
                17.37013176802169,
                62.360957422524905
              ],
              [
                17.370250065879766,
                62.36081761818551
              ],
              [
                17.370402614788315,
                62.36070893120253
              ],
              [
                17.370546029545086,
                62.36062870648932
              ],
              [
                17.37075684099476,
                62.36049952658425
              ],
              [
                17.370754793445624,
                62.36046015565637
              ],
              [
                17.370710064459313,
                62.360421170024644
              ],
              [
                17.37064969261285,
                62.360370869882544
              ],
              [
                17.370570429517443,
                62.36033999014106
              ],
              [
                17.37045367238366,
                62.36032353398446
              ],
              [
                17.370393709143098,
                62.36032214393356
              ],
              [
                17.370290386625083,
                62.36034107166562
              ],
              [
                17.370230593864775,
                62.360420900181204
              ],
              [
                17.370126934826096,
                62.360466938870594
              ],
              [
                17.370011591672778,
                62.3604887815947
              ],
              [
                17.36996589815504,
                62.36051666979195
              ],
              [
                17.369883960632944,
                62.36059414029201
              ],
              [
                17.369752694830535,
                62.360673960046604
              ],
              [
                17.369641686965046,
                62.3606973755939
              ],
              [
                17.369595417242753,
                62.360691697335746
              ],
              [
                17.369522862146948,
                62.36064144658259
              ],
              [
                17.369511120935588,
                62.360575352278005
              ],
              [
                17.36958875369202,
                62.36048940136995
              ],
              [
                17.369657766674035,
                62.3603527499416
              ],
              [
                17.36969011078605,
                62.360239222587815
              ],
              [
                17.369665820902327,
                62.3601433816127
              ],
              [
                17.369631364841336,
                62.36002314667551
              ],
              [
                17.36954624112558,
                62.35981976926884
              ],
              [
                17.369483164148566,
                62.35966906297724
              ],
              [
                17.369462800131714,
                62.359563577402824
              ],
              [
                17.36946314092094,
                62.35950685386484
              ],
              [
                17.36957381793547,
                62.359384186253266
              ],
              [
                17.36985220376913,
                62.359102226689636
              ],
              [
                17.369944009870476,
                62.35898803167421
              ],
              [
                17.36989128134077,
                62.35874289852089
              ],
              [
                17.370029361556696,
                62.35835212954931
              ],
              [
                17.37030376413687,
                62.358242610086336
              ],
              [
                17.370612752658847,
                62.35779939165004
              ],
              [
                17.370662287931896,
                62.35757815387463
              ],
              [
                17.37078138238919,
                62.35758911716684
              ],
              [
                17.37107936940627,
                62.357616547476134
              ],
              [
                17.371433054918025,
                62.35764848960556
              ],
              [
                17.371849065246163,
                62.35768605067117
              ],
              [
                17.372073723996888,
                62.35770442229593
              ],
              [
                17.37239785622111,
                62.35773093290973
              ],
              [
                17.37261098081894,
                62.357720813131344
              ],
              [
                17.372859469622213,
                62.357733535460646
              ],
              [
                17.373168842479867,
                62.35777285928006
              ],
              [
                17.37347545616649,
                62.35782979998113
              ],
              [
                17.373448255219515,
                62.35788619654126
              ],
              [
                17.373401240154397,
                62.35792899496531
              ],
              [
                17.373367740579003,
                62.35797935903698
              ],
              [
                17.373371916135255,
                62.358040969512096
              ],
              [
                17.373397224698518,
                62.35811158020163
              ],
              [
                17.37343647929714,
                62.358182757656714
              ],
              [
                17.373618128604523,
                62.35844365896054
              ],
              [
                17.373641198330258,
                62.35850478123177
              ],
              [
                17.373634227540514,
                62.35857109320464
              ],
              [
                17.37359644163064,
                62.35863550821068
              ],
              [
                17.373547502038065,
                62.35867518612706
              ],
              [
                17.37347753621221,
                62.35868548869278
              ],
              [
                17.373432596110355,
                62.35869784039185
              ],
              [
                17.373402316796646,
                62.358743324455745
              ],
              [
                17.373346664131642,
                62.358794749192455
              ],
              [
                17.37329027125563,
                62.35883226658498
              ],
              [
                17.373123973448365,
                62.35897351525534
              ],
              [
                17.373063114759802,
                62.35900668809266
              ],
              [
                17.372976480996087,
                62.35902732181103
              ],
              [
                17.372904180428407,
                62.359055953621755
              ],
              [
                17.372886570383763,
                62.35910353921986
              ],
              [
                17.372943823557332,
                62.359179176622014
              ],
              [
                17.373011972741725,
                62.3592003969225
              ],
              [
                17.37309410264936,
                62.35920099878271
              ],
              [
                17.373184493457394,
                62.35918965525734
              ],
              [
                17.373273517107144,
                62.35917061627318
              ],
              [
                17.373362783459093,
                62.3591598283232
              ],
              [
                17.373407334636127,
                62.35917350231879
              ],
              [
                17.373378877189722,
                62.35920191515667
              ],
              [
                17.373305147021867,
                62.35923631201229
              ],
              [
                17.37321978343276,
                62.35925890089137
              ],
              [
                17.37311369866019,
                62.35926575142919
              ],
              [
                17.37300808430818,
                62.35926308296082
              ],
              [
                17.372800822842247,
                62.35924863634083
              ],
              [
                17.372708900856352,
                62.359249136572416
              ],
              [
                17.372611439726814,
                62.35926567104513
              ],
              [
                17.37255466950861,
                62.359314233677885
              ],
              [
                17.372476521872407,
                62.35941257461498
              ],
              [
                17.372423509118303,
                62.359514759197104
              ],
              [
                17.372356265235847,
                62.359566314116734
              ],
              [
                17.372279107496002,
                62.35960945174807
              ],
              [
                17.372232030639296,
                62.35965503790381
              ],
              [
                17.372230411461807,
                62.359709256265695
              ],
              [
                17.372261870468378,
                62.35984235314738
              ],
              [
                17.37230515270758,
                62.359909177605275
              ],
              [
                17.372405096528027,
                62.3600070394765
              ],
              [
                17.3724748259564,
                62.36004421412034
              ],
              [
                17.37256594264281,
                62.36007998204905
              ],
              [
                17.372796826643427,
                62.36011399372909
              ],
              [
                17.373095170351224,
                62.360096990373364
              ],
              [
                17.373123860551345,
                62.36014692841492
              ],
              [
                17.373022310334395,
                62.36023342060528
              ],
              [
                17.37292930453802,
                62.36039869836847
              ]
            ]
          ]
        ]
      }
    },
    {
      "id": 1517,
      "type": "Feature",
      "properties": {
        "name": "Bergafjärdens camping",
        "type": "Campingplats/stugby",
        "created": "2020-04-06 16:08:00",
        "updated": "2026-06-22 09:34:29",
        "published": true,
        "parentObjects": [
          3934
        ],
        "fields": [
          {
            "id": 153,
            "name": "Allmänt tillgänglig",
            "type": "DROPDOWN",
            "value": "Särskilda öppettider"
          },
          {
            "id": 154,
            "name": "Bokningsbar",
            "type": "TOGGLE",
            "value": "Ja"
          },
          {
            "id": 1,
            "name": "Beskrivning",
            "type": "FREETEXT",
            "value": "För flera tusen år sedan innan landhöjningen, hade den stora Medelpadsälven Ljungan ett annat utlopp än idag. Älven mynnade ut i Bergafjärden och skapade deltat som idag är en långgrund och barnvänlig sandstrand med varmt vatten som gör havsbadet till ett eldorado för badsugna. Bergafjärden är ett sommarparadis med en av Sundsvalls finaste badstränder i kombination med campingen. Här kan du få en riktigt härlig och naturnära sommarsemester för hela familjen då ni har närhet till både havet och skogen. I denna broschyr finner du aktiviteter på campingen och i närområdet som passar alla. Campingen ligger cirka tjugo minuter söder om Sundsvall, du tar dig enklast hit via E4:an."
          },
          {
            "id": 136,
            "name": "Öppettider länk",
            "type": "FREETEXT",
            "value": "https://bergafjarden.nu/"
          },
          {
            "id": 155,
            "name": "Bokning länk",
            "type": "FREETEXT",
            "value": "https://bergafjarden.nu/"
          },
          {
            "id": 180,
            "name": "Kontakt länk",
            "type": "FREETEXT",
            "value": "https://bergafjarden.nu/"
          }
        ],
        "centerPoint": [
          17.455290887501764,
          62.268733402137016
        ]
      },
      "geometry": {
        "type": "MultiPolygon",
        "coordinates": [
          [
            [
              [
                17.457960657551926,
                62.27014197731108
              ],
              [
                17.458146836731668,
                62.27024981529648
              ],
              [
                17.45839165467514,
                62.27036258785309
              ],
              [
                17.458573277441026,
                62.27047485276429
              ],
              [
                17.458864339289747,
                62.27062978508377
              ],
              [
                17.459044733099507,
                62.27076862917956
              ],
              [
                17.459268990371406,
                62.27087159545271
              ],
              [
                17.459390893020558,
                62.270913129498275
              ],
              [
                17.459530573588342,
                62.27093821131622
              ],
              [
                17.459602693249053,
                62.27097136024003
              ],
              [
                17.459598602325606,
                62.27100815417607
              ],
              [
                17.457098591701065,
                62.27113589260675
              ],
              [
                17.45702082372929,
                62.27113948960098
              ],
              [
                17.45575413893263,
                62.271198148966185
              ],
              [
                17.455495242320744,
                62.27118141682118
              ],
              [
                17.455210644115702,
                62.271188311049734
              ],
              [
                17.454914996442643,
                62.27120429963051
              ],
              [
                17.45453900262393,
                62.271230184012595
              ],
              [
                17.45421688362094,
                62.271255456449886
              ],
              [
                17.453808986976387,
                62.271260167121106
              ],
              [
                17.45342409421351,
                62.27126282759139
              ],
              [
                17.453361569923654,
                62.2710303442119
              ],
              [
                17.453220583175092,
                62.27077006751313
              ],
              [
                17.452950098024328,
                62.27032113607017
              ],
              [
                17.452727532840676,
                62.2699039431193
              ],
              [
                17.45253911996782,
                62.26962089165962
              ],
              [
                17.452225011151718,
                62.2690038419814
              ],
              [
                17.452000848144515,
                62.26855617084554
              ],
              [
                17.45190110721028,
                62.26834744804514
              ],
              [
                17.451830807545946,
                62.268256762596046
              ],
              [
                17.451673654227232,
                62.26819758595396
              ],
              [
                17.451513442747768,
                62.26793753504463
              ],
              [
                17.45173727546898,
                62.26787574916191
              ],
              [
                17.451936193297534,
                62.267851921538096
              ],
              [
                17.45222085365,
                62.26784682999974
              ],
              [
                17.452196703964212,
                62.26775561933719
              ],
              [
                17.452153265890576,
                62.267591096566385
              ],
              [
                17.452112389774594,
                62.267474960070714
              ],
              [
                17.45127868015918,
                62.26757967342351
              ],
              [
                17.451020142760807,
                62.266992491485816
              ],
              [
                17.451032104730412,
                62.26685600527377
              ],
              [
                17.451035046519728,
                62.26669450763016
              ],
              [
                17.451091226349675,
                62.26630456128564
              ],
              [
                17.451449894861305,
                62.266316549736594
              ],
              [
                17.451809526685523,
                62.26634647563573
              ],
              [
                17.452166190666116,
                62.26639257140627
              ],
              [
                17.45277394175628,
                62.26645369161139
              ],
              [
                17.45333763643917,
                62.26662655824481
              ],
              [
                17.45378261552473,
                62.266765035385596
              ],
              [
                17.45420270579254,
                62.26688641470148
              ],
              [
                17.454487898843663,
                62.266968819630506
              ],
              [
                17.455173441563872,
                62.26716689053049
              ],
              [
                17.45522292118747,
                62.26725802807228
              ],
              [
                17.455145199655444,
                62.26754875752908
              ],
              [
                17.45515954066912,
                62.26769865203182
              ],
              [
                17.455291542868952,
                62.26785145476379
              ],
              [
                17.455786057980355,
                62.26792742799862
              ],
              [
                17.45591642015816,
                62.26798304217265
              ],
              [
                17.455856895962707,
                62.26809566520423
              ],
              [
                17.455699936802567,
                62.26816636610752
              ],
              [
                17.45555243530514,
                62.26830094527341
              ],
              [
                17.45582221078379,
                62.268511156741575
              ],
              [
                17.456036760637456,
                62.268648251725104
              ],
              [
                17.45631597486026,
                62.26866467587641
              ],
              [
                17.45647651809603,
                62.26863817790937
              ],
              [
                17.456605919133548,
                62.26872584799817
              ],
              [
                17.45656551816211,
                62.26885341254807
              ],
              [
                17.456460484352007,
                62.26890160157274
              ],
              [
                17.45669026547882,
                62.268926150238016
              ],
              [
                17.456953768481057,
                62.26902855909513
              ],
              [
                17.457287948960772,
                62.269331243778836
              ],
              [
                17.457487755528792,
                62.26946959088198
              ],
              [
                17.457560717744983,
                62.26966616898024
              ],
              [
                17.457806465237347,
                62.27001038622785
              ],
              [
                17.457870597890704,
                62.27008052107636
              ],
              [
                17.457960657551926,
                62.27014197731108
              ]
            ]
          ]
        ]
      }
    },
    {
      "id": 1518,
      "type": "Feature",
      "properties": {
        "name": "Allsta camping",
        "type": "Campingplats/stugby",
        "created": "2020-04-06 16:12:06",
        "updated": "2025-07-16 13:45:34",
        "published": true,
        "parentObjects": [
          783
        ],
        "fields": [
          {
            "id": 153,
            "name": "Allmänt tillgänglig",
            "type": "DROPDOWN",
            "value": "Särskilda öppettider"
          },
          {
            "id": 7,
            "name": "Tillhörande filer",
            "type": "FILES",
            "value": [
              {
                "id": 1692,
                "filename": "Allsta fiskecamp aug 2008 (1).JPG",
                "validForWinter": false,
                "validForSummer": false,
                "sortIndex": null,
                "type": "image/jpeg",
                "size": 3286108,
                "url": "https://api.sundsvall.se/facilities/2.2/field/filesfield/1692",
                "license": "CC0",
                "licenseDescription": "Creative commons. \"No rights reserved\" https://creativecommons.org/share-your-work/public-domain/cc0/"
              },
              {
                "id": 1693,
                "filename": "Allsta fiskecamp aug 2008 (10).JPG",
                "validForWinter": false,
                "validForSummer": false,
                "sortIndex": null,
                "type": "image/jpeg",
                "size": 3114886,
                "url": "https://api.sundsvall.se/facilities/2.2/field/filesfield/1693",
                "license": "CC0",
                "licenseDescription": "Creative commons. \"No rights reserved\" https://creativecommons.org/share-your-work/public-domain/cc0/"
              },
              {
                "id": 1694,
                "filename": "Allsta fiskecamp aug 2008 (15).JPG",
                "validForWinter": false,
                "validForSummer": false,
                "sortIndex": null,
                "type": "image/jpeg",
                "size": 2987111,
                "url": "https://api.sundsvall.se/facilities/2.2/field/filesfield/1694",
                "license": "CC0",
                "licenseDescription": "Creative commons. \"No rights reserved\" https://creativecommons.org/share-your-work/public-domain/cc0/"
              },
              {
                "id": 1695,
                "filename": "Allsta fiskecamp aug 2008 (3).JPG",
                "validForWinter": false,
                "validForSummer": false,
                "sortIndex": null,
                "type": "image/jpeg",
                "size": 2936505,
                "url": "https://api.sundsvall.se/facilities/2.2/field/filesfield/1695",
                "license": "CC0",
                "licenseDescription": "Creative commons. \"No rights reserved\" https://creativecommons.org/share-your-work/public-domain/cc0/"
              },
              {
                "id": 1696,
                "filename": "Allsta fiskecamp aug 2008 (6)2.jpg",
                "validForWinter": false,
                "validForSummer": false,
                "sortIndex": null,
                "type": "image/jpeg",
                "size": 5498503,
                "url": "https://api.sundsvall.se/facilities/2.2/field/filesfield/1696",
                "license": "CC0",
                "licenseDescription": "Creative commons. \"No rights reserved\" https://creativecommons.org/share-your-work/public-domain/cc0/"
              },
              {
                "id": 1697,
                "filename": "DSC_1195.JPG",
                "validForWinter": false,
                "validForSummer": false,
                "sortIndex": null,
                "type": "image/jpeg",
                "size": 2894195,
                "url": "https://api.sundsvall.se/facilities/2.2/field/filesfield/1697",
                "license": "CC0",
                "licenseDescription": "Creative commons. \"No rights reserved\" https://creativecommons.org/share-your-work/public-domain/cc0/"
              },
              {
                "id": 1698,
                "filename": "DSC_1196_L.jpg",
                "validForWinter": false,
                "validForSummer": false,
                "sortIndex": null,
                "type": "image/jpeg",
                "size": 4825927,
                "url": "https://api.sundsvall.se/facilities/2.2/field/filesfield/1698",
                "license": "CC0",
                "licenseDescription": "Creative commons. \"No rights reserved\" https://creativecommons.org/share-your-work/public-domain/cc0/"
              }
            ]
          },
          {
            "id": 154,
            "name": "Bokningsbar",
            "type": "TOGGLE",
            "value": "Ja"
          },
          {
            "id": 136,
            "name": "Öppettider länk",
            "type": "FREETEXT",
            "value": "https://allstacamping.webnode.se/"
          },
          {
            "id": 155,
            "name": "Bokning länk",
            "type": "FREETEXT",
            "value": "https://allstacamping.webnode.se/"
          },
          {
            "id": 180,
            "name": "Kontakt länk",
            "type": "FREETEXT",
            "value": "https://allstacamping.webnode.se/"
          }
        ],
        "centerPoint": [
          17.255857968000964,
          62.30005924876357
        ]
      },
      "geometry": {
        "type": "MultiPolygon",
        "coordinates": [
          [
            [
              [
                17.256199503390814,
                62.299451936403045
              ],
              [
                17.256907982080627,
                62.299762908535705
              ],
              [
                17.25729619243288,
                62.29988931392346
              ],
              [
                17.257348317324922,
                62.299906283318506
              ],
              [
                17.25739967507769,
                62.300020646009095
              ],
              [
                17.2571526973676,
                62.300169095938074
              ],
              [
                17.256971597269903,
                62.300318494083484
              ],
              [
                17.25683423284957,
                62.30043178577245
              ],
              [
                17.256580548497322,
                62.300564463495235
              ],
              [
                17.256399141055493,
                62.300597741656254
              ],
              [
                17.255593032141185,
                62.30065996440707
              ],
              [
                17.255092820015633,
                62.30067414244719
              ],
              [
                17.254880603671833,
                62.300667391226774
              ],
              [
                17.25466686316122,
                62.30062926292913
              ],
              [
                17.254479053421445,
                62.300560803654804
              ],
              [
                17.254420063584785,
                62.30053043107532
              ],
              [
                17.254345923858356,
                62.300492259549664
              ],
              [
                17.254473672874546,
                62.300281316110365
              ],
              [
                17.254520444477045,
                62.30020475086368
              ],
              [
                17.25459079453835,
                62.30016637706786
              ],
              [
                17.2547533071508,
                62.300113091331276
              ],
              [
                17.254966946567674,
                62.300052821681426
              ],
              [
                17.255128487441613,
                62.30000781370472
              ],
              [
                17.255299627294495,
                62.299946067942166
              ],
              [
                17.25547013733353,
                62.29988320632962
              ],
              [
                17.255693359012284,
                62.29974966816808
              ],
              [
                17.25588223734065,
                62.29964291382991
              ],
              [
                17.25602237844911,
                62.299543046032646
              ],
              [
                17.256199503390814,
                62.299451936403045
              ]
            ]
          ]
        ]
      }
    },
    {
      "id": 1592,
      "type": "Feature",
      "properties": {
        "name": "Skarpuddsbadets camping",
        "type": "Campingplats/stugby",
        "created": "2020-07-07 13:38:03",
        "updated": "2020-07-07 13:39:33",
        "published": true,
        "owner": {
          "organizationID": 277,
          "name": "Hullsjöns bygdeförening"
        },
        "manager": {
          "organizationID": 277,
          "name": "Hullsjöns bygdeförening"
        },
        "fields": [
          {
            "id": 153,
            "name": "Allmänt tillgänglig",
            "type": "DROPDOWN",
            "value": "Särskilda öppettider"
          },
          {
            "id": 154,
            "name": "Bokningsbar",
            "type": "TOGGLE",
            "value": "Nej"
          },
          {
            "id": 1,
            "name": "Beskrivning",
            "type": "FREETEXT",
            "value": "På campingen finns elstolpar för husvagnar men man kan med fördel även tälta. Det finns två toaletter och en omklädningshytt för dom som vill ta ett dopp Stor-Hullsjön. Här finns även en bastu som går att hyra. I Hullsjön finns ytterligare en badplats."
          },
          {
            "id": 136,
            "name": "Öppettider länk",
            "type": "FREETEXT",
            "value": "https://hullsjon.se/turism/bad-och-camping/"
          },
          {
            "id": 180,
            "name": "Kontakt länk",
            "type": "FREETEXT",
            "value": "https://hullsjon.se/turism/bad-och-camping/"
          }
        ],
        "centerPoint": [
          16.690555697213906,
          62.53139517208498
        ]
      },
      "geometry": {
        "type": "MultiPolygon",
        "coordinates": [
          [
            [
              [
                16.691686786819616,
                62.53104442845807
              ],
              [
                16.691555506052648,
                62.53122450283476
              ],
              [
                16.69147435714911,
                62.53123302663958
              ],
              [
                16.690691534404365,
                62.53115199938604
              ],
              [
                16.69056200935923,
                62.53117116338889
              ],
              [
                16.690462951639006,
                62.531247777921116
              ],
              [
                16.690077678775843,
                62.53174767128794
              ],
              [
                16.68994627141514,
                62.531829704368995
              ],
              [
                16.689849231847557,
                62.53184596098777
              ],
              [
                16.689570015720193,
                62.53181665637771
              ],
              [
                16.689522664432236,
                62.531749354150904
              ],
              [
                16.6895990054781,
                62.5315598905241
              ],
              [
                16.689533091690752,
                62.531357063387475
              ],
              [
                16.689394029631625,
                62.531207911872656
              ],
              [
                16.689554508010225,
                62.53106268093509
              ],
              [
                16.68971825873544,
                62.53097522939584
              ],
              [
                16.689855784263237,
                62.531001219215895
              ],
              [
                16.690165487651978,
                62.530992446337464
              ],
              [
                16.690495235473847,
                62.530953263786216
              ],
              [
                16.690876491693277,
                62.53095870706233
              ],
              [
                16.691686786819616,
                62.53104442845807
              ]
            ]
          ]
        ]
      }
    },
    {
      "id": 3951,
      "type": "Feature",
      "properties": {
        "name": "Sköälsjötjärn fiskecamp",
        "type": "Campingplats/stugby",
        "created": "2024-05-31 11:06:21",
        "published": true,
        "owner": {
          "organizationID": 127,
          "name": "sca"
        },
        "manager": {
          "organizationID": 127,
          "name": "sca"
        },
        "fields": [
          {
            "id": 153,
            "name": "Allmänt tillgänglig",
            "type": "DROPDOWN",
            "value": "Nej"
          },
          {
            "id": 154,
            "name": "Bokningsbar",
            "type": "TOGGLE",
            "value": "Ja"
          },
          {
            "id": 155,
            "name": "Bokning länk",
            "type": "FREETEXT",
            "value": "https://logdowild.se/hyr-campingplats/"
          },
          {
            "id": 180,
            "name": "Kontakt länk",
            "type": "FREETEXT",
            "value": "https://logdowild.se/"
          }
        ],
        "centerPoint": [
          16.976585591262918,
          62.75827698389759
        ]
      },
      "geometry": {
        "type": "MultiPolygon",
        "coordinates": [
          [
            [
              [
                16.975802368603734,
                62.75881345795478
              ],
              [
                16.975414153088572,
                62.75844181032168
              ],
              [
                16.975369790526486,
                62.7579836225981
              ],
              [
                16.975834940510687,
                62.757763390411995
              ],
              [
                16.9763713109408,
                62.75809524281805
              ],
              [
                16.97759747739174,
                62.758285401035124
              ],
              [
                16.97780679731165,
                62.758646990565225
              ],
              [
                16.977191506860166,
                62.758775065360126
              ],
              [
                16.975802368603734,
                62.75881345795478
              ]
            ]
          ]
        ]
      }
    },
    {
      "id": 3952,
      "type": "Feature",
      "properties": {
        "name": "Plåtviken fiskecamp",
        "type": "Campingplats/stugby",
        "created": "2024-05-31 11:08:38",
        "published": true,
        "owner": {
          "organizationID": 127,
          "name": "sca"
        },
        "manager": {
          "organizationID": 127,
          "name": "sca"
        },
        "fields": [
          {
            "id": 153,
            "name": "Allmänt tillgänglig",
            "type": "DROPDOWN",
            "value": "Hela dygnet"
          },
          {
            "id": 154,
            "name": "Bokningsbar",
            "type": "TOGGLE",
            "value": "Ja"
          },
          {
            "id": 155,
            "name": "Bokning länk",
            "type": "FREETEXT",
            "value": "https://logdowild.se/hyr-campingplats/"
          },
          {
            "id": 180,
            "name": "Kontakt länk",
            "type": "FREETEXT",
            "value": "https://logdowild.se/"
          }
        ],
        "centerPoint": [
          16.896741485516305,
          62.82664118762588
        ]
      },
      "geometry": {
        "type": "MultiPolygon",
        "coordinates": [
          [
            [
              [
                16.896205456408286,
                62.826800656076784
              ],
              [
                16.89601301875295,
                62.82674668425915
              ],
              [
                16.89629095057798,
                62.826581105554226
              ],
              [
                16.896619470051657,
                62.82650754643886
              ],
              [
                16.897030276677278,
                62.8264847278149
              ],
              [
                16.89747219309772,
                62.82657147378482
              ],
              [
                16.897375080654424,
                62.8266639132196
              ],
              [
                16.896205456408286,
                62.826800656076784
              ]
            ]
          ]
        ]
      }
    },
    {
      "id": 4252,
      "type": "Feature",
      "properties": {
        "name": "Stöde camping",
        "type": "Campingplats/stugby",
        "created": "2026-01-16 16:17:57",
        "updated": "2026-01-16 16:21:56",
        "published": true,
        "fields": [
          {
            "id": 153,
            "name": "Allmänt tillgänglig",
            "type": "DROPDOWN",
            "value": "Särskilda öppettider"
          },
          {
            "id": 154,
            "name": "Bokningsbar",
            "type": "TOGGLE",
            "value": "Nej"
          }
        ],
        "centerPoint": [
          16.568959906734584,
          62.41571205348158
        ]
      },
      "geometry": {
        "type": "MultiPolygon",
        "coordinates": [
          [
            [
              [
                16.570079013773796,
                62.41637823658817
              ],
              [
                16.569312134769195,
                62.41622690292609
              ],
              [
                16.569107557099315,
                62.415708158166275
              ],
              [
                16.56741273322776,
                62.41590548277918
              ],
              [
                16.566861754096394,
                62.41535863629182
              ],
              [
                16.568927948806287,
                62.41528968519219
              ],
              [
                16.569200215727964,
                62.415030666342325
              ],
              [
                16.571004016247105,
                62.41503319756806
              ],
              [
                16.5708593402626,
                62.41528164081386
              ],
              [
                16.570333882638906,
                62.4154109686433
              ],
              [
                16.570079013773796,
                62.41637823658817
              ]
            ]
          ]
        ]
      }
    },
    {
      "id": 4253,
      "type": "Feature",
      "properties": {
        "name": "Sandnäsets camping",
        "type": "Campingplats/stugby",
        "created": "2026-01-16 16:22:31",
        "updated": "2026-01-16 16:23:09",
        "published": true,
        "fields": [
          {
            "id": 153,
            "name": "Allmänt tillgänglig",
            "type": "DROPDOWN",
            "value": "Särskilda öppettider"
          },
          {
            "id": 154,
            "name": "Bokningsbar",
            "type": "TOGGLE",
            "value": "Nej"
          }
        ],
        "centerPoint": [
          16.394714657138234,
          62.69725817277391
        ]
      },
      "geometry": {
        "type": "MultiPolygon",
        "coordinates": [
          [
            [
              [
                16.39261616775672,
                62.69664148529891
              ],
              [
                16.39375883024569,
                62.697032321148264
              ],
              [
                16.39579797381193,
                62.69681096589526
              ],
              [
                16.397224861632267,
                62.69647685193988
              ],
              [
                16.39738760999348,
                62.69676315538059
              ],
              [
                16.3965122308238,
                62.69697752865414
              ],
              [
                16.396919254159812,
                62.69738022752443
              ],
              [
                16.394064060048464,
                62.698021026568576
              ],
              [
                16.39205150132157,
                62.69796330913403
              ],
              [
                16.392238421548488,
                62.69686003324182
              ],
              [
                16.39261616775672,
                62.69664148529891
              ]
            ]
          ]
        ]
      }
    },
    {
      "id": 4254,
      "type": "Feature",
      "properties": {
        "name": "Käbvsta camping",
        "type": "Campingplats/stugby",
        "created": "2026-01-16 16:23:36",
        "updated": "2026-04-01 22:37:55",
        "published": true,
        "parentObjects": [
          1209
        ],
        "fields": [
          {
            "id": 153,
            "name": "Allmänt tillgänglig",
            "type": "DROPDOWN",
            "value": "Särskilda öppettider"
          },
          {
            "id": 154,
            "name": "Bokningsbar",
            "type": "TOGGLE",
            "value": "Nej"
          }
        ],
        "centerPoint": [
          17.12881391557027,
          62.55731599864849
        ]
      },
      "geometry": {
        "type": "MultiPolygon",
        "coordinates": [
          [
            [
              [
                17.12653905757861,
                62.5584021066208
              ],
              [
                17.125866574625096,
                62.558000912351915
              ],
              [
                17.127352913619035,
                62.5573154625437
              ],
              [
                17.130819837287888,
                62.55627983221747
              ],
              [
                17.131583340631813,
                62.55622248110425
              ],
              [
                17.131751358983426,
                62.556494200212335
              ],
              [
                17.12923688837371,
                62.55734392735468
              ],
              [
                17.12653905757861,
                62.5584021066208
              ]
            ]
          ]
        ]
      }
    }
  ]
}