{
  "type": "FeatureCollection",
  "features": [
    {
      "id": 1525,
      "type": "Feature",
      "properties": {
        "name": "Norra Bergets friluftsmuseum",
        "type": "Friluftsmuseum",
        "created": "2020-04-16 16:51:59",
        "updated": "2024-03-22 09:57:51",
        "published": true,
        "owner": {
          "organizationID": 175,
          "name": "Sundsvalls kommun Sundsvalls museum"
        },
        "manager": {
          "organizationID": 175,
          "name": "Sundsvalls kommun Sundsvalls museum"
        },
        "fields": [
          {
            "id": 153,
            "name": "Allmänt tillgänglig",
            "type": "DROPDOWN",
            "value": "Hela dygnet"
          },
          {
            "id": 7,
            "name": "Tillhörande filer",
            "type": "FILES",
            "value": []
          },
          {
            "id": 154,
            "name": "Bokningsbar",
            "type": "TOGGLE",
            "value": "Nej"
          },
          {
            "id": 285,
            "name": "Felanmälan",
            "type": "Felanmälningstjänst",
            "reportName": "Kontakt Sundsvall",
            "reportDescription": "Felanmälan av motionsspår, elljusspår, leder och andra friluftsanläggningar",
            "reportLink": "https://sundsvall.se/kommun-och-politik/politik-och-demokrati/dialog-och-synpunkter/felanmalan",
            "reportPhone": "060-19 10 00",
            "reportEmail": "kontakt@sundsvall.se"
          },
          {
            "id": 1,
            "name": "Beskrivning",
            "type": "FREETEXT",
            "value": "Välkommen till Norra Berget, en grön oas i Sundsvall och ett av regionens mest välbesökta utflyktsmål. Kombinationen av natur, kulturhistoria, serveringar, butiker, lekparker, grillplatser och arrangemang lockar gamla som unga, året runt. Här finns något för alla åldrar och smaker."
          },
          {
            "id": 180,
            "name": "Kontakt länk",
            "type": "FREETEXT",
            "value": "https://www.norraberget.se/"
          }
        ],
        "centerPoint": [
          17.296462293328982,
          62.399783673924304
        ]
      },
      "geometry": {
        "type": "MultiPolygon",
        "coordinates": [
          [
            [
              [
                17.293685483506387,
                62.399328203818136
              ],
              [
                17.29410425711125,
                62.39932755971859
              ],
              [
                17.294720155520135,
                62.399283032219145
              ],
              [
                17.294828530837336,
                62.398925960157385
              ],
              [
                17.29489129172443,
                62.398910548454225
              ],
              [
                17.29514408564107,
                62.398939651128565
              ],
              [
                17.29516269839628,
                62.39894210920179
              ],
              [
                17.295210761835772,
                62.398948458818346
              ],
              [
                17.295517316512036,
                62.39898896821053
              ],
              [
                17.295759610688595,
                62.399026580534816
              ],
              [
                17.296235563800003,
                62.39912209607695
              ],
              [
                17.296601746135657,
                62.399163557851274
              ],
              [
                17.29663903127513,
                62.39916777792663
              ],
              [
                17.297100842946303,
                62.39921782958372
              ],
              [
                17.29751653350806,
                62.399234005145985
              ],
              [
                17.297975292653447,
                62.399222213115934
              ],
              [
                17.298551851797264,
                62.399195408265626
              ],
              [
                17.2990095703135,
                62.3991630042954
              ],
              [
                17.299938152475903,
                62.399088964537064
              ],
              [
                17.300205035004208,
                62.39906768266105
              ],
              [
                17.300987227339498,
                62.399004285463754
              ],
              [
                17.30153483156109,
                62.39899153515053
              ],
              [
                17.30192056236794,
                62.399001141233896
              ],
              [
                17.302173695528353,
                62.39902592696975
              ],
              [
                17.302413381298873,
                62.39907834725822
              ],
              [
                17.303268824800867,
                62.399296027513735
              ],
              [
                17.303449802537788,
                62.3993964996305
              ],
              [
                17.303301162570627,
                62.39941012352949
              ],
              [
                17.302859508105154,
                62.399421988172364
              ],
              [
                17.302615671640286,
                62.39948963174391
              ],
              [
                17.301521421516444,
                62.39966297755086
              ],
              [
                17.301289756562444,
                62.3996996743637
              ],
              [
                17.301002698454305,
                62.39977157290904
              ],
              [
                17.300560669960188,
                62.399844743041
              ],
              [
                17.300255303360785,
                62.39993136729176
              ],
              [
                17.299669099351274,
                62.400041593860166
              ],
              [
                17.299033269552094,
                62.40018639992462
              ],
              [
                17.299270063506512,
                62.40044023153696
              ],
              [
                17.299025382931543,
                62.40058134257036
              ],
              [
                17.298714908694055,
                62.40064329331471
              ],
              [
                17.29836720516677,
                62.400651320174816
              ],
              [
                17.297731435998934,
                62.400644657601894
              ],
              [
                17.29773149184791,
                62.40061655112196
              ],
              [
                17.297731755680058,
                62.40050148214967
              ],
              [
                17.29703142626157,
                62.40053338060456
              ],
              [
                17.296994391570653,
                62.400385812176054
              ],
              [
                17.29534580593982,
                62.400473260314826
              ],
              [
                17.295292651714494,
                62.4005692091156
              ],
              [
                17.29475761769532,
                62.400616755217165
              ],
              [
                17.29387839666512,
                62.40062490570666
              ],
              [
                17.289511452005843,
                62.400652992388764
              ],
              [
                17.28948534385224,
                62.39987671137809
              ],
              [
                17.291786982261524,
                62.39972747289183
              ],
              [
                17.293502642626304,
                62.399340720080275
              ],
              [
                17.293685483506387,
                62.399328203818136
              ]
            ]
          ]
        ]
      }
    }
  ]
}