{
  "type": "FeatureCollection",
  "features": [
    {
      "id": 1129,
      "type": "Feature",
      "properties": {
        "name": "Matfors-Ängoms Golfbana",
        "type": "Golfbana",
        "created": "2019-11-14 14:11:50",
        "published": false
      },
      "geometry": null
    },
    {
      "id": 1265,
      "type": "Feature",
      "properties": {
        "name": "Skön Golf",
        "type": "Golfbana",
        "created": "2019-11-27 14:16:13",
        "published": false
      },
      "geometry": null
    },
    {
      "id": 1306,
      "type": "Feature",
      "properties": {
        "name": "Öjestrand Golf Club",
        "type": "Golfbana",
        "created": "2019-12-03 14:34:14",
        "updated": "2019-12-13 14:16:39",
        "published": false
      },
      "geometry": null
    },
    {
      "id": 1307,
      "type": "Feature",
      "properties": {
        "name": "Sundsvalls Golfklubb",
        "type": "Golfbana",
        "created": "2019-12-03 14:52:29",
        "updated": "2020-06-29 15:14:06",
        "published": true,
        "owner": {
          "organizationID": 165,
          "name": "sundsvalls golfklubb"
        },
        "manager": {
          "organizationID": 165,
          "name": "sundsvalls golfklubb"
        },
        "tags": [
          "18-håls bana",
          "golf",
          "golfbana",
          "sundsvalls golfklubb"
        ],
        "fields": [
          {
            "id": 153,
            "name": "Allmänt tillgänglig",
            "type": "DROPDOWN",
            "value": "Särskilda öppettider"
          },
          {
            "id": 154,
            "name": "Bokningsbar",
            "type": "TOGGLE",
            "value": "Nej"
          },
          {
            "id": 1,
            "name": "Beskrivning",
            "type": "FREETEXT",
            "value": "18-håls bana. Banarkitekter Rafael Sunholm och Nils Sköld. "
          },
          {
            "id": 155,
            "name": "Bokning länk",
            "type": "FREETEXT",
            "value": "http://sundsvallsgolfklubb.se/"
          },
          {
            "id": 180,
            "name": "Kontakt länk",
            "type": "FREETEXT",
            "value": "http://sundsvallsgolfklubb.se/"
          }
        ],
        "centerPoint": [
          17.387877417861894,
          62.28391825023422
        ]
      },
      "geometry": {
        "type": "MultiPolygon",
        "coordinates": [
          [
            [
              [
                17.38101603022239,
                62.28361812033215
              ],
              [
                17.381003037236976,
                62.28345569465555
              ],
              [
                17.380982750523295,
                62.28320244285561
              ],
              [
                17.38120137699606,
                62.28284717505004
              ],
              [
                17.38144025568901,
                62.28275822046396
              ],
              [
                17.38144555738139,
                62.282645798610545
              ],
              [
                17.381141298145696,
                62.282645121426484
              ],
              [
                17.38108904449941,
                62.28249673805963
              ],
              [
                17.381070031051532,
                62.28181201693402
              ],
              [
                17.381009496092457,
                62.28171900687502
              ],
              [
                17.3810301206975,
                62.281405653133675
              ],
              [
                17.381097172890033,
                62.2812253197966
              ],
              [
                17.38119415154626,
                62.2809644900819
              ],
              [
                17.38139391599826,
                62.28068973017616
              ],
              [
                17.38151138534667,
                62.28052814191711
              ],
              [
                17.381849802882524,
                62.28038995322393
              ],
              [
                17.38188880110043,
                62.28034864676982
              ],
              [
                17.38214607285331,
                62.28007616565328
              ],
              [
                17.38265924373388,
                62.27982803247383
              ],
              [
                17.383765129246225,
                62.27959362820763
              ],
              [
                17.384584402258838,
                62.279757979465515
              ],
              [
                17.384657174871474,
                62.27993349676518
              ],
              [
                17.385990803017396,
                62.28014099638969
              ],
              [
                17.38693219572049,
                62.28037421206013
              ],
              [
                17.387207707690784,
                62.28043205426156
              ],
              [
                17.38775290429077,
                62.28054651462535
              ],
              [
                17.387872785533624,
                62.280701757021774
              ],
              [
                17.387629927869597,
                62.28113673796556
              ],
              [
                17.387631086512265,
                62.28117719795606
              ],
              [
                17.386369381662014,
                62.2808837280905
              ],
              [
                17.385352122479933,
                62.280699656419
              ],
              [
                17.38450524035459,
                62.280509058584805
              ],
              [
                17.38392835529575,
                62.28096406738761
              ],
              [
                17.38445916463743,
                62.281111951403375
              ],
              [
                17.3850472569425,
                62.28119456290501
              ],
              [
                17.38560311190855,
                62.28109403360876
              ],
              [
                17.3859293770584,
                62.28103502242642
              ],
              [
                17.386356668105396,
                62.28108984420864
              ],
              [
                17.38653842005388,
                62.28122697102947
              ],
              [
                17.386360327516247,
                62.28132484379991
              ],
              [
                17.38554023971951,
                62.28144769753309
              ],
              [
                17.38521884812449,
                62.28163101860719
              ],
              [
                17.38495336574547,
                62.28192571059539
              ],
              [
                17.38513028897618,
                62.28239387612407
              ],
              [
                17.385196042697146,
                62.28293940761831
              ],
              [
                17.385251999854557,
                62.28331270288648
              ],
              [
                17.38534089965039,
                62.28390593077508
              ],
              [
                17.385841609444693,
                62.28430562134926
              ],
              [
                17.385482632698565,
                62.28458862701863
              ],
              [
                17.38605847300971,
                62.28498037456533
              ],
              [
                17.38686969761558,
                62.28449549695025
              ],
              [
                17.386649469278485,
                62.28442216784527
              ],
              [
                17.38610936768816,
                62.284712260338615
              ],
              [
                17.385998611024352,
                62.28466155639867
              ],
              [
                17.386228073391706,
                62.28429359524883
              ],
              [
                17.386950552805082,
                62.283865997702925
              ],
              [
                17.387291866639714,
                62.283668979129196
              ],
              [
                17.38745023977842,
                62.28357339321855
              ],
              [
                17.387547809322477,
                62.28349393554068
              ],
              [
                17.387647748581006,
                62.28341254661908
              ],
              [
                17.387980552893303,
                62.283141518850904
              ],
              [
                17.388284473405427,
                62.28281604643671
              ],
              [
                17.388414683993894,
                62.28261345012788
              ],
              [
                17.388442012336288,
                62.28227883327312
              ],
              [
                17.3884676203596,
                62.28218746607423
              ],
              [
                17.3884969710991,
                62.282082712395045
              ],
              [
                17.38854327404096,
                62.2819174395658
              ],
              [
                17.38859693481254,
                62.28182720808754
              ],
              [
                17.388643466260202,
                62.281748924624175
              ],
              [
                17.38882518891699,
                62.28166877519307
              ],
              [
                17.38895574331114,
                62.28157207076772
              ],
              [
                17.388907053227957,
                62.28143719599035
              ],
              [
                17.389314986039423,
                62.28128446931144
              ],
              [
                17.389900682367823,
                62.281057203410896
              ],
              [
                17.390436615492888,
                62.28144111939206
              ],
              [
                17.390909906529444,
                62.281347505226776
              ],
              [
                17.39157690643894,
                62.281457368180924
              ],
              [
                17.392245028574525,
                62.28153706658629
              ],
              [
                17.39314717074338,
                62.281611576165005
              ],
              [
                17.394401325504916,
                62.28162748567953
              ],
              [
                17.394489688543725,
                62.28182741530138
              ],
              [
                17.39460041301493,
                62.282623269538774
              ],
              [
                17.39481684623848,
                62.28331147528522
              ],
              [
                17.395091447936892,
                62.28451810106065
              ],
              [
                17.395097066849118,
                62.28461730122112
              ],
              [
                17.395105296814567,
                62.28472238683685
              ],
              [
                17.395105355025333,
                62.28485852540825
              ],
              [
                17.39510272715955,
                62.28496966500481
              ],
              [
                17.395059629674016,
                62.28510253219177
              ],
              [
                17.39355064831572,
                62.28690544727504
              ],
              [
                17.393173350334884,
                62.287282646858664
              ],
              [
                17.392356147230323,
                62.28759339942171
              ],
              [
                17.39228012144959,
                62.287622301748705
              ],
              [
                17.392011530604837,
                62.28778762977733
              ],
              [
                17.391926658203662,
                62.287998516056376
              ],
              [
                17.391844403895576,
                62.28802932825267
              ],
              [
                17.391458350670362,
                62.28817399970517
              ],
              [
                17.391240448066803,
                62.288255658308934
              ],
              [
                17.389526590810426,
                62.2878285329483
              ],
              [
                17.389193160193162,
                62.28776170349231
              ],
              [
                17.388341345043074,
                62.28764316657142
              ],
              [
                17.3871988489107,
                62.287420407288685
              ],
              [
                17.387043453141654,
                62.287345001455314
              ],
              [
                17.38687772125175,
                62.287264586937454
              ],
              [
                17.386591146494492,
                62.28717971124409
              ],
              [
                17.38621384566739,
                62.287161572275984
              ],
              [
                17.386022321418526,
                62.28708845141514
              ],
              [
                17.385898922834517,
                62.287002261706355
              ],
              [
                17.385883273779566,
                62.28695343022625
              ],
              [
                17.385865278052737,
                62.286897196905244
              ],
              [
                17.385964459792376,
                62.2868114376092
              ],
              [
                17.386398455122727,
                62.28675355394073
              ],
              [
                17.386695950455,
                62.286819090075674
              ],
              [
                17.386783998702885,
                62.286811268057825
              ],
              [
                17.38690628592398,
                62.28671080084087
              ],
              [
                17.38747407590876,
                62.28666476418258
              ],
              [
                17.387720662853294,
                62.28667084117886
              ],
              [
                17.388616710209998,
                62.28617779833708
              ],
              [
                17.388700688175412,
                62.28613159004249
              ],
              [
                17.38884700598109,
                62.2860510621638
              ],
              [
                17.3890583329562,
                62.28594295374398
              ],
              [
                17.389639271985,
                62.28564572322741
              ],
              [
                17.389904382834704,
                62.28544328222899
              ],
              [
                17.39033578484928,
                62.28522998113236
              ],
              [
                17.390646817508824,
                62.28505106721361
              ],
              [
                17.390971638193477,
                62.28478234606662
              ],
              [
                17.391201119951397,
                62.28435352863266
              ],
              [
                17.391290782410458,
                62.28416080455732
              ],
              [
                17.39109707514238,
                62.283811397357304
              ],
              [
                17.390578552789993,
                62.28395785322354
              ],
              [
                17.389824595447113,
                62.28402765210755
              ],
              [
                17.389572052909596,
                62.28413149647403
              ],
              [
                17.38871786307504,
                62.284549574186876
              ],
              [
                17.388382877317568,
                62.28484856146239
              ],
              [
                17.38793480468713,
                62.285139205893685
              ],
              [
                17.387699738415883,
                62.28529169065025
              ],
              [
                17.38722613832191,
                62.28528146391849
              ],
              [
                17.387135035948624,
                62.28526383522104
              ],
              [
                17.387054790751343,
                62.285247516495936
              ],
              [
                17.386109363369336,
                62.285789388981556
              ],
              [
                17.385331585080376,
                62.286306455516055
              ],
              [
                17.384998251851847,
                62.2862924762639
              ],
              [
                17.38495293395604,
                62.28661921619835
              ],
              [
                17.38437365840632,
                62.28639407272104
              ],
              [
                17.384048281211694,
                62.28645071653229
              ],
              [
                17.383398955209195,
                62.286289818343086
              ],
              [
                17.382904076425756,
                62.28621529300121
              ],
              [
                17.382323872844673,
                62.286185711312235
              ],
              [
                17.38159878828078,
                62.28619366740083
              ],
              [
                17.381314760438055,
                62.286134599835606
              ],
              [
                17.380997157592187,
                62.285879194280525
              ],
              [
                17.380802005458495,
                62.28506867923816
              ],
              [
                17.38089247185892,
                62.284952511911314
              ],
              [
                17.38093898888147,
                62.284721425614244
              ],
              [
                17.38094255340562,
                62.28422904709637
              ],
              [
                17.380994187837775,
                62.28407630758857
              ],
              [
                17.38102849287942,
                62.28397480838398
              ],
              [
                17.38101603022239,
                62.28361812033215
              ]
            ]
          ]
        ]
      }
    }
  ]
}