{
  "type": "FeatureCollection",
  "features": [
    {
      "id": 810,
      "type": "Feature",
      "properties": {
        "name": "Alnö Ridklubb",
        "type": "Hästsport",
        "created": "2019-10-16 11:56:45",
        "published": false
      },
      "geometry": null
    },
    {
      "id": 879,
      "type": "Feature",
      "properties": {
        "name": "Bergsåkers Travbana",
        "type": "Hästsport",
        "created": "2019-10-21 13:57:53",
        "updated": "2019-10-21 14:18:00",
        "published": false
      },
      "geometry": null
    },
    {
      "id": 880,
      "type": "Feature",
      "properties": {
        "name": "Kungsnäs Ridcenter",
        "type": "Hästsport",
        "created": "2019-10-21 14:17:36",
        "updated": "2024-03-22 10:02:03",
        "published": true,
        "owner": {
          "organizationID": 167,
          "name": "sundsvalls kommun"
        },
        "manager": {
          "organizationID": 177,
          "name": "sundsvalls ridklubb"
        },
        "tags": [
          "hästar",
          "hästsport",
          "kungsnäs",
          "ridskola"
        ],
        "fields": [
          {
            "id": 153,
            "name": "Allmänt tillgänglig",
            "type": "DROPDOWN",
            "value": "Särskilda öppettider"
          },
          {
            "id": 7,
            "name": "Tillhörande filer",
            "type": "FILES",
            "value": [
              {
                "id": 657,
                "filename": "kungsnäs_ridcenter.jpg",
                "description": "",
                "alttext": "",
                "sourcetext": "Sundsvalls kommun",
                "validForWinter": false,
                "validForSummer": false,
                "sortIndex": null,
                "type": "image/jpeg",
                "size": 67064,
                "url": "https://api.sundsvall.se/facilities/2.2/field/filesfield/657",
                "license": "CC0",
                "licenseDescription": "Creative commons. \"No rights reserved\" https://creativecommons.org/share-your-work/public-domain/cc0/"
              }
            ]
          },
          {
            "id": 154,
            "name": "Bokningsbar",
            "type": "TOGGLE",
            "value": "Nej"
          },
          {
            "id": 1,
            "name": "Beskrivning",
            "type": "FREETEXT",
            "value": "Hästsportanläggning med ridskola.  Klubben har egna hästar och ponnyer i verksamheten. Inom lektionsverksamheten bedrivs också fritidsridning för handikappade samt hopp- och dressyrträningar för elever med egna hästar. "
          },
          {
            "id": 136,
            "name": "Öppettider länk",
            "type": "FREETEXT",
            "value": "https://sundsvallsrk.se/"
          },
          {
            "id": 155,
            "name": "Bokning länk",
            "type": "FREETEXT",
            "value": "https://sundsvallsrk.se/"
          },
          {
            "id": 180,
            "name": "Kontakt länk",
            "type": "FREETEXT",
            "value": "https://sundsvallsrk.se/"
          }
        ],
        "centerPoint": [
          17.199984379344674,
          62.41407740610214
        ]
      },
      "geometry": {
        "type": "MultiPolygon",
        "coordinates": [
          [
            [
              [
                17.197809290243203,
                62.41349799293293
              ],
              [
                17.197425091897305,
                62.413283496962144
              ],
              [
                17.197143868394352,
                62.41313729371715
              ],
              [
                17.1970944705499,
                62.41299768121706
              ],
              [
                17.19656876919009,
                62.41275208110601
              ],
              [
                17.196426738412526,
                62.41269270514086
              ],
              [
                17.196462673654263,
                62.41264900889372
              ],
              [
                17.1965384300074,
                62.41255689342471
              ],
              [
                17.19748578008376,
                62.412028818709786
              ],
              [
                17.19723715738907,
                62.411751473347195
              ],
              [
                17.19715515900248,
                62.41160728490777
              ],
              [
                17.197151579289695,
                62.41149022330048
              ],
              [
                17.197070688949633,
                62.41142767479069
              ],
              [
                17.196979655434216,
                62.41131308607204
              ],
              [
                17.196971067553942,
                62.41124883123879
              ],
              [
                17.197034815461116,
                62.41120511785971
              ],
              [
                17.19713734067903,
                62.41119206909884
              ],
              [
                17.197234938283017,
                62.41120231661668
              ],
              [
                17.197419220907772,
                62.4112207556805
              ],
              [
                17.197707574427458,
                62.41125134629912
              ],
              [
                17.198001663584648,
                62.411309614905974
              ],
              [
                17.1982947617935,
                62.41137138965035
              ],
              [
                17.19860548440383,
                62.41144995066169
              ],
              [
                17.19899190381903,
                62.41152155708048
              ],
              [
                17.199296125533827,
                62.41156868094185
              ],
              [
                17.199681679142973,
                62.41162127502966
              ],
              [
                17.200015684818297,
                62.411688827185884
              ],
              [
                17.200266342678088,
                62.41174913998034
              ],
              [
                17.200311421584356,
                62.41180710738351
              ],
              [
                17.20051250625095,
                62.41184030288981
              ],
              [
                17.200692163305813,
                62.411856155888856
              ],
              [
                17.201162721385092,
                62.41187262263473
              ],
              [
                17.20167191481335,
                62.41192290391895
              ],
              [
                17.202132725566894,
                62.41189820924583
              ],
              [
                17.20233720486423,
                62.411949722200745
              ],
              [
                17.202542945194004,
                62.41202799487569
              ],
              [
                17.202592159835355,
                62.412154704774714
              ],
              [
                17.202658005688818,
                62.4122362168115
              ],
              [
                17.20267990028184,
                62.41233974339415
              ],
              [
                17.203234638359646,
                62.4151336724059
              ],
              [
                17.203328513220313,
                62.415536563322064
              ],
              [
                17.203426272078385,
                62.416022963180076
              ],
              [
                17.203472504602875,
                62.41623183288489
              ],
              [
                17.20361236860847,
                62.416863946952304
              ],
              [
                17.203640253104048,
                62.41690878613964
              ],
              [
                17.203651783989635,
                62.41694978566181
              ],
              [
                17.20350876316162,
                62.4169512197037
              ],
              [
                17.203474229054656,
                62.41695156594987
              ],
              [
                17.202917126437562,
                62.416957150381144
              ],
              [
                17.20263405402461,
                62.41696409930529
              ],
              [
                17.202455880719427,
                62.41694124002266
              ],
              [
                17.20240282962486,
                62.41690507993945
              ],
              [
                17.202187142854754,
                62.41675804892633
              ],
              [
                17.2021174831421,
                62.41671055096867
              ],
              [
                17.201943934710037,
                62.41659730582583
              ],
              [
                17.201707862172235,
                62.416472364344834
              ],
              [
                17.201456773976314,
                62.41640507173012
              ],
              [
                17.201472934406507,
                62.41639539676634
              ],
              [
                17.20160323397706,
                62.41631736420059
              ],
              [
                17.2015986431967,
                62.41621886126947
              ],
              [
                17.201585969480806,
                62.4161368592731
              ],
              [
                17.201566536152743,
                62.416100087159215
              ],
              [
                17.201598675829356,
                62.41602962564748
              ],
              [
                17.201599997047026,
                62.415888138424414
              ],
              [
                17.20161392638175,
                62.415623244718006
              ],
              [
                17.201621854804433,
                62.41549355745647
              ],
              [
                17.201641459632782,
                62.41534609527075
              ],
              [
                17.20166816667955,
                62.415171817929
              ],
              [
                17.20172236152511,
                62.41494018629942
              ],
              [
                17.201702034819927,
                62.414833652663525
              ],
              [
                17.201495210760097,
                62.41476418660748
              ],
              [
                17.201329071501558,
                62.41475940648935
              ],
              [
                17.201112708988816,
                62.41472174592692
              ],
              [
                17.20053933061661,
                62.41475709507058
              ],
              [
                17.200479703191956,
                62.41487292116077
              ],
              [
                17.200369436541564,
                62.414952634668055
              ],
              [
                17.200227435288156,
                62.41502405010992
              ],
              [
                17.200071881635438,
                62.41508672489476
              ],
              [
                17.19989951981414,
                62.41510056103899
              ],
              [
                17.19968881273514,
                62.415105267243185
              ],
              [
                17.19937006374369,
                62.415095987135096
              ],
              [
                17.19907833965289,
                62.41507700266056
              ],
              [
                17.19877221531021,
                62.41507297421343
              ],
              [
                17.198348247221155,
                62.41506069609228
              ],
              [
                17.198069968139645,
                62.41503538513319
              ],
              [
                17.19790690412206,
                62.414970160917775
              ],
              [
                17.19778024265631,
                62.414906535010005
              ],
              [
                17.197694347241658,
                62.41478556053845
              ],
              [
                17.19770224571521,
                62.41467166401357
              ],
              [
                17.197653145853817,
                62.41436556841354
              ],
              [
                17.197615213764333,
                62.41419798990544
              ],
              [
                17.197609918848432,
                62.41402995520109
              ],
              [
                17.19763257022271,
                62.41396377400548
              ],
              [
                17.197809290243203,
                62.41349799293293
              ]
            ]
          ]
        ]
      }
    },
    {
      "id": 1040,
      "type": "Feature",
      "properties": {
        "name": "Lindberga 4H Klubb",
        "type": "Hästsport",
        "created": "2019-11-06 15:46:06",
        "published": false
      },
      "geometry": null
    },
    {
      "id": 1135,
      "type": "Feature",
      "properties": {
        "name": "Matfors Ryttarförening",
        "type": "Hästsport",
        "created": "2019-11-14 15:00:17",
        "published": false
      },
      "geometry": null
    },
    {
      "id": 1267,
      "type": "Feature",
      "properties": {
        "name": "Färsta Ridcenter",
        "type": "Hästsport",
        "created": "2019-11-27 14:43:31",
        "updated": "2019-12-13 14:17:39",
        "published": false
      },
      "geometry": null
    },
    {
      "id": 1311,
      "type": "Feature",
      "properties": {
        "name": "Njurunda Ryttareförening",
        "type": "Hästsport",
        "created": "2019-12-03 16:29:54",
        "published": false
      },
      "geometry": null
    },
    {
      "id": 1312,
      "type": "Feature",
      "properties": {
        "name": "Myre Ridgård",
        "type": "Hästsport",
        "created": "2019-12-03 16:35:33",
        "updated": "2020-06-29 15:14:45",
        "published": true,
        "owner": {
          "organizationID": 102,
          "name": "myre ridgård"
        },
        "manager": {
          "organizationID": 102,
          "name": "myre ridgård"
        },
        "tags": [
          "myre ridgård"
        ],
        "fields": [
          {
            "id": 153,
            "name": "Allmänt tillgänglig",
            "type": "DROPDOWN",
            "value": "Särskilda öppettider"
          },
          {
            "id": 7,
            "name": "Tillhörande filer",
            "type": "FILES",
            "value": [
              {
                "id": 1229,
                "filename": "myre_ridgård_01.jpg",
                "validForWinter": false,
                "validForSummer": false,
                "sortIndex": null,
                "type": "image/jpeg",
                "size": 86259,
                "url": "https://api.sundsvall.se/facilities/2.2/field/filesfield/1229",
                "license": "CC0",
                "licenseDescription": "Creative commons. \"No rights reserved\" https://creativecommons.org/share-your-work/public-domain/cc0/"
              }
            ]
          },
          {
            "id": 154,
            "name": "Bokningsbar",
            "type": "TOGGLE",
            "value": "Ja"
          },
          {
            "id": 1,
            "name": "Beskrivning",
            "type": "FREETEXT",
            "value": " Arrangerar äventyrsdagar för grupper, turridning, slädtur, familjedagar etc.   "
          }
        ],
        "centerPoint": [
          17.37461947189257,
          62.24240580282943
        ]
      },
      "geometry": {
        "type": "MultiPolygon",
        "coordinates": [
          [
            [
              [
                17.374005030929982,
                62.24270687916208
              ],
              [
                17.37528692360949,
                62.242773853917974
              ],
              [
                17.37520016918751,
                62.242185293662274
              ],
              [
                17.374090983522464,
                62.2420372423469
              ],
              [
                17.37397753339689,
                62.24235710149485
              ],
              [
                17.374005030929982,
                62.24270687916208
              ]
            ]
          ]
        ]
      }
    },
    {
      "id": 1313,
      "type": "Feature",
      "properties": {
        "name": "Stall Björkbacke Gård",
        "type": "Hästsport",
        "created": "2019-12-03 16:44:12",
        "published": false
      },
      "geometry": null
    }
  ]
}