{
  "type": "FeatureCollection",
  "features": [
    {
      "id": 1209,
      "type": "Feature",
      "properties": {
        "name": "Indalsälvens kanotled",
        "type": "Kanotled",
        "created": "2019-11-22 11:53:08",
        "updated": "2026-04-01 22:37:55",
        "published": true,
        "childObjects": [
          4196,
          4254,
          4449,
          4450,
          4451,
          4452,
          4453,
          4454,
          4455
        ],
        "owner": {
          "organizationID": 36,
          "name": "Sundsvalls kommun Friluftsenheten"
        },
        "manager": {
          "organizationID": 36,
          "name": "Sundsvalls kommun Friluftsenheten"
        },
        "fields": [
          {
            "id": 109,
            "name": "Svårighet",
            "type": "DROPDOWN",
            "value": "Mycket lätt"
          },
          {
            "id": 121,
            "name": "Ledtyp",
            "type": "DROPDOWN",
            "value": "Iordningställd"
          },
          {
            "id": 134,
            "name": "Ledgrupp",
            "type": "DROPDOWN",
            "value": "Sundsvalls kanotleder"
          },
          {
            "id": 274,
            "name": "Led",
            "type": "COMBINEDTRAIL",
            "referencedObjects": [
              {
                "objectID": 2405,
                "fieldID": 262,
                "direction": "NORMAL"
              },
              {
                "objectID": 2406,
                "fieldID": 262,
                "direction": "NORMAL"
              },
              {
                "objectID": 2407,
                "fieldID": 262,
                "direction": "NORMAL"
              },
              {
                "objectID": 2408,
                "fieldID": 262,
                "direction": "NORMAL"
              },
              {
                "objectID": 2409,
                "fieldID": 262,
                "direction": "NORMAL"
              },
              {
                "objectID": 2410,
                "fieldID": 262,
                "direction": "NORMAL"
              },
              {
                "objectID": 2411,
                "fieldID": 262,
                "direction": "NORMAL"
              },
              {
                "objectID": 2412,
                "fieldID": 262,
                "direction": "NORMAL"
              },
              {
                "objectID": 2413,
                "fieldID": 262,
                "direction": "NORMAL"
              }
            ]
          },
          {
            "id": 102,
            "name": "Öppen",
            "type": "TOGGLE",
            "value": "Ja"
          },
          {
            "id": 103,
            "name": "Belysning",
            "type": "TOGGLE",
            "value": "Nej"
          },
          {
            "id": 108,
            "name": "Tillgänglighetsanpassad",
            "type": "TOGGLE",
            "value": "Nej"
          },
          {
            "id": 287,
            "name": "Felanmälan",
            "type": "Felanmälningstjänst",
            "reportName": "Kontakt Sundsvall",
            "reportDescription": "Felanmälan av motionsspår, elljusspår, leder och andra friluftsanläggningar",
            "reportLink": "https://sundsvall.se/kommun-och-politik/politik-och-demokrati/dialog-och-synpunkter/felanmalan",
            "reportPhone": "060-19 10 00",
            "reportEmail": "kontakt@sundsvall.se"
          },
          {
            "id": 104,
            "name": "Avgift",
            "type": "FREETEXT",
            "value": "Nej"
          }
        ],
        "centerPoint": [
          16.774734793157315,
          62.74391837942632
        ]
      },
      "geometry": {
        "type": "LineString",
        "coordinates": [
          [
            16.6717014049926,
            62.91170321248546
          ],
          [
            16.669567787930806,
            62.91174732949249
          ],
          [
            16.661779992991676,
            62.90691093351131
          ],
          [
            16.656928708343038,
            62.90335451098767
          ],
          [
            16.650966621348537,
            62.89839696539422
          ],
          [
            16.649290028774086,
            62.896138516715425
          ],
          [
            16.647865492411476,
            62.88916386784933
          ],
          [
            16.644836678564772,
            62.88118672762444
          ],
          [
            16.64241858454648,
            62.877957875772545
          ],
          [
            16.640695552924992,
            62.877405386888285
          ],
          [
            16.640695552924992,
            62.877405386888285
          ],
          [
            16.642120265120255,
            62.87569899671129
          ],
          [
            16.64269791728346,
            62.87187454113137
          ],
          [
            16.647655951930428,
            62.86395044982785
          ],
          [
            16.65596439637646,
            62.84657106908268
          ],
          [
            16.657178714539267,
            62.84066518853174
          ],
          [
            16.66671099845792,
            62.829947782904796
          ],
          [
            16.664356617845268,
            62.82172735696418
          ],
          [
            16.66151206583871,
            62.8169691041406
          ],
          [
            16.65839891318214,
            62.80742210720395
          ],
          [
            16.66283066574965,
            62.79817398840517
          ],
          [
            16.662232061407728,
            62.79754005138903
          ],
          [
            16.662232061407728,
            62.79754005138903
          ],
          [
            16.66241596430589,
            62.79742701655869
          ],
          [
            16.665032323085857,
            62.797388042405075
          ],
          [
            16.665251469755557,
            62.79740060401924
          ],
          [
            16.665416659897765,
            62.79739049127581
          ],
          [
            16.665535953716343,
            62.79734939743994
          ],
          [
            16.665592538995266,
            62.79728259425176
          ],
          [
            16.6656060629454,
            62.797221117249904
          ],
          [
            16.66559666300212,
            62.79708463012746
          ],
          [
            16.665597777823383,
            62.796831611957096
          ],
          [
            16.665701867879005,
            62.79667935896577
          ],
          [
            16.666080256094705,
            62.79642648033476
          ],
          [
            16.66612363570019,
            62.79640314771781
          ],
          [
            16.665848162667718,
            62.79633736530741
          ],
          [
            16.665557389053674,
            62.79623888999955
          ],
          [
            16.665157601882363,
            62.79591453380258
          ],
          [
            16.665131609649674,
            62.79579717668617
          ],
          [
            16.665370679052813,
            62.795405186542645
          ],
          [
            16.66532896309466,
            62.794881815604775
          ],
          [
            16.665154245566143,
            62.79454206483551
          ],
          [
            16.665148099139508,
            62.79439148526231
          ],
          [
            16.665247329618794,
            62.79422793016375
          ],
          [
            16.665863577284785,
            62.79357516780432
          ],
          [
            16.665990041134805,
            62.79341755645299
          ],
          [
            16.666028684757435,
            62.793364161594994
          ],
          [
            16.666068129568494,
            62.793210900147365
          ],
          [
            16.66602638997315,
            62.79311879743826
          ],
          [
            16.66584980589204,
            62.7929812648251
          ],
          [
            16.665699285531534,
            62.79286851385801
          ],
          [
            16.665600209278075,
            62.792817529540606
          ],
          [
            16.66533968706683,
            62.792690859278714
          ],
          [
            16.665163370983322,
            62.792560854595024
          ],
          [
            16.66446914925091,
            62.79239338988478
          ],
          [
            16.66446914925091,
            62.79239338988478
          ],
          [
            16.664141593565315,
            62.792122321642616
          ],
          [
            16.664738184298763,
            62.79159677243601
          ],
          [
            16.676828177201777,
            62.790110260004404
          ],
          [
            16.68151613264631,
            62.78976953068097
          ],
          [
            16.684131891431836,
            62.7901254851769
          ],
          [
            16.684131891431836,
            62.7901254851769
          ],
          [
            16.683836679970728,
            62.78930814174283
          ],
          [
            16.68514286737614,
            62.78790559464453
          ],
          [
            16.69602561725412,
            62.78265292366063
          ],
          [
            16.700757044778143,
            62.7778509798828
          ],
          [
            16.706255361483418,
            62.77329093650491
          ],
          [
            16.707246973831758,
            62.77116842774468
          ],
          [
            16.70714659363317,
            62.76498454109786
          ],
          [
            16.712682042850954,
            62.758758352678555
          ],
          [
            16.716777787687416,
            62.75374358262047
          ],
          [
            16.719355710830722,
            62.75210950168391
          ],
          [
            16.72408747794984,
            62.75098314891928
          ],
          [
            16.727058811406263,
            62.751403471215184
          ],
          [
            16.727058811406263,
            62.751403471215184
          ],
          [
            16.727221526488275,
            62.75020111622718
          ],
          [
            16.728953818813107,
            62.7495890611178
          ],
          [
            16.73034097389151,
            62.74705247396381
          ],
          [
            16.73230768751933,
            62.743906151164936
          ],
          [
            16.7346674478992,
            62.742085923530375
          ],
          [
            16.738316556164218,
            62.7400611660768
          ],
          [
            16.749948508509007,
            62.73865982103356
          ],
          [
            16.75902422766746,
            62.73691245697995
          ],
          [
            16.772750303190808,
            62.73076920308968
          ],
          [
            16.77504186550315,
            62.72901196952337
          ],
          [
            16.776423352711927,
            62.725315548110856
          ],
          [
            16.778228524584886,
            62.72221560233305
          ],
          [
            16.78679056945107,
            62.71660777723508
          ],
          [
            16.78613063218305,
            62.71418084359317
          ],
          [
            16.786306740333153,
            62.711429034461965
          ],
          [
            16.784887364121776,
            62.70775481179471
          ],
          [
            16.78520609080226,
            62.70452983380455
          ],
          [
            16.7834784693596,
            62.70140943246743
          ],
          [
            16.783464949909888,
            62.69834579709026
          ],
          [
            16.785021863011295,
            62.6971144714369
          ],
          [
            16.786816236073225,
            62.69714819732454
          ],
          [
            16.786816236073225,
            62.69714819732454
          ],
          [
            16.785527102529375,
            62.69619047168092
          ],
          [
            16.78565769558769,
            62.693588891083024
          ],
          [
            16.78407770202903,
            62.68666434976799
          ],
          [
            16.786135620727315,
            62.68450134909766
          ],
          [
            16.801249723190402,
            62.68003444263935
          ],
          [
            16.82619534545149,
            62.67543818977313
          ],
          [
            16.845560128853666,
            62.66915121523166
          ],
          [
            16.854290117747205,
            62.665579348681085
          ],
          [
            16.864483332615066,
            62.66249025936142
          ],
          [
            16.8688014531367,
            62.65944742279326
          ],
          [
            16.87620900148073,
            62.65557750802747
          ],
          [
            16.88316494811982,
            62.65081248476742
          ],
          [
            16.887919036685453,
            62.650599849794226
          ],
          [
            16.887919036685453,
            62.650599849794226
          ],
          [
            16.886977824304083,
            62.64873945206366
          ],
          [
            16.898295654753817,
            62.64415568189782
          ],
          [
            16.908185849494796,
            62.640784566409124
          ],
          [
            16.928864204447546,
            62.63518440748716
          ],
          [
            16.937775619842917,
            62.632773515247386
          ],
          [
            16.946733509841206,
            62.628943397943935
          ],
          [
            16.96406098491263,
            62.621471279035774
          ],
          [
            16.978391304460875,
            62.61737275542704
          ],
          [
            16.98919543116187,
            62.61263148470313
          ],
          [
            16.996123897777604,
            62.609138850180116
          ],
          [
            16.998744967139995,
            62.60841722591564
          ],
          [
            17.00270969333305,
            62.607325511099965
          ],
          [
            17.00534663145918,
            62.606599305682934
          ],
          [
            17.007553192049755,
            62.60697361899794
          ],
          [
            17.009532850327922,
            62.607421641911955
          ],
          [
            17.009615920782792,
            62.60744787836003
          ],
          [
            17.009525993018418,
            62.605384182880194
          ],
          [
            17.02981257774978,
            62.59800082924176
          ],
          [
            17.040820974782683,
            62.593252218008686
          ],
          [
            17.05961024161743,
            62.586455852215536
          ],
          [
            17.0731150187064,
            62.57973527170553
          ],
          [
            17.087502487421222,
            62.57111450007802
          ],
          [
            17.124260110234047,
            62.555407924426675
          ],
          [
            17.12929193949471,
            62.55720308413366
          ]
        ]
      }
    }
  ]
}