{
  "type": "FeatureCollection",
  "features": [
    {
      "id": 4186,
      "type": "Feature",
      "properties": {
        "name": "Alnö gamla Kyrka",
        "type": "Kulturbyggnation",
        "created": "2025-12-15 14:37:39",
        "published": true,
        "fields": [
          {
            "id": 200,
            "name": "Allmänt tillgänglig",
            "type": "DROPDOWN",
            "value": "Särskilda öppettider"
          },
          {
            "id": 96,
            "name": "Byggnad",
            "type": "BUILDING",
            "buildingStatus": "Gällande",
            "buildingGuid": "975245bc-1dfd-459d-9c80-558a59287166"
          }
        ],
        "centerPoint": [
          17.407510273976364,
          62.44809070862264
        ]
      },
      "geometry": {
        "type": "MultiPolygon",
        "coordinates": [
          [
            [
              [
                17.40760155599926,
                62.447968529563205
              ],
              [
                17.40763379525746,
                62.44800006929051
              ],
              [
                17.40771035990199,
                62.44798326473446
              ],
              [
                17.40779147613131,
                62.448064691427945
              ],
              [
                17.407885170907353,
                62.448161482079676
              ],
              [
                17.40773813510548,
                62.44819372883179
              ],
              [
                17.407655430645633,
                62.44811280549948
              ],
              [
                17.407346214704322,
                62.4481806401588
              ],
              [
                17.40729740388202,
                62.44817782782126
              ],
              [
                17.407204535635486,
                62.448169355026586
              ],
              [
                17.407140386294856,
                62.44811517837791
              ],
              [
                17.40713931429364,
                62.44810089090028
              ],
              [
                17.407159965526777,
                62.44808383058674
              ],
              [
                17.40720352543293,
                62.44805584060011
              ],
              [
                17.40760155599926,
                62.447968529563205
              ]
            ]
          ]
        ]
      }
    },
    {
      "id": 4194,
      "type": "Feature",
      "properties": {
        "name": "Lidens gamla Kyrka",
        "type": "Kulturbyggnation",
        "created": "2026-01-05 15:24:14",
        "published": true,
        "fields": [
          {
            "id": 200,
            "name": "Allmänt tillgänglig",
            "type": "DROPDOWN",
            "value": "Särskilda öppettider"
          },
          {
            "id": 96,
            "name": "Byggnad",
            "type": "BUILDING",
            "buildingName": "Lidens gamla kyrka",
            "buildingStatus": "Gällande",
            "buildingGuid": "1c472f17-c921-4fe9-9db8-79589c9cebdc"
          }
        ],
        "centerPoint": [
          16.790638551690165,
          62.69872924551711
        ]
      },
      "geometry": {
        "type": "MultiPolygon",
        "coordinates": [
          [
            [
              [
                16.7904587893036,
                62.69872265808931
              ],
              [
                16.790477203887004,
                62.69871783527541
              ],
              [
                16.79043146399565,
                62.69868097971926
              ],
              [
                16.79053372900537,
                62.69865506565092
              ],
              [
                16.790578667097275,
                62.69869126701767
              ],
              [
                16.790737279055175,
                62.69864973897013
              ],
              [
                16.790837862553115,
                62.69873078561494
              ],
              [
                16.790805632642364,
                62.698739232410986
              ],
              [
                16.790844325321924,
                62.69877041377114
              ],
              [
                16.79075948734641,
                62.69879263111347
              ],
              [
                16.790720794726408,
                62.69876144972982
              ],
              [
                16.79055937337856,
                62.69880372287722
              ],
              [
                16.7904587893036,
                62.69872265808931
              ]
            ]
          ]
        ]
      }
    }
  ]
}