{
  "type": "FeatureCollection",
  "features": [
    {
      "id": 2025,
      "type": "Feature",
      "properties": {
        "name": "Isbana Sidsjön 1",
        "type": "Ledlänk på vatten",
        "created": "2021-08-30 13:25:36",
        "updated": "2022-11-11 12:02:16",
        "published": true,
        "owner": {
          "organizationID": 36,
          "name": "Sundsvalls kommun Friluftsenheten"
        },
        "manager": {
          "organizationID": 36,
          "name": "Sundsvalls kommun Friluftsenheten"
        },
        "fields": [
          {
            "id": 276,
            "name": "Vinterskötsel",
            "type": "DROPDOWN",
            "value": "Prepareras för skridsko"
          },
          {
            "id": 268,
            "name": "Öppen",
            "type": "TOGGLE",
            "value": "Nej"
          },
          {
            "id": 278,
            "name": "Sommarled",
            "type": "TOGGLE",
            "value": "Nej"
          },
          {
            "id": 262,
            "name": "Ledlänk",
            "type": "TRAIL",
            "affectedObjects": [
              1478
            ]
          },
          {
            "id": 269,
            "name": "Avgift",
            "type": "FREETEXT",
            "value": "Nej"
          }
        ],
        "centerPoint": [
          17.27903798655699,
          62.37346588715872
        ]
      },
      "geometry": {
        "type": "LineString",
        "coordinates": [
          [
            17.27519470050403,
            62.36956703592094
          ],
          [
            17.275723693778026,
            62.36968913758364
          ],
          [
            17.276291077526665,
            62.37003188000818
          ],
          [
            17.27694088621869,
            62.370604600056254
          ],
          [
            17.277535738935317,
            62.371308967778155
          ],
          [
            17.278516158901002,
            62.37195673266886
          ],
          [
            17.279318723509444,
            62.37282867449101
          ],
          [
            17.280069178432772,
            62.37329915536804
          ],
          [
            17.28064560605117,
            62.373458458282954
          ],
          [
            17.281459718771863,
            62.373626155839176
          ],
          [
            17.28182186487577,
            62.37383143264315
          ],
          [
            17.281849357809,
            62.37419306146533
          ],
          [
            17.281109792419112,
            62.374436512527964
          ],
          [
            17.280437401272597,
            62.37470903255809
          ],
          [
            17.279702121653575,
            62.375294369596084
          ],
          [
            17.279608136261118,
            62.37586428481603
          ],
          [
            17.279524164064238,
            62.37637346408381
          ],
          [
            17.278125508616558,
            62.37735184844616
          ],
          [
            17.27784959718189,
            62.377426767973766
          ]
        ]
      }
    },
    {
      "id": 2026,
      "type": "Feature",
      "properties": {
        "name": "Isbana Sidsjön 2",
        "type": "Ledlänk på vatten",
        "created": "2021-08-30 13:27:17",
        "updated": "2022-11-11 12:02:44",
        "published": true,
        "owner": {
          "organizationID": 36,
          "name": "Sundsvalls kommun Friluftsenheten"
        },
        "manager": {
          "organizationID": 36,
          "name": "Sundsvalls kommun Friluftsenheten"
        },
        "fields": [
          {
            "id": 276,
            "name": "Vinterskötsel",
            "type": "DROPDOWN",
            "value": "Prepareras för skridsko"
          },
          {
            "id": 268,
            "name": "Öppen",
            "type": "TOGGLE",
            "value": "Nej"
          },
          {
            "id": 278,
            "name": "Sommarled",
            "type": "TOGGLE",
            "value": "Nej"
          },
          {
            "id": 262,
            "name": "Ledlänk",
            "type": "TRAIL",
            "affectedObjects": [
              1478
            ]
          },
          {
            "id": 269,
            "name": "Avgift",
            "type": "FREETEXT",
            "value": "Nej"
          }
        ],
        "centerPoint": [
          17.276232102525597,
          62.37609255820245
        ]
      },
      "geometry": {
        "type": "LineString",
        "coordinates": [
          [
            17.27784959718189,
            62.377426767973766
          ],
          [
            17.276893106177972,
            62.37738207030286
          ],
          [
            17.27617565786695,
            62.37706189823698
          ],
          [
            17.276096883721284,
            62.376308855599994
          ],
          [
            17.275860892291995,
            62.37519630474266
          ],
          [
            17.275676708904406,
            62.37476683323159
          ],
          [
            17.27507206891442,
            62.37450515834634
          ]
        ]
      }
    },
    {
      "id": 2027,
      "type": "Feature",
      "properties": {
        "name": "Isbana Sidsjön 3",
        "type": "Ledlänk på vatten",
        "created": "2021-08-30 13:27:50",
        "updated": "2022-11-11 12:02:33",
        "published": true,
        "owner": {
          "organizationID": 36,
          "name": "Sundsvalls kommun Friluftsenheten"
        },
        "manager": {
          "organizationID": 36,
          "name": "Sundsvalls kommun Friluftsenheten"
        },
        "fields": [
          {
            "id": 276,
            "name": "Vinterskötsel",
            "type": "DROPDOWN",
            "value": "Prepareras för skridsko"
          },
          {
            "id": 268,
            "name": "Öppen",
            "type": "TOGGLE",
            "value": "Nej"
          },
          {
            "id": 278,
            "name": "Sommarled",
            "type": "TOGGLE",
            "value": "Nej"
          },
          {
            "id": 262,
            "name": "Ledlänk",
            "type": "TRAIL",
            "affectedObjects": [
              1478
            ]
          },
          {
            "id": 269,
            "name": "Avgift",
            "type": "FREETEXT",
            "value": "Nej"
          }
        ],
        "centerPoint": [
          17.272864868228165,
          62.37136209571462
        ]
      },
      "geometry": {
        "type": "LineString",
        "coordinates": [
          [
            17.27507206891442,
            62.37450515834634
          ],
          [
            17.27356486141323,
            62.3737653979852
          ],
          [
            17.272406872813526,
            62.37306015168886
          ],
          [
            17.271684715205264,
            62.37246903512765
          ],
          [
            17.271178778378637,
            62.37179336641933
          ],
          [
            17.27086110280558,
            62.37131577869118
          ],
          [
            17.27085917478124,
            62.37100402069843
          ],
          [
            17.271105055607354,
            62.37081896954538
          ],
          [
            17.27238003346371,
            62.370496426356134
          ],
          [
            17.27297197027479,
            62.37030572106882
          ],
          [
            17.2736356372004,
            62.37020436080354
          ],
          [
            17.2744461357882,
            62.3700402514916
          ],
          [
            17.274746977527933,
            62.369723544688334
          ],
          [
            17.27519470050403,
            62.36956703592094
          ]
        ]
      }
    },
    {
      "id": 2405,
      "type": "Feature",
      "properties": {
        "name": "Indalsälven kanotled Långliden-Boda såg",
        "type": "Ledlänk på vatten",
        "created": "2021-09-02 08:45:50",
        "published": true,
        "owner": {
          "organizationID": 36,
          "name": "Sundsvalls kommun Friluftsenheten"
        },
        "manager": {
          "organizationID": 36,
          "name": "Sundsvalls kommun Friluftsenheten"
        },
        "fields": [
          {
            "id": 268,
            "name": "Öppen",
            "type": "TOGGLE",
            "value": "Ja"
          },
          {
            "id": 262,
            "name": "Ledlänk",
            "type": "TRAIL",
            "affectedObjects": [
              1209
            ]
          }
        ],
        "centerPoint": [
          16.653600782151308,
          62.8953969422261
        ]
      },
      "geometry": {
        "type": "LineString",
        "coordinates": [
          [
            16.6717014049926,
            62.91170321248546
          ],
          [
            16.669567787930806,
            62.91174732949249
          ],
          [
            16.661779992991676,
            62.90691093351131
          ],
          [
            16.656928708343038,
            62.90335451098767
          ],
          [
            16.650966621348537,
            62.89839696539422
          ],
          [
            16.649290028774086,
            62.896138516715425
          ],
          [
            16.647865492411476,
            62.88916386784933
          ],
          [
            16.644836678564772,
            62.88118672762444
          ],
          [
            16.64241858454648,
            62.877957875772545
          ],
          [
            16.640695552924992,
            62.877405386888285
          ]
        ]
      }
    },
    {
      "id": 2406,
      "type": "Feature",
      "properties": {
        "name": "Indalsälven kanotled Boda såg-Järkvissle kraftverk",
        "type": "Ledlänk på vatten",
        "created": "2021-09-02 08:47:37",
        "published": true,
        "owner": {
          "organizationID": 36,
          "name": "Sundsvalls kommun Friluftsenheten"
        },
        "manager": {
          "organizationID": 36,
          "name": "Sundsvalls kommun Friluftsenheten"
        },
        "fields": [
          {
            "id": 268,
            "name": "Öppen",
            "type": "TOGGLE",
            "value": "Ja"
          },
          {
            "id": 262,
            "name": "Ledlänk",
            "type": "TRAIL",
            "affectedObjects": [
              1209
            ]
          }
        ],
        "centerPoint": [
          16.65520371269196,
          62.83732915517482
        ]
      },
      "geometry": {
        "type": "LineString",
        "coordinates": [
          [
            16.640695552924992,
            62.877405386888285
          ],
          [
            16.642120265120255,
            62.87569899671129
          ],
          [
            16.64269791728346,
            62.87187454113137
          ],
          [
            16.647655951930428,
            62.86395044982785
          ],
          [
            16.65596439637646,
            62.84657106908268
          ],
          [
            16.657178714539267,
            62.84066518853174
          ],
          [
            16.66671099845792,
            62.829947782904796
          ],
          [
            16.664356617845268,
            62.82172735696418
          ],
          [
            16.66151206583871,
            62.8169691041406
          ],
          [
            16.65839891318214,
            62.80742210720395
          ],
          [
            16.66283066574965,
            62.79817398840517
          ],
          [
            16.662232061407728,
            62.79754005138903
          ]
        ]
      }
    },
    {
      "id": 2407,
      "type": "Feature",
      "properties": {
        "name": "Indalsälven kanotled Järkvissle",
        "type": "Ledlänk på vatten",
        "created": "2021-09-02 08:50:04",
        "updated": "2021-09-02 08:51:08",
        "published": true,
        "owner": {
          "organizationID": 36,
          "name": "Sundsvalls kommun Friluftsenheten"
        },
        "manager": {
          "organizationID": 36,
          "name": "Sundsvalls kommun Friluftsenheten"
        },
        "fields": [
          {
            "id": 268,
            "name": "Öppen",
            "type": "TOGGLE",
            "value": "Ja"
          },
          {
            "id": 262,
            "name": "Ledlänk",
            "type": "TRAIL",
            "affectedObjects": [
              1209
            ]
          }
        ],
        "centerPoint": [
          16.66534018527782,
          62.79524727508593
        ]
      },
      "geometry": {
        "type": "LineString",
        "coordinates": [
          [
            16.662232061407728,
            62.79754005138903
          ],
          [
            16.66241596430589,
            62.79742701655869
          ],
          [
            16.665032323085857,
            62.797388042405075
          ],
          [
            16.665251469755557,
            62.79740060401924
          ],
          [
            16.665416659897765,
            62.79739049127581
          ],
          [
            16.665535953716343,
            62.79734939743994
          ],
          [
            16.665592538995266,
            62.79728259425176
          ],
          [
            16.6656060629454,
            62.797221117249904
          ],
          [
            16.66559666300212,
            62.79708463012746
          ],
          [
            16.665597777823383,
            62.796831611957096
          ],
          [
            16.665701867879005,
            62.79667935896577
          ],
          [
            16.666080256094705,
            62.79642648033476
          ],
          [
            16.66612363570019,
            62.79640314771781
          ],
          [
            16.665848162667718,
            62.79633736530741
          ],
          [
            16.665557389053674,
            62.79623888999955
          ],
          [
            16.665157601882363,
            62.79591453380258
          ],
          [
            16.665131609649674,
            62.79579717668617
          ],
          [
            16.665370679052813,
            62.795405186542645
          ],
          [
            16.66532896309466,
            62.794881815604775
          ],
          [
            16.665154245566143,
            62.79454206483551
          ],
          [
            16.665148099139508,
            62.79439148526231
          ],
          [
            16.665247329618794,
            62.79422793016375
          ],
          [
            16.665863577284785,
            62.79357516780432
          ],
          [
            16.665990041134805,
            62.79341755645299
          ],
          [
            16.666028684757435,
            62.793364161594994
          ],
          [
            16.666068129568494,
            62.793210900147365
          ],
          [
            16.66602638997315,
            62.79311879743826
          ],
          [
            16.66584980589204,
            62.7929812648251
          ],
          [
            16.665699285531534,
            62.79286851385801
          ],
          [
            16.665600209278075,
            62.792817529540606
          ],
          [
            16.66533968706683,
            62.792690859278714
          ],
          [
            16.665163370983322,
            62.792560854595024
          ],
          [
            16.66446914925091,
            62.79239338988478
          ]
        ]
      }
    },
    {
      "id": 2408,
      "type": "Feature",
      "properties": {
        "name": "Indalsälven kanotled Järkvissle-Sillre",
        "type": "Ledlänk på vatten",
        "created": "2021-09-02 08:50:51",
        "updated": "2026-04-01 22:11:13",
        "published": true,
        "childObjects": [
          4449,
          4450
        ],
        "owner": {
          "organizationID": 36,
          "name": "Sundsvalls kommun Friluftsenheten"
        },
        "manager": {
          "organizationID": 36,
          "name": "Sundsvalls kommun Friluftsenheten"
        },
        "fields": [
          {
            "id": 268,
            "name": "Öppen",
            "type": "TOGGLE",
            "value": "Ja"
          },
          {
            "id": 262,
            "name": "Ledlänk",
            "type": "TRAIL",
            "affectedObjects": [
              1209
            ]
          }
        ],
        "centerPoint": [
          16.672637809382834,
          62.79101988043085
        ]
      },
      "geometry": {
        "type": "LineString",
        "coordinates": [
          [
            16.66446914925091,
            62.79239338988478
          ],
          [
            16.664141593565315,
            62.792122321642616
          ],
          [
            16.664738184298763,
            62.79159677243601
          ],
          [
            16.676828177201777,
            62.790110260004404
          ],
          [
            16.68151613264631,
            62.78976953068097
          ],
          [
            16.684131891431836,
            62.7901254851769
          ]
        ]
      }
    },
    {
      "id": 2409,
      "type": "Feature",
      "properties": {
        "name": "Indalsälven kanotled Sillre-Sandriset",
        "type": "Ledlänk på vatten",
        "created": "2021-09-02 08:52:20",
        "updated": "2021-09-02 08:59:12",
        "published": true,
        "owner": {
          "organizationID": 36,
          "name": "Sundsvalls kommun Friluftsenheten"
        },
        "manager": {
          "organizationID": 36,
          "name": "Sundsvalls kommun Friluftsenheten"
        },
        "fields": [
          {
            "id": 268,
            "name": "Öppen",
            "type": "TOGGLE",
            "value": "Ja"
          },
          {
            "id": 262,
            "name": "Ledlänk",
            "type": "TRAIL",
            "affectedObjects": [
              1209
            ]
          }
        ],
        "centerPoint": [
          16.70543028699138,
          62.76956110595403
        ]
      },
      "geometry": {
        "type": "LineString",
        "coordinates": [
          [
            16.684131891431836,
            62.7901254851769
          ],
          [
            16.683836679970728,
            62.78930814174283
          ],
          [
            16.68514286737614,
            62.78790559464453
          ],
          [
            16.69602561725412,
            62.78265292366063
          ],
          [
            16.700757044778143,
            62.7778509798828
          ],
          [
            16.706255361483418,
            62.77329093650491
          ],
          [
            16.707246973831758,
            62.77116842774468
          ],
          [
            16.70714659363317,
            62.76498454109786
          ],
          [
            16.712682042850954,
            62.758758352678555
          ],
          [
            16.716777787687416,
            62.75374358262047
          ],
          [
            16.719355710830722,
            62.75210950168391
          ],
          [
            16.72408747794984,
            62.75098314891928
          ],
          [
            16.727058811406263,
            62.751403471215184
          ]
        ]
      }
    },
    {
      "id": 2410,
      "type": "Feature",
      "properties": {
        "name": "Indalsälven kanotled Sandriset-Liden",
        "type": "Ledlänk på vatten",
        "created": "2021-09-02 08:53:52",
        "published": true,
        "owner": {
          "organizationID": 36,
          "name": "Sundsvalls kommun Friluftsenheten"
        },
        "manager": {
          "organizationID": 36,
          "name": "Sundsvalls kommun Friluftsenheten"
        },
        "fields": [
          {
            "id": 268,
            "name": "Öppen",
            "type": "TOGGLE",
            "value": "Ja"
          },
          {
            "id": 262,
            "name": "Ledlänk",
            "type": "TRAIL",
            "affectedObjects": [
              1209
            ]
          }
        ],
        "centerPoint": [
          16.763576658031152,
          62.725261278862504
        ]
      },
      "geometry": {
        "type": "LineString",
        "coordinates": [
          [
            16.727058811406263,
            62.751403471215184
          ],
          [
            16.727221526488275,
            62.75020111622718
          ],
          [
            16.728953818813107,
            62.7495890611178
          ],
          [
            16.73034097389151,
            62.74705247396381
          ],
          [
            16.73230768751933,
            62.743906151164936
          ],
          [
            16.7346674478992,
            62.742085923530375
          ],
          [
            16.738316556164218,
            62.7400611660768
          ],
          [
            16.749948508509007,
            62.73865982103356
          ],
          [
            16.75902422766746,
            62.73691245697995
          ],
          [
            16.772750303190808,
            62.73076920308968
          ],
          [
            16.77504186550315,
            62.72901196952337
          ],
          [
            16.776423352711927,
            62.725315548110856
          ],
          [
            16.778228524584886,
            62.72221560233305
          ],
          [
            16.78679056945107,
            62.71660777723508
          ],
          [
            16.78613063218305,
            62.71418084359317
          ],
          [
            16.786306740333153,
            62.711429034461965
          ],
          [
            16.784887364121776,
            62.70775481179471
          ],
          [
            16.78520609080226,
            62.70452983380455
          ],
          [
            16.7834784693596,
            62.70140943246743
          ],
          [
            16.783464949909888,
            62.69834579709026
          ],
          [
            16.785021863011295,
            62.6971144714369
          ],
          [
            16.786816236073225,
            62.69714819732454
          ]
        ]
      }
    },
    {
      "id": 2411,
      "type": "Feature",
      "properties": {
        "name": "Indalsälven kanotled Liden-Nilsböle",
        "type": "Ledlänk på vatten",
        "created": "2021-09-02 08:54:43",
        "published": true,
        "owner": {
          "organizationID": 36,
          "name": "Sundsvalls kommun Friluftsenheten"
        },
        "manager": {
          "organizationID": 36,
          "name": "Sundsvalls kommun Friluftsenheten"
        },
        "fields": [
          {
            "id": 268,
            "name": "Öppen",
            "type": "TOGGLE",
            "value": "Ja"
          },
          {
            "id": 262,
            "name": "Ledlänk",
            "type": "TRAIL",
            "affectedObjects": [
              1209
            ]
          }
        ],
        "centerPoint": [
          16.83117020457731,
          62.673378816576864
        ]
      },
      "geometry": {
        "type": "LineString",
        "coordinates": [
          [
            16.786816236073225,
            62.69714819732454
          ],
          [
            16.785527102529375,
            62.69619047168092
          ],
          [
            16.78565769558769,
            62.693588891083024
          ],
          [
            16.78407770202903,
            62.68666434976799
          ],
          [
            16.786135620727315,
            62.68450134909766
          ],
          [
            16.801249723190402,
            62.68003444263935
          ],
          [
            16.82619534545149,
            62.67543818977313
          ],
          [
            16.845560128853666,
            62.66915121523166
          ],
          [
            16.854290117747205,
            62.665579348681085
          ],
          [
            16.864483332615066,
            62.66249025936142
          ],
          [
            16.8688014531367,
            62.65944742279326
          ],
          [
            16.87620900148073,
            62.65557750802747
          ],
          [
            16.88316494811982,
            62.65081248476742
          ],
          [
            16.887919036685453,
            62.650599849794226
          ]
        ]
      }
    },
    {
      "id": 2412,
      "type": "Feature",
      "properties": {
        "name": "Indalsälven kanotled Nilsböle-Östloning",
        "type": "Ledlänk på vatten",
        "created": "2021-09-02 08:56:49",
        "published": true,
        "owner": {
          "organizationID": 36,
          "name": "Sundsvalls kommun Friluftsenheten"
        },
        "manager": {
          "organizationID": 36,
          "name": "Sundsvalls kommun Friluftsenheten"
        },
        "fields": [
          {
            "id": 268,
            "name": "Öppen",
            "type": "TOGGLE",
            "value": "Ja"
          },
          {
            "id": 262,
            "name": "Ledlänk",
            "type": "TRAIL",
            "affectedObjects": [
              1209
            ]
          }
        ],
        "centerPoint": [
          16.959174255074753,
          62.623665184412296
        ]
      },
      "geometry": {
        "type": "LineString",
        "coordinates": [
          [
            16.887919036685453,
            62.650599849794226
          ],
          [
            16.886977824304083,
            62.64873945206366
          ],
          [
            16.898295654753817,
            62.64415568189782
          ],
          [
            16.908185849494796,
            62.640784566409124
          ],
          [
            16.928864204447546,
            62.63518440748716
          ],
          [
            16.937775619842917,
            62.632773515247386
          ],
          [
            16.946733509841206,
            62.628943397943935
          ],
          [
            16.96406098491263,
            62.621471279035774
          ],
          [
            16.978391304460875,
            62.61737275542704
          ],
          [
            16.98919543116187,
            62.61263148470313
          ],
          [
            16.996123897777604,
            62.609138850180116
          ],
          [
            16.998744967139995,
            62.60841722591564
          ],
          [
            17.00270969333305,
            62.607325511099965
          ],
          [
            17.00534663145918,
            62.606599305682934
          ],
          [
            17.007553192049755,
            62.60697361899794
          ],
          [
            17.009532850327922,
            62.607421641911955
          ]
        ]
      }
    },
    {
      "id": 2413,
      "type": "Feature",
      "properties": {
        "name": "Indalsälven kanotled Östloning-Kävsta",
        "type": "Ledlänk på vatten",
        "created": "2021-09-02 08:57:37",
        "updated": "2021-09-06 09:30:01",
        "published": true,
        "owner": {
          "organizationID": 36,
          "name": "Sundsvalls kommun Friluftsenheten"
        },
        "manager": {
          "organizationID": 36,
          "name": "Sundsvalls kommun Friluftsenheten"
        },
        "fields": [
          {
            "id": 268,
            "name": "Öppen",
            "type": "TOGGLE",
            "value": "Ja"
          },
          {
            "id": 262,
            "name": "Ledlänk",
            "type": "TRAIL",
            "affectedObjects": [
              1209
            ]
          }
        ],
        "centerPoint": [
          17.0626432596306,
          62.58378430813909
        ]
      },
      "geometry": {
        "type": "LineString",
        "coordinates": [
          [
            17.009615920782792,
            62.60744787836003
          ],
          [
            17.009525993018418,
            62.605384182880194
          ],
          [
            17.02981257774978,
            62.59800082924176
          ],
          [
            17.040820974782683,
            62.593252218008686
          ],
          [
            17.05961024161743,
            62.586455852215536
          ],
          [
            17.0731150187064,
            62.57973527170553
          ],
          [
            17.087502487421222,
            62.57111450007802
          ],
          [
            17.124260110234047,
            62.555407924426675
          ],
          [
            17.12929193949471,
            62.55720308413366
          ]
        ]
      }
    },
    {
      "id": 2701,
      "type": "Feature",
      "properties": {
        "name": "Rännösjön 1",
        "type": "Ledlänk på vatten",
        "created": "2021-09-08 16:42:21",
        "published": true,
        "owner": {
          "organizationID": 262,
          "name": "Matfors Skidklubb"
        },
        "manager": {
          "organizationID": 262,
          "name": "Matfors Skidklubb"
        },
        "fields": [
          {
            "id": 276,
            "name": "Vinterskötsel",
            "type": "DROPDOWN",
            "value": "Prepareras för klassisk och skate skidåkning"
          },
          {
            "id": 268,
            "name": "Öppen",
            "type": "TOGGLE",
            "value": "Ja"
          },
          {
            "id": 262,
            "name": "Ledlänk",
            "type": "TRAIL",
            "affectedObjects": [
              1211,
              4099
            ]
          },
          {
            "id": 269,
            "name": "Avgift",
            "type": "FREETEXT",
            "value": "Nej"
          }
        ],
        "centerPoint": [
          17.015377677939334,
          62.343159880791426
        ]
      },
      "geometry": {
        "type": "LineString",
        "coordinates": [
          [
            17.01648047619181,
            62.34378633813701
          ],
          [
            17.015609935142123,
            62.34342740037375
          ],
          [
            17.01484551329004,
            62.3430173462893
          ],
          [
            17.014574834949556,
            62.34240843020549
          ]
        ]
      }
    },
    {
      "id": 2702,
      "type": "Feature",
      "properties": {
        "name": "Rännösjön 1",
        "type": "Ledlänk på vatten",
        "created": "2021-09-08 16:43:39",
        "published": true,
        "owner": {
          "organizationID": 262,
          "name": "Matfors Skidklubb"
        },
        "manager": {
          "organizationID": 262,
          "name": "Matfors Skidklubb"
        },
        "fields": [
          {
            "id": 276,
            "name": "Vinterskötsel",
            "type": "DROPDOWN",
            "value": "Prepareras för klassisk och skate skidåkning"
          },
          {
            "id": 268,
            "name": "Öppen",
            "type": "TOGGLE",
            "value": "Ja"
          },
          {
            "id": 262,
            "name": "Ledlänk",
            "type": "TRAIL",
            "affectedObjects": [
              4099,
              1211
            ]
          },
          {
            "id": 269,
            "name": "Avgift",
            "type": "FREETEXT",
            "value": "Nej"
          }
        ],
        "centerPoint": [
          17.004383017730365,
          62.337230131211484
        ]
      },
      "geometry": {
        "type": "LineString",
        "coordinates": [
          [
            17.014574834949556,
            62.34240843020549
          ],
          [
            17.013388244074267,
            62.342356470381475
          ],
          [
            17.01095934752415,
            62.34217460993396
          ],
          [
            17.00998858757035,
            62.341811511525655
          ],
          [
            17.01014921367259,
            62.34118064079883
          ],
          [
            17.010130317604457,
            62.34089806658947
          ],
          [
            17.0095875607709,
            62.34061790609238
          ],
          [
            17.008833114163146,
            62.34045595327083
          ],
          [
            17.00801428525704,
            62.34034206711515
          ],
          [
            17.006915885189695,
            62.34009078690073
          ],
          [
            17.006002300766934,
            62.33956969959649
          ],
          [
            17.00531045527492,
            62.33882541774414
          ],
          [
            17.004401669745477,
            62.33736142858847
          ],
          [
            17.003269936088845,
            62.33660776263981
          ],
          [
            17.001604317294387,
            62.335956055057125
          ],
          [
            16.999837482593804,
            62.335305783776455
          ],
          [
            16.998831596181862,
            62.33440885056102
          ],
          [
            16.998160247872065,
            62.333459963185746
          ],
          [
            16.998160247872065,
            62.333459963185746
          ],
          [
            16.99667390300223,
            62.33194137075887
          ],
          [
            16.996790175629226,
            62.331656854937066
          ],
          [
            16.99731050364193,
            62.33135082246451
          ],
          [
            16.99791436473729,
            62.3307764550319
          ],
          [
            16.998401829882063,
            62.330503382287844
          ]
        ]
      }
    },
    {
      "id": 2703,
      "type": "Feature",
      "properties": {
        "name": "Rännösjön 2",
        "type": "Ledlänk på vatten",
        "created": "2021-09-08 16:44:20",
        "published": true,
        "owner": {
          "organizationID": 262,
          "name": "Matfors Skidklubb"
        },
        "manager": {
          "organizationID": 262,
          "name": "Matfors Skidklubb"
        },
        "fields": [
          {
            "id": 276,
            "name": "Vinterskötsel",
            "type": "DROPDOWN",
            "value": "Prepareras för klassisk och skate skidåkning"
          },
          {
            "id": 268,
            "name": "Öppen",
            "type": "TOGGLE",
            "value": "Ja"
          },
          {
            "id": 262,
            "name": "Ledlänk",
            "type": "TRAIL",
            "affectedObjects": [
              1211
            ]
          },
          {
            "id": 269,
            "name": "Avgift",
            "type": "FREETEXT",
            "value": "Nej"
          }
        ],
        "centerPoint": [
          16.998777058032193,
          62.33029317898507
        ]
      },
      "geometry": {
        "type": "LineString",
        "coordinates": [
          [
            16.998401829882063,
            62.330503382287844
          ],
          [
            16.999152280946063,
            62.33008297468467
          ]
        ]
      }
    },
    {
      "id": 2704,
      "type": "Feature",
      "properties": {
        "name": "Rännösjön 3",
        "type": "Ledlänk på vatten",
        "created": "2021-09-08 16:45:00",
        "published": true,
        "owner": {
          "organizationID": 262,
          "name": "Matfors Skidklubb"
        },
        "manager": {
          "organizationID": 262,
          "name": "Matfors Skidklubb"
        },
        "fields": [
          {
            "id": 276,
            "name": "Vinterskötsel",
            "type": "DROPDOWN",
            "value": "Prepareras för klassisk och skate skidåkning"
          },
          {
            "id": 268,
            "name": "Öppen",
            "type": "TOGGLE",
            "value": "Ja"
          },
          {
            "id": 262,
            "name": "Ledlänk",
            "type": "TRAIL",
            "affectedObjects": [
              1212,
              1211,
              4099
            ]
          },
          {
            "id": 269,
            "name": "Avgift",
            "type": "FREETEXT",
            "value": "Nej"
          }
        ],
        "centerPoint": [
          17.000557625657898,
          62.33000679451487
        ]
      },
      "geometry": {
        "type": "LineString",
        "coordinates": [
          [
            16.999152280946063,
            62.33008297468467
          ],
          [
            16.999920336806806,
            62.32994622086378
          ],
          [
            17.00120413494007,
            62.32994346478495
          ],
          [
            17.001953748208344,
            62.33005450065988
          ]
        ]
      }
    },
    {
      "id": 2705,
      "type": "Feature",
      "properties": {
        "name": "Rännösjön 4",
        "type": "Ledlänk på vatten",
        "created": "2021-09-08 16:46:12",
        "published": true,
        "owner": {
          "organizationID": 262,
          "name": "Matfors Skidklubb"
        },
        "manager": {
          "organizationID": 262,
          "name": "Matfors Skidklubb"
        },
        "fields": [
          {
            "id": 276,
            "name": "Vinterskötsel",
            "type": "DROPDOWN",
            "value": "Prepareras för klassisk och skate skidåkning"
          },
          {
            "id": 268,
            "name": "Öppen",
            "type": "TOGGLE",
            "value": "Ja"
          },
          {
            "id": 262,
            "name": "Ledlänk",
            "type": "TRAIL",
            "affectedObjects": [
              1212,
              1211,
              4099
            ]
          },
          {
            "id": 269,
            "name": "Avgift",
            "type": "FREETEXT",
            "value": "Nej"
          }
        ],
        "centerPoint": [
          17.00677621782932,
          62.328671255063284
        ]
      },
      "geometry": {
        "type": "LineString",
        "coordinates": [
          [
            17.00198295429642,
            62.330020300198264
          ],
          [
            17.00219117916848,
            62.32969674238807
          ],
          [
            17.002995118413217,
            62.32878005400334
          ],
          [
            17.003663646324938,
            62.32846871884256
          ],
          [
            17.004386894341632,
            62.32837029829426
          ],
          [
            17.005562818038083,
            62.32837219896914
          ],
          [
            17.006796101275306,
            62.328423545869356
          ],
          [
            17.010052233245982,
            62.32820680579456
          ],
          [
            17.01122046229186,
            62.32849790314853
          ],
          [
            17.012326665503974,
            62.32887160018939
          ],
          [
            17.012552419264857,
            62.32881176333071
          ],
          [
            17.0126942183156,
            62.32870914275338
          ],
          [
            17.012644467517795,
            62.328571581629255
          ],
          [
            17.01233692071144,
            62.328418895049325
          ],
          [
            17.01194962629708,
            62.32828621827375
          ],
          [
            17.0111771471252,
            62.32805225860304
          ],
          [
            17.010261198345386,
            62.327895795102606
          ],
          [
            17.009235490154758,
            62.327916905845285
          ],
          [
            17.00804306224705,
            62.32807241229296
          ],
          [
            17.006794938620317,
            62.328203570217546
          ],
          [
            17.004471178956308,
            62.328123272941575
          ],
          [
            17.003388286058925,
            62.328189839341704
          ],
          [
            17.00294009539257,
            62.32835971878847
          ],
          [
            17.00234450761426,
            62.32875171144179
          ],
          [
            17.00202703584845,
            62.329019423551166
          ],
          [
            17.001786648802543,
            62.329593737629786
          ],
          [
            17.001953748208344,
            62.33005450065988
          ],
          [
            17.001953748208344,
            62.33005450065988
          ]
        ]
      }
    },
    {
      "id": 2706,
      "type": "Feature",
      "properties": {
        "name": "Rännösjön 5",
        "type": "Ledlänk på vatten",
        "created": "2021-09-08 16:47:02",
        "published": true,
        "owner": {
          "organizationID": 262,
          "name": "Matfors Skidklubb"
        },
        "manager": {
          "organizationID": 262,
          "name": "Matfors Skidklubb"
        },
        "fields": [
          {
            "id": 276,
            "name": "Vinterskötsel",
            "type": "DROPDOWN",
            "value": "Prepareras för klassisk och skate skidåkning"
          },
          {
            "id": 268,
            "name": "Öppen",
            "type": "TOGGLE",
            "value": "Ja"
          },
          {
            "id": 262,
            "name": "Ledlänk",
            "type": "TRAIL",
            "affectedObjects": [
              1211,
              4099
            ]
          },
          {
            "id": 269,
            "name": "Avgift",
            "type": "FREETEXT",
            "value": "Nej"
          }
        ],
        "centerPoint": [
          17.007441175307218,
          62.330460662488285
        ]
      },
      "geometry": {
        "type": "LineString",
        "coordinates": [
          [
            17.00198295429642,
            62.330020300198264
          ],
          [
            17.00219117916848,
            62.32969674238807
          ],
          [
            17.002995118413217,
            62.32878005400334
          ],
          [
            17.003663646324938,
            62.32846871884256
          ],
          [
            17.004386894341632,
            62.32837029829426
          ],
          [
            17.005562818038083,
            62.32837219896914
          ],
          [
            17.006796101275306,
            62.328423545869356
          ],
          [
            17.010052233245982,
            62.32820680579456
          ],
          [
            17.01122046229186,
            62.32849790314853
          ],
          [
            17.012326665503974,
            62.32887160018939
          ],
          [
            17.012552419264857,
            62.32881176333071
          ],
          [
            17.0126942183156,
            62.32870914275338
          ],
          [
            17.012644467517795,
            62.328571581629255
          ],
          [
            17.01233692071144,
            62.328418895049325
          ],
          [
            17.01194962629708,
            62.32828621827375
          ],
          [
            17.0111771471252,
            62.32805225860304
          ],
          [
            17.010261198345386,
            62.327895795102606
          ],
          [
            17.009235490154758,
            62.327916905845285
          ],
          [
            17.00804306224705,
            62.32807241229296
          ],
          [
            17.006794938620317,
            62.328203570217546
          ],
          [
            17.004471178956308,
            62.328123272941575
          ],
          [
            17.003388286058925,
            62.328189839341704
          ],
          [
            17.00294009539257,
            62.32835971878847
          ],
          [
            17.00234450761426,
            62.32875171144179
          ],
          [
            17.00202703584845,
            62.329019423551166
          ],
          [
            17.001786648802543,
            62.329593737629786
          ],
          [
            17.001953748208344,
            62.33005450065988
          ],
          [
            17.001953748208344,
            62.33005450065988
          ],
          [
            17.002364403615687,
            62.33011532660224
          ],
          [
            17.003261949331723,
            62.330400959999984
          ],
          [
            17.003840766236895,
            62.33097402811216
          ],
          [
            17.003919505924234,
            62.331648583572694
          ],
          [
            17.003440320568327,
            62.332064044722756
          ],
          [
            17.003374602622262,
            62.33259925793443
          ],
          [
            17.003950326137197,
            62.33312522929655
          ],
          [
            17.005472417592525,
            62.333653267885126
          ],
          [
            17.006807944381066,
            62.333916849222796
          ],
          [
            17.009073075877726,
            62.33393128524765
          ],
          [
            17.01148165398164,
            62.33406931973484
          ],
          [
            17.013152762254357,
            62.33429655910861
          ],
          [
            17.014495746035447,
            62.3346699560715
          ],
          [
            17.01523209743781,
            62.33506784597976
          ],
          [
            17.01543037186478,
            62.33550495853065
          ],
          [
            17.015048366601285,
            62.335856197057986
          ],
          [
            17.014780065760966,
            62.33603927032959
          ]
        ]
      }
    },
    {
      "id": 2707,
      "type": "Feature",
      "properties": {
        "name": "Rännösjön 6",
        "type": "Ledlänk på vatten",
        "created": "2021-09-08 16:48:46",
        "published": true,
        "owner": {
          "organizationID": 262,
          "name": "Matfors Skidklubb"
        },
        "manager": {
          "organizationID": 262,
          "name": "Matfors Skidklubb"
        },
        "fields": [
          {
            "id": 276,
            "name": "Vinterskötsel",
            "type": "DROPDOWN",
            "value": "Prepareras för klassisk och skate skidåkning"
          },
          {
            "id": 268,
            "name": "Öppen",
            "type": "TOGGLE",
            "value": "Ja"
          },
          {
            "id": 262,
            "name": "Ledlänk",
            "type": "TRAIL",
            "affectedObjects": [
              1211,
              4099
            ]
          },
          {
            "id": 269,
            "name": "Avgift",
            "type": "FREETEXT",
            "value": "Nej"
          }
        ],
        "centerPoint": [
          17.01201554107088,
          62.33877512938713
        ]
      },
      "geometry": {
        "type": "LineString",
        "coordinates": [
          [
            17.014780065760966,
            62.33603927032959
          ],
          [
            17.014590410525482,
            62.33608282445767
          ],
          [
            17.01367669873387,
            62.336064629617326
          ],
          [
            17.01202888992735,
            62.33580563092182
          ],
          [
            17.010247708269137,
            62.33583138839667
          ],
          [
            17.009410974916396,
            62.33595347663282
          ],
          [
            17.00892445569878,
            62.33625906630285
          ],
          [
            17.00887685782176,
            62.33655831491178
          ],
          [
            17.009027648576065,
            62.336791842870426
          ],
          [
            17.00890308128699,
            62.33695077963419
          ],
          [
            17.00857173020962,
            62.33704984783719
          ],
          [
            17.00832049007274,
            62.33733632319357
          ],
          [
            17.008580966260677,
            62.33769397760177
          ],
          [
            17.009035649765785,
            62.33792311647779
          ],
          [
            17.009529352586643,
            62.33823025887215
          ],
          [
            17.009811890613783,
            62.3389175809727
          ],
          [
            17.009917208383534,
            62.339481753736194
          ],
          [
            17.01009216536655,
            62.34007634750091
          ],
          [
            17.010305270732857,
            62.340230404977376
          ],
          [
            17.01204095367737,
            62.340912426439075
          ],
          [
            17.012980042331897,
            62.34130739638377
          ],
          [
            17.016652382748706,
            62.341631331441434
          ],
          [
            17.017197961496947,
            62.34170198916007
          ],
          [
            17.017478654152633,
            62.34185505592336
          ],
          [
            17.017387881074765,
            62.34201351026675
          ],
          [
            17.01709764707175,
            62.34222199849478
          ],
          [
            17.0163979522113,
            62.34237356730732
          ],
          [
            17.014574834949556,
            62.34240843020549
          ]
        ]
      }
    }
  ]
}