{
  "type": "FeatureCollection",
  "features": [
    {
      "id": 599,
      "type": "Feature",
      "properties": {
        "name": "Klätterleder nolbybacken",
        "type": "Motionsanläggning",
        "created": "2018-08-09 11:19:59",
        "updated": "2020-07-09 14:45:48",
        "deleted": "2020-07-09 15:17:11"
      },
      "geometry": null
    },
    {
      "id": 918,
      "type": "Feature",
      "properties": {
        "name": "Vallens idrottshall",
        "type": "Motionsanläggning",
        "created": "2019-10-24 13:56:30",
        "updated": "2020-03-25 16:44:35",
        "deleted": "2019-10-24 13:56:33"
      },
      "geometry": null
    }
  ]
}