{
  "type": "FeatureCollection",
  "features": [
    {
      "id": 643,
      "type": "Feature",
      "properties": {
        "name": "Sidsjöbacken",
        "type": "Skidbacke",
        "created": "2018-11-15 09:28:07",
        "updated": "2025-04-22 13:52:59",
        "published": true,
        "childObjects": [
          246,
          247,
          248,
          249,
          251,
          254,
          3506,
          3507,
          3517,
          3518,
          3519,
          3520,
          3521,
          3522
        ],
        "owner": {
          "organizationID": 36,
          "name": "Sundsvalls kommun Friluftsenheten"
        },
        "manager": {
          "organizationID": 36,
          "name": "Sundsvalls kommun Friluftsenheten"
        },
        "fields": [
          {
            "id": 153,
            "name": "Allmänt tillgänglig",
            "type": "DROPDOWN",
            "value": "Särskilda öppettider"
          },
          {
            "id": 35,
            "name": "Antal nedfarter",
            "type": "INTEGER",
            "value": 5
          },
          {
            "id": 36,
            "name": "Max fallhöjd",
            "type": "INTEGER",
            "value": 105
          },
          {
            "id": 37,
            "name": "Liftar",
            "type": "INTEGER",
            "value": 2
          },
          {
            "id": 7,
            "name": "Tillhörande filer",
            "type": "FILES",
            "value": [
              {
                "id": 1921,
                "filename": "DSC_0096.JPG",
                "description": "Sidsjöbacken",
                "alttext": "Sidsjöbacken",
                "sourcetext": "Friluftsenheten",
                "validForWinter": true,
                "validForSummer": false,
                "sortIndex": 1,
                "type": "image/jpeg",
                "size": 2894449,
                "url": "https://api.sundsvall.se/facilities/2.2/field/filesfield/1921",
                "license": "CC0",
                "licenseDescription": "Creative commons. \"No rights reserved\" https://creativecommons.org/share-your-work/public-domain/cc0/"
              },
              {
                "id": 2301,
                "filename": "Slalomåkare i Sidsjöbacken - webb (683990).jpg",
                "description": "Slalomåkare i Sidsjöbacken",
                "alttext": "Slalomåkare i Sidsjöbacken",
                "sourcetext": "Fotograf: Evelina Ytterbom",
                "validForWinter": true,
                "validForSummer": false,
                "sortIndex": 2,
                "type": "image/jpeg",
                "size": 158923,
                "url": "https://api.sundsvall.se/facilities/2.2/field/filesfield/2301",
                "license": "CC BY-SA 2.5",
                "licenseDescription": "Se villkor på https://creativecommons.org/licenses/by/2.5/se/"
              },
              {
                "id": 1915,
                "filename": "Barnbacke2.jpg",
                "description": "",
                "alttext": "",
                "sourcetext": "Sundsvalls kommun",
                "validForWinter": true,
                "validForSummer": false,
                "sortIndex": 3,
                "type": "image/jpeg",
                "size": 5082090,
                "url": "https://api.sundsvall.se/facilities/2.2/field/filesfield/1915",
                "license": "CC0",
                "licenseDescription": "Creative commons. \"No rights reserved\" https://creativecommons.org/share-your-work/public-domain/cc0/"
              },
              {
                "id": 2302,
                "filename": "Utförsåkning i Sidsjöbacken - webb (683989).jpg",
                "description": "Utförsåkning i Sidsjöbacken",
                "alttext": "Utförsåkning i Sidsjöbacken",
                "sourcetext": "Fotograf: Evelina Ytterbom",
                "validForWinter": true,
                "validForSummer": false,
                "sortIndex": 4,
                "type": "image/jpeg",
                "size": 46889,
                "url": "https://api.sundsvall.se/facilities/2.2/field/filesfield/2302",
                "license": "CC BY-SA 2.5",
                "licenseDescription": "Se villkor på https://creativecommons.org/licenses/by/2.5/se/"
              },
              {
                "id": 1919,
                "filename": "Sidsjöbacken kväll_ny.jpg",
                "description": "Kväll i Sidsjöbacken",
                "alttext": "Kväll i Sidsjöbacken",
                "sourcetext": "Friluftsenheten",
                "validForWinter": true,
                "validForSummer": false,
                "sortIndex": 6,
                "type": "image/jpeg",
                "size": 4607576,
                "url": "https://api.sundsvall.se/facilities/2.2/field/filesfield/1919",
                "license": "CC0",
                "licenseDescription": "Creative commons. \"No rights reserved\" https://creativecommons.org/share-your-work/public-domain/cc0/"
              },
              {
                "id": 1920,
                "filename": "sidsjöbacken.snökanon (2).JPG",
                "description": "Snöproduktion i Sidsjöbacken",
                "alttext": "Snöproduktion i Sidsjöbacken",
                "sourcetext": "Friluftsenheten",
                "validForWinter": true,
                "validForSummer": false,
                "sortIndex": 7,
                "type": "image/jpeg",
                "size": 2508302,
                "url": "https://api.sundsvall.se/facilities/2.2/field/filesfield/1920",
                "license": "CC0",
                "licenseDescription": "Creative commons. \"No rights reserved\" https://creativecommons.org/share-your-work/public-domain/cc0/"
              }
            ]
          },
          {
            "id": 38,
            "name": "Belysning",
            "type": "TOGGLE",
            "value": "Ja"
          },
          {
            "id": 154,
            "name": "Bokningsbar",
            "type": "TOGGLE",
            "value": "Nej"
          },
          {
            "id": 285,
            "name": "Felanmälan",
            "type": "Felanmälningstjänst",
            "reportName": "Kontakt Sundsvall",
            "reportDescription": "Felanmälan av motionsspår, elljusspår, leder och andra friluftsanläggningar",
            "reportLink": "https://sundsvall.se/kommun-och-politik/politik-och-demokrati/dialog-och-synpunkter/felanmalan",
            "reportPhone": "060-19 10 00",
            "reportEmail": "kontakt@sundsvall.se"
          },
          {
            "id": 1,
            "name": "Beskrivning",
            "type": "FREETEXT",
            "value": "Slalombacke vid Sidsjön söder om Sundsvall. Backen har fem nedfarter, varav en barnbacke med knapplift, samt en släplift. Snowpark prepareras såväl i stora nedfarten, som i barnbacken."
          },
          {
            "id": 136,
            "name": "Öppettider länk",
            "type": "FREETEXT",
            "value": "https://sundsvall.se/uppleva-och-gora/idrott-och-motion/slalombackar/sidsjobacken/"
          },
          {
            "id": 180,
            "name": "Kontakt länk",
            "type": "FREETEXT",
            "value": "https://sundsvall.se/uppleva-och-gora/idrott-och-motion/slalombackar/sidsjobacken/"
          }
        ],
        "centerPoint": [
          17.28135011693407,
          62.368611834197324
        ]
      },
      "geometry": {
        "type": "MultiPolygon",
        "coordinates": [
          [
            [
              [
                17.27921374106583,
                62.369201320362535
              ],
              [
                17.279153322609446,
                62.369063552465185
              ],
              [
                17.27844012001881,
                62.36894917320145
              ],
              [
                17.277678673843578,
                62.3688838572692
              ],
              [
                17.27697218635646,
                62.36885786905873
              ],
              [
                17.276649816296313,
                62.36878890373291
              ],
              [
                17.276598187761866,
                62.36879302462613
              ],
              [
                17.276526074651986,
                62.36881971026852
              ],
              [
                17.276194457647694,
                62.36880622167889
              ],
              [
                17.27588280629095,
                62.368808636530154
              ],
              [
                17.27557859069112,
                62.36860440987608
              ],
              [
                17.27540897901183,
                62.36849990040332
              ],
              [
                17.275185430897476,
                62.36836945196022
              ],
              [
                17.275899627490634,
                62.36839245176758
              ],
              [
                17.27589708546237,
                62.36838860536371
              ],
              [
                17.275902429616703,
                62.36834619720229
              ],
              [
                17.27590967504212,
                62.3682888119253
              ],
              [
                17.27591184151194,
                62.36827160944871
              ],
              [
                17.27617769036798,
                62.3682750906603
              ],
              [
                17.276651100856718,
                62.36832397566385
              ],
              [
                17.276673088465234,
                62.36832527585632
              ],
              [
                17.276706621085648,
                62.36832580012987
              ],
              [
                17.2767444018054,
                62.36832142715239
              ],
              [
                17.27676986002526,
                62.36832208338236
              ],
              [
                17.27679272669658,
                62.36831902725719
              ],
              [
                17.27686193647879,
                62.36831789496515
              ],
              [
                17.276908075780277,
                62.368317140093666
              ],
              [
                17.27709901152159,
                62.36832206232416
              ],
              [
                17.277208593551784,
                62.36832026927323
              ],
              [
                17.277329709976765,
                62.368318287388604
              ],
              [
                17.277514471643173,
                62.36831794587189
              ],
              [
                17.277670396788835,
                62.36831807606149
              ],
              [
                17.278873889765286,
                62.368349333385765
              ],
              [
                17.279313436604177,
                62.368358227598954
              ],
              [
                17.279891199732333,
                62.36836217400932
              ],
              [
                17.280491736289903,
                62.368388013251554
              ],
              [
                17.282548788877683,
                62.368444404466516
              ],
              [
                17.28377239134564,
                62.36846724331319
              ],
              [
                17.28508976957868,
                62.36850719742373
              ],
              [
                17.286192537445913,
                62.36852969056711
              ],
              [
                17.285513544338116,
                62.3681063462676
              ],
              [
                17.285340027033513,
                62.36795095349158
              ],
              [
                17.284958158107735,
                62.367941131444404
              ],
              [
                17.28446455182856,
                62.36805651816699
              ],
              [
                17.284176794033403,
                62.36806928769072
              ],
              [
                17.283866496869635,
                62.367937594395734
              ],
              [
                17.283238247640718,
                62.36772529098778
              ],
              [
                17.282550371602397,
                62.36764002042389
              ],
              [
                17.281985786217053,
                62.367657325550866
              ],
              [
                17.28154211038993,
                62.36766996421354
              ],
              [
                17.281179584758927,
                62.36745865931314
              ],
              [
                17.28148938903276,
                62.367432124106735
              ],
              [
                17.281682899725183,
                62.36754696265778
              ],
              [
                17.28199494395493,
                62.36754989237039
              ],
              [
                17.282356043092413,
                62.36751446800523
              ],
              [
                17.282896474122268,
                62.36755924513057
              ],
              [
                17.283470021675964,
                62.36765980044208
              ],
              [
                17.284111497214734,
                62.36781824417664
              ],
              [
                17.284290427927008,
                62.36789308755013
              ],
              [
                17.284687559639337,
                62.367875840031964
              ],
              [
                17.285051368829414,
                62.36780013295549
              ],
              [
                17.28497685981534,
                62.36773162240675
              ],
              [
                17.28423585042852,
                62.367631139990166
              ],
              [
                17.28339761690091,
                62.367542977098395
              ],
              [
                17.282412355588285,
                62.367419671735014
              ],
              [
                17.281977367156575,
                62.36739462036256
              ],
              [
                17.2811443703662,
                62.36745119036715
              ],
              [
                17.279698601173223,
                62.3677269961185
              ],
              [
                17.278385583017656,
                62.36807839335605
              ],
              [
                17.27807065663291,
                62.36832292358395
              ],
              [
                17.27788280768787,
                62.36832063422747
              ],
              [
                17.27784222032951,
                62.36812818957914
              ],
              [
                17.27753841201357,
                62.367872330614354
              ],
              [
                17.2757814321231,
                62.368080771971854
              ],
              [
                17.275751455412113,
                62.368370925467886
              ],
              [
                17.275184416026285,
                62.368356058223874
              ],
              [
                17.275104936399536,
                62.36814547427105
              ],
              [
                17.27521391823361,
                62.36775479293972
              ],
              [
                17.275548101280197,
                62.36766886699364
              ],
              [
                17.276219427120854,
                62.36761229321714
              ],
              [
                17.27773552403409,
                62.367273685053256
              ],
              [
                17.278097107523408,
                62.36716852999999
              ],
              [
                17.2789906218321,
                62.36714853618987
              ],
              [
                17.279785756836258,
                62.36704968628212
              ],
              [
                17.280615489710943,
                62.36695026465583
              ],
              [
                17.28123841173038,
                62.36732090921008
              ],
              [
                17.281963252154437,
                62.36728488676541
              ],
              [
                17.282388805913065,
                62.36726181537161
              ],
              [
                17.28305945548966,
                62.36715627180649
              ],
              [
                17.283375721516297,
                62.36718628516197
              ],
              [
                17.28383653576466,
                62.36733028779197
              ],
              [
                17.284259776259137,
                62.36735030264016
              ],
              [
                17.28484097841741,
                62.36737596375471
              ],
              [
                17.285209154340343,
                62.367521288095844
              ],
              [
                17.28543993390779,
                62.36767037669758
              ],
              [
                17.28574470476133,
                62.3680328160316
              ],
              [
                17.28625777847612,
                62.36832478088597
              ],
              [
                17.28755397236988,
                62.36853305481278
              ],
              [
                17.286526104314504,
                62.36895320589078
              ],
              [
                17.28555456998841,
                62.36898784802556
              ],
              [
                17.284398917286076,
                62.369058348715114
              ],
              [
                17.28352403632656,
                62.369113658871065
              ],
              [
                17.282998287947525,
                62.36922009154437
              ],
              [
                17.28249240412923,
                62.36941991315821
              ],
              [
                17.28182010669671,
                62.36966985719371
              ],
              [
                17.28089553170112,
                62.36999256846074
              ],
              [
                17.279720754279143,
                62.3703121682524
              ],
              [
                17.27909040524289,
                62.37021250886364
              ],
              [
                17.27842489121307,
                62.36996592687184
              ],
              [
                17.278111067864362,
                62.3698637815286
              ],
              [
                17.277991647979675,
                62.369812094750706
              ],
              [
                17.27775083937968,
                62.36972082270492
              ],
              [
                17.27696714853154,
                62.36943861907865
              ],
              [
                17.276596957856892,
                62.36927838709877
              ],
              [
                17.276446346708294,
                62.369119926691596
              ],
              [
                17.276322359406656,
                62.36881754013748
              ],
              [
                17.276484866495043,
                62.36882829229
              ],
              [
                17.27677881940606,
                62.36920165519299
              ],
              [
                17.277206687125393,
                62.36936094310969
              ],
              [
                17.277880728445115,
                62.36960604980846
              ],
              [
                17.278134119274355,
                62.369650162959225
              ],
              [
                17.278577827638447,
                62.3696170333123
              ],
              [
                17.278703780763394,
                62.36953212155597
              ],
              [
                17.278845948910632,
                62.36946127152494
              ],
              [
                17.27921374106583,
                62.369201320362535
              ]
            ]
          ]
        ]
      }
    },
    {
      "id": 649,
      "type": "Feature",
      "properties": {
        "name": "Skönviksbacken",
        "type": "Skidbacke",
        "created": "2018-12-12 15:09:53",
        "updated": "2020-07-09 15:36:55",
        "published": true,
        "owner": {
          "organizationID": 283,
          "name": "Timrå kommun"
        },
        "manager": {
          "organizationID": 283,
          "name": "Timrå kommun"
        },
        "fields": [
          {
            "id": 153,
            "name": "Allmänt tillgänglig",
            "type": "DROPDOWN",
            "value": "Särskilda öppettider"
          },
          {
            "id": 35,
            "name": "Antal nedfarter",
            "type": "INTEGER",
            "value": 1
          },
          {
            "id": 36,
            "name": "Max fallhöjd",
            "type": "INTEGER",
            "value": 150
          },
          {
            "id": 37,
            "name": "Liftar",
            "type": "INTEGER",
            "value": 1
          },
          {
            "id": 38,
            "name": "Belysning",
            "type": "TOGGLE",
            "value": "Ja"
          },
          {
            "id": 154,
            "name": "Bokningsbar",
            "type": "TOGGLE",
            "value": "Nej"
          },
          {
            "id": 1,
            "name": "Beskrivning",
            "type": "FREETEXT",
            "value": "Skidbacke i anslutning till Skönvik och Timrå"
          },
          {
            "id": 136,
            "name": "Öppettider länk",
            "type": "FREETEXT",
            "value": "https://www.facebook.com/skonviksbacken/"
          },
          {
            "id": 180,
            "name": "Kontakt länk",
            "type": "FREETEXT",
            "value": "https://www.facebook.com/skonviksbacken/"
          }
        ],
        "centerPoint": [
          17.317226956455567,
          62.465421038681505
        ]
      },
      "geometry": {
        "type": "MultiPolygon",
        "coordinates": [
          [
            [
              [
                17.319976226655054,
                62.46155082880937
              ],
              [
                17.320339213641276,
                62.46158781039605
              ],
              [
                17.319774415824316,
                62.462439935110766
              ],
              [
                17.319476950213673,
                62.46299640662983
              ],
              [
                17.319192992305847,
                62.46354035793613
              ],
              [
                17.318874976829584,
                62.464118241921916
              ],
              [
                17.318706597676584,
                62.46442419397513
              ],
              [
                17.31853223856165,
                62.46474431394146
              ],
              [
                17.318256964887436,
                62.4652497466087
              ],
              [
                17.317839090612207,
                62.46604847720029
              ],
              [
                17.317260021142907,
                62.46710633032976
              ],
              [
                17.316709238386814,
                62.46803043090132
              ],
              [
                17.316562015250383,
                62.46840054558476
              ],
              [
                17.31651295424567,
                62.46852388799638
              ],
              [
                17.31647677944495,
                62.46879808055182
              ],
              [
                17.31638039836072,
                62.46895877903146
              ],
              [
                17.316324860067443,
                62.469014570109145
              ],
              [
                17.316156681783472,
                62.469058656194115
              ],
              [
                17.31581630100854,
                62.46915575470115
              ],
              [
                17.315776968057634,
                62.4691654254692
              ],
              [
                17.315560836851013,
                62.469218558029525
              ],
              [
                17.31527535968803,
                62.46927800017493
              ],
              [
                17.315149152435577,
                62.46917221287742
              ],
              [
                17.3151111992449,
                62.46914040525089
              ],
              [
                17.314850013040417,
                62.46888198835412
              ],
              [
                17.314067622623067,
                62.468394981515566
              ],
              [
                17.31400366656156,
                62.467829942435166
              ],
              [
                17.313998098565584,
                62.467331317706254
              ],
              [
                17.314014317559696,
                62.467137836954706
              ],
              [
                17.314484144193433,
                62.466694196360706
              ],
              [
                17.3150131265487,
                62.46615183554817
              ],
              [
                17.315536729903144,
                62.465457145014284
              ],
              [
                17.315937279895053,
                62.46496309090584
              ],
              [
                17.316324393928916,
                62.46450670535993
              ],
              [
                17.316797785584505,
                62.464100440782765
              ],
              [
                17.316901955995633,
                62.46387585329698
              ],
              [
                17.317171095827575,
                62.463628216299426
              ],
              [
                17.317477601611387,
                62.46332265299967
              ],
              [
                17.317575976967152,
                62.46314444143694
              ],
              [
                17.31768647127917,
                62.462757444064025
              ],
              [
                17.31789199619624,
                62.46260131921197
              ],
              [
                17.31837200122282,
                62.462365484548606
              ],
              [
                17.318893305675196,
                62.462110984914396
              ],
              [
                17.319199553724395,
                62.4620534600826
              ],
              [
                17.319525802302827,
                62.461716442273826
              ],
              [
                17.31964237789967,
                62.4616182563605
              ],
              [
                17.319976226655054,
                62.46155082880937
              ]
            ]
          ]
        ]
      }
    },
    {
      "id": 705,
      "type": "Feature",
      "properties": {
        "name": "Nolbybacken",
        "type": "Skidbacke",
        "created": "2019-04-05 12:47:01",
        "updated": "2024-03-22 10:00:21",
        "published": true,
        "owner": {
          "organizationID": 116,
          "name": "njurunda slalomklubb"
        },
        "manager": {
          "organizationID": 116,
          "name": "njurunda slalomklubb"
        },
        "tags": [
          "nolbybacken",
          "skidservice",
          "skidskola",
          "skiduthyrning",
          "slalombacke"
        ],
        "fields": [
          {
            "id": 153,
            "name": "Allmänt tillgänglig",
            "type": "DROPDOWN",
            "value": "Särskilda öppettider"
          },
          {
            "id": 35,
            "name": "Antal nedfarter",
            "type": "INTEGER",
            "value": 3
          },
          {
            "id": 36,
            "name": "Max fallhöjd",
            "type": "INTEGER",
            "value": 157
          },
          {
            "id": 37,
            "name": "Liftar",
            "type": "INTEGER",
            "value": 2
          },
          {
            "id": 7,
            "name": "Tillhörande filer",
            "type": "FILES",
            "value": [
              {
                "id": 1214,
                "filename": "Nolby backen 1c.jpg",
                "description": "",
                "alttext": "",
                "sourcetext": "Sundsvalls kommun",
                "validForWinter": false,
                "validForSummer": false,
                "sortIndex": null,
                "type": "image/jpeg",
                "size": 344935,
                "url": "https://api.sundsvall.se/facilities/2.2/field/filesfield/1214",
                "license": "CC0",
                "licenseDescription": "Creative commons. \"No rights reserved\" https://creativecommons.org/share-your-work/public-domain/cc0/"
              },
              {
                "id": 1215,
                "filename": "Nolbybacken.JPG",
                "description": "",
                "alttext": "",
                "sourcetext": "Sundsvalls kommun",
                "validForWinter": false,
                "validForSummer": false,
                "sortIndex": null,
                "type": "image/jpeg",
                "size": 2433245,
                "url": "https://api.sundsvall.se/facilities/2.2/field/filesfield/1215",
                "license": "CC0",
                "licenseDescription": "Creative commons. \"No rights reserved\" https://creativecommons.org/share-your-work/public-domain/cc0/"
              },
              {
                "id": 1216,
                "filename": "Nolby backen 1b.jpg",
                "description": "",
                "alttext": "",
                "sourcetext": "Sundsvalls kommun",
                "validForWinter": false,
                "validForSummer": false,
                "sortIndex": null,
                "type": "image/jpeg",
                "size": 358242,
                "url": "https://api.sundsvall.se/facilities/2.2/field/filesfield/1216",
                "license": "CC0",
                "licenseDescription": "Creative commons. \"No rights reserved\" https://creativecommons.org/share-your-work/public-domain/cc0/"
              }
            ]
          },
          {
            "id": 38,
            "name": "Belysning",
            "type": "TOGGLE",
            "value": "Ja"
          },
          {
            "id": 154,
            "name": "Bokningsbar",
            "type": "TOGGLE",
            "value": "Nej"
          },
          {
            "id": 1,
            "name": "Beskrivning",
            "type": "FREETEXT",
            "value": "Slalombacke på Gumsekullen i Nolby. Med hjälp av konstsnö är Nolbybackens mål att erbjuda skidåkning från november till i  slutet på april. Nolbybacken har 2 liftar och 4 nedfarter där den längsta nedfarten är 700 meter. Det finns även en särskilt handikappanpassad barnbacke samt ett lekland och café. I Hang Loose Dream Park erbjuds en 400 meter lång Fun Park i ?fjällklass? med hopp och rails i olika svårighetsgrader.  Nolbybacken har även skiduthyrning med skidservice och skidskola"
          },
          {
            "id": 136,
            "name": "Öppettider länk",
            "type": "FREETEXT",
            "value": "https://www.nolbybacken.nu/"
          },
          {
            "id": 180,
            "name": "Kontakt länk",
            "type": "FREETEXT",
            "value": "https://www.nolbybacken.nu/"
          }
        ],
        "centerPoint": [
          17.36941117659645,
          62.30080264622095
        ]
      },
      "geometry": {
        "type": "MultiPolygon",
        "coordinates": [
          [
            [
              [
                17.369784153938028,
                62.29918580843167
              ],
              [
                17.37042879723483,
                62.29920044509623
              ],
              [
                17.370818718793757,
                62.299278923803236
              ],
              [
                17.371157635193068,
                62.29935459707788
              ],
              [
                17.371449637086965,
                62.2994303105137
              ],
              [
                17.37172131877655,
                62.29952503320357
              ],
              [
                17.372374750698192,
                62.29969253925135
              ],
              [
                17.373091095833644,
                62.299779270270925
              ],
              [
                17.37330766285512,
                62.29986264341145
              ],
              [
                17.374022596443822,
                62.30010035778387
              ],
              [
                17.374514105451865,
                62.30007522872175
              ],
              [
                17.374944240223698,
                62.300079175346625
              ],
              [
                17.3750208440405,
                62.300105220555054
              ],
              [
                17.37483031258412,
                62.30058375433454
              ],
              [
                17.37426078100096,
                62.300982801112106
              ],
              [
                17.37370867408254,
                62.30128200301403
              ],
              [
                17.373104494095234,
                62.30169561661717
              ],
              [
                17.372671163866304,
                62.301987527741815
              ],
              [
                17.372417949724433,
                62.30232284203487
              ],
              [
                17.372258740957164,
                62.30236452726544
              ],
              [
                17.372066465649436,
                62.302112457994234
              ],
              [
                17.37207885495664,
                62.3020234218515
              ],
              [
                17.372040472511763,
                62.30199081295647
              ],
              [
                17.372402848079318,
                62.301744191125515
              ],
              [
                17.37250419594609,
                62.301583856367294
              ],
              [
                17.372458835492907,
                62.30140287828761
              ],
              [
                17.372260527042936,
                62.30123390481189
              ],
              [
                17.371591321924356,
                62.30127306937248
              ],
              [
                17.371381178300577,
                62.30132963569245
              ],
              [
                17.371266251166837,
                62.3012852233622
              ],
              [
                17.370743630267658,
                62.30131535336238
              ],
              [
                17.37042387724546,
                62.30114299588264
              ],
              [
                17.369758215880122,
                62.30111152183433
              ],
              [
                17.369222940740045,
                62.30116539709502
              ],
              [
                17.368152077447416,
                62.30119479945586
              ],
              [
                17.368036436976983,
                62.300966993006874
              ],
              [
                17.367439185601004,
                62.30082149741282
              ],
              [
                17.36728581656069,
                62.300725479598256
              ],
              [
                17.36649006767127,
                62.30067985555923
              ],
              [
                17.366268377590934,
                62.30071921227509
              ],
              [
                17.36585511526072,
                62.300673264170165
              ],
              [
                17.365732870587948,
                62.30071253710811
              ],
              [
                17.365174795931807,
                62.30080558688338
              ],
              [
                17.36463189538492,
                62.300866572800345
              ],
              [
                17.36431053845911,
                62.30084903236967
              ],
              [
                17.36418794009747,
                62.300795717968775
              ],
              [
                17.364064870234614,
                62.30061776848174
              ],
              [
                17.363728095929467,
                62.300568190260904
              ],
              [
                17.363865211238142,
                62.30041495455826
              ],
              [
                17.36399454078303,
                62.300226114983055
              ],
              [
                17.36397105313867,
                62.30008369381307
              ],
              [
                17.363840432161055,
                62.29993067737421
              ],
              [
                17.36420731159704,
                62.29985203419224
              ],
              [
                17.36458221783532,
                62.2998730917417
              ],
              [
                17.364628589057336,
                62.2999976889001
              ],
              [
                17.36659461362814,
                62.300020980881264
              ],
              [
                17.367106855366842,
                62.299949330072145
              ],
              [
                17.367504505050878,
                62.299916945410814
              ],
              [
                17.367871374743434,
                62.299838292569746
              ],
              [
                17.368176907095666,
                62.299724080793276
              ],
              [
                17.368910270917603,
                62.29947418459952
              ],
              [
                17.369291979046974,
                62.299281562925344
              ],
              [
                17.369784153938028,
                62.29918580843167
              ]
            ]
          ]
        ]
      }
    },
    {
      "id": 706,
      "type": "Feature",
      "properties": {
        "name": "Sundsvalls slalombacke",
        "type": "Skidbacke",
        "created": "2019-04-05 12:49:03",
        "updated": "2020-07-09 14:42:50",
        "published": true,
        "owner": {
          "organizationID": 181,
          "name": "sundsvalls slalomklubb"
        },
        "manager": {
          "organizationID": 181,
          "name": "sundsvalls slalomklubb"
        },
        "fields": [
          {
            "id": 153,
            "name": "Allmänt tillgänglig",
            "type": "DROPDOWN",
            "value": "Särskilda öppettider"
          },
          {
            "id": 35,
            "name": "Antal nedfarter",
            "type": "INTEGER",
            "value": 3
          },
          {
            "id": 36,
            "name": "Max fallhöjd",
            "type": "INTEGER",
            "value": 139
          },
          {
            "id": 37,
            "name": "Liftar",
            "type": "INTEGER",
            "value": 2
          },
          {
            "id": 38,
            "name": "Belysning",
            "type": "TOGGLE",
            "value": "Ja"
          },
          {
            "id": 154,
            "name": "Bokningsbar",
            "type": "TOGGLE",
            "value": "Ja"
          },
          {
            "id": 1,
            "name": "Beskrivning",
            "type": "FREETEXT",
            "value": "Skidbacke vid Hillstamon, söder om Södermalm med tre nedfarter och två liftar."
          },
          {
            "id": 136,
            "name": "Öppettider länk",
            "type": "FREETEXT",
            "value": "https://sundsvallsslalombacke.se/"
          },
          {
            "id": 155,
            "name": "Bokning länk",
            "type": "FREETEXT",
            "value": "https://sundsvallsslalombacke.se/"
          },
          {
            "id": 180,
            "name": "Kontakt länk",
            "type": "FREETEXT",
            "value": "https://sundsvallsslalombacke.se/"
          }
        ],
        "centerPoint": [
          17.32604721155172,
          62.370948916565105
        ]
      },
      "geometry": {
        "type": "MultiPolygon",
        "coordinates": [
          [
            [
              [
                17.32523691655377,
                62.37084079200958
              ],
              [
                17.324898840066417,
                62.37069666254947
              ],
              [
                17.324091578323095,
                62.37032619784974
              ],
              [
                17.32337977707441,
                62.36998986881371
              ],
              [
                17.322557331750946,
                62.3696275396146
              ],
              [
                17.322044994092387,
                62.36939842601787
              ],
              [
                17.321563038941605,
                62.3691818972172
              ],
              [
                17.321619319834312,
                62.3691405355658
              ],
              [
                17.32182118181495,
                62.36899220063449
              ],
              [
                17.322003293203196,
                62.368901526540526
              ],
              [
                17.322326385094033,
                62.36882439516518
              ],
              [
                17.322810321641406,
                62.368933909240084
              ],
              [
                17.323102473406685,
                62.36896455369652
              ],
              [
                17.323784113593284,
                62.36906696853779
              ],
              [
                17.324410091933025,
                62.36915769562095
              ],
              [
                17.32487016489237,
                62.36921559154755
              ],
              [
                17.325282710437623,
                62.36938053428088
              ],
              [
                17.3260318607562,
                62.36969113150665
              ],
              [
                17.326561996526877,
                62.37011176123469
              ],
              [
                17.32701811236602,
                62.37032092401128
              ],
              [
                17.32766747202785,
                62.37044907198704
              ],
              [
                17.328191967479324,
                62.3705572177184
              ],
              [
                17.328738819140064,
                62.370587481912374
              ],
              [
                17.32963810266804,
                62.370548372792996
              ],
              [
                17.32989261695661,
                62.370758730654394
              ],
              [
                17.329784098533892,
                62.370864131702746
              ],
              [
                17.32961588177922,
                62.370989038047185
              ],
              [
                17.329526155279126,
                62.37115687791078
              ],
              [
                17.329452151196303,
                62.37134501630921
              ],
              [
                17.329389983291602,
                62.371690161292996
              ],
              [
                17.329435258631992,
                62.372012029385125
              ],
              [
                17.329751776107457,
                62.37222042533852
              ],
              [
                17.329908439526783,
                62.37232356532693
              ],
              [
                17.330288104669197,
                62.372624010774814
              ],
              [
                17.330539933801596,
                62.372819146760094
              ],
              [
                17.330053675470847,
                62.372989690620095
              ],
              [
                17.329892968966103,
                62.37307123934083
              ],
              [
                17.329106079763235,
                62.372669634378965
              ],
              [
                17.329033216184854,
                62.37263245592916
              ],
              [
                17.328537907154672,
                62.37248279344205
              ],
              [
                17.328170373565737,
                62.37242210627832
              ],
              [
                17.327567146120074,
                62.37228205568694
              ],
              [
                17.326588267731438,
                62.37240232976606
              ],
              [
                17.326499148953538,
                62.372321364030924
              ],
              [
                17.326067277447624,
                62.37234484131223
              ],
              [
                17.325935715186258,
                62.372089606730704
              ],
              [
                17.32590768861201,
                62.37191683155712
              ],
              [
                17.325692135731757,
                62.37159620658877
              ],
              [
                17.325516269293264,
                62.371501409835545
              ],
              [
                17.325226815007458,
                62.37135743084314
              ],
              [
                17.324708525306146,
                62.37122237078564
              ],
              [
                17.32514462210287,
                62.37098920633634
              ],
              [
                17.32523691655377,
                62.37084079200958
              ]
            ]
          ],
          [
            [
              [
                17.326484196679772,
                62.37140710363728
              ],
              [
                17.32637631539031,
                62.37140891211009
              ],
              [
                17.326329017211716,
                62.37147248526445
              ],
              [
                17.32646204965633,
                62.371588644705156
              ],
              [
                17.326960131793125,
                62.37184303067763
              ],
              [
                17.327276461354955,
                62.37200491471922
              ],
              [
                17.327477004287125,
                62.37211368137992
              ],
              [
                17.327595210832467,
                62.37215261666336
              ],
              [
                17.32768438702969,
                62.372199522335364
              ],
              [
                17.327806363073247,
                62.37225965227015
              ],
              [
                17.327973467173056,
                62.37226018537463
              ],
              [
                17.32790305770222,
                62.37211057258223
              ],
              [
                17.327530762570305,
                62.37183811847861
              ],
              [
                17.32751442805407,
                62.3718261621733
              ],
              [
                17.32732886467626,
                62.371745997871265
              ],
              [
                17.327003577639733,
                62.371605476854775
              ],
              [
                17.326869094059198,
                62.37153622247755
              ],
              [
                17.32664483375898,
                62.37142074163556
              ],
              [
                17.32660940275217,
                62.37141773301669
              ],
              [
                17.326484196679772,
                62.37140710363728
              ]
            ]
          ]
        ]
      }
    },
    {
      "id": 707,
      "type": "Feature",
      "properties": {
        "name": "Vättabergets skidbacke",
        "type": "Skidbacke",
        "created": "2019-04-05 12:52:49",
        "updated": "2020-07-09 15:35:30",
        "published": true,
        "owner": {
          "organizationID": 282,
          "name": "Vetten Alpin"
        },
        "manager": {
          "organizationID": 282,
          "name": "Vetten Alpin"
        },
        "fields": [
          {
            "id": 153,
            "name": "Allmänt tillgänglig",
            "type": "DROPDOWN",
            "value": "Särskilda öppettider"
          },
          {
            "id": 35,
            "name": "Antal nedfarter",
            "type": "INTEGER",
            "value": 1
          },
          {
            "id": 36,
            "name": "Max fallhöjd",
            "type": "INTEGER",
            "value": 133
          },
          {
            "id": 37,
            "name": "Liftar",
            "type": "INTEGER",
            "value": 2
          },
          {
            "id": 38,
            "name": "Belysning",
            "type": "TOGGLE",
            "value": "Ja"
          },
          {
            "id": 154,
            "name": "Bokningsbar",
            "type": "TOGGLE",
            "value": "Nej"
          },
          {
            "id": 1,
            "name": "Beskrivning",
            "type": "FREETEXT",
            "value": "Skidbacke i Liden som drivs av föreningen Vetten Alpin."
          },
          {
            "id": 136,
            "name": "Öppettider länk",
            "type": "FREETEXT",
            "value": "https://www.facebook.com/pages/category/Sports---Recreation-Venue/Vetten-Alpina-535113153322623/"
          },
          {
            "id": 180,
            "name": "Kontakt länk",
            "type": "FREETEXT",
            "value": "https://www.facebook.com/pages/category/Sports---Recreation-Venue/Vetten-Alpina-535113153322623/"
          }
        ],
        "centerPoint": [
          16.770663366253082,
          62.69730667135176
        ]
      },
      "geometry": {
        "type": "MultiPolygon",
        "coordinates": [
          [
            [
              [
                16.77314473596649,
                62.69913374496588
              ],
              [
                16.77252289455287,
                62.698835445035954
              ],
              [
                16.771465164102647,
                62.69851991145989
              ],
              [
                16.771166019372092,
                62.69839417102338
              ],
              [
                16.77085914402808,
                62.698482631016724
              ],
              [
                16.770507945713565,
                62.69867742177233
              ],
              [
                16.769586615995838,
                62.69861805183046
              ],
              [
                16.769203406661596,
                62.69852810961385
              ],
              [
                16.768748468047317,
                62.698330249266185
              ],
              [
                16.76867672445023,
                62.697967380724094
              ],
              [
                16.768553663603015,
                62.69769935218268
              ],
              [
                16.768391283303963,
                62.69753649799943
              ],
              [
                16.767810894864272,
                62.69725187528679
              ],
              [
                16.767177431413856,
                62.6970922370181
              ],
              [
                16.76704420248733,
                62.69694402145192
              ],
              [
                16.766985508381342,
                62.69649154748516
              ],
              [
                16.767120038118843,
                62.696366662205314
              ],
              [
                16.76744262964525,
                62.69621799875545
              ],
              [
                16.76758184848109,
                62.69612892035819
              ],
              [
                16.767836307279428,
                62.696127178319166
              ],
              [
                16.767993323531776,
                62.696423134002096
              ],
              [
                16.768171614680192,
                62.69662731470696
              ],
              [
                16.769170871106063,
                62.696211292113524
              ],
              [
                16.77072878325441,
                62.69567297045529
              ],
              [
                16.771614386112876,
                62.6954362346866
              ],
              [
                16.771663264201624,
                62.69549074733483
              ],
              [
                16.771954821149272,
                62.695815959788746
              ],
              [
                16.771887213632567,
                62.69583564377029
              ],
              [
                16.771467548259906,
                62.695957817444686
              ],
              [
                16.771269603438334,
                62.69637892147138
              ],
              [
                16.771431504977674,
                62.69664525479982
              ],
              [
                16.771886979246656,
                62.69682981951626
              ],
              [
                16.771950852329418,
                62.69690914502881
              ],
              [
                16.771882888312994,
                62.697017528861075
              ],
              [
                16.77169145993083,
                62.69709860961826
              ],
              [
                16.771464955628783,
                62.69735824532282
              ],
              [
                16.771103305039432,
                62.697661214223174
              ],
              [
                16.77247775336556,
                62.6981970134776
              ],
              [
                16.773016626285287,
                62.69840752689265
              ],
              [
                16.77353280717099,
                62.698169001816154
              ],
              [
                16.773579910147593,
                62.69814723611477
              ],
              [
                16.77377703375977,
                62.69829460140323
              ],
              [
                16.774361026765494,
                62.69844885719362
              ],
              [
                16.77314473596649,
                62.69913374496588
              ]
            ]
          ]
        ]
      }
    }
  ]
}